station,valid,tmpf,dwpf,relh,drct,sknt,p01i,alti,mslp,vsby,gust,skyc1,skyc2,skyc3,skyc4,skyl1,skyl2,skyl3,skyl4,wxcodes,ice_accretion_1hr,ice_accretion_3hr,ice_accretion_6hr,peak_wind_gust,peak_wind_drct,peak_wind_time,feel,metar,snowdepth
OOA,2026-01-01 00:15,38.70,35.00,86.41,290.00,3.00,0.00,29.93,M,10.00,M,CLR,M,M,M,M,M,M,M,M,M,M,M,M,M,M,36.35,KOOA 010015Z AUTO 29003KT 10SM CLR 04/02 A2993 RMK AO2 T00370017,M
OOA,2026-01-01 00:35,38.00,34.70,87.76,300.00,4.00,0.00,29.94,M,10.00,M,CLR,M,M,M,M,M,M,M,M,M,M,M,M,M,M,34.43,KOOA 010035Z AUTO 30004KT 10SM CLR 03/02 A2994 RMK AO2 T00330015,M
OOA,2026-01-01 00:55,36.50,34.00,90.54,320.00,4.00,0.00,29.94,M,10.00,M,CLR,M,M,M,M,M,M,M,M,M,M,M,M,M,M,32.68,KOOA 010055Z AUTO 32004KT 10SM CLR 03/01 A2994 RMK AO2 T00250012,M
OOA,2026-01-01 01:15,37.00,34.70,91.29,320.00,4.00,0.00,29.94,M,10.00,M,CLR,M,M,M,M,M,M,M,M,M,M,M,M,M,M,33.26,KOOA 010115Z AUTO 32004KT 10SM CLR 03/02 A2994 RMK AO2 T00270015,M
OOA,2026-01-01 01:35,39.40,36.00,87.49,350.00,10.00,0.00,29.96,M,10.00,M,CLR,M,M,M,M,M,M,M,M,M,M,M,M,M,M,32.25,KOOA 010135Z AUTO 35010KT 10SM CLR 04/02 A2996 RMK AO2 T00410022,M
OOA,2026-01-01 01:55,39.20,35.60,86.79,350.00,14.00,0.00,29.96,M,10.00,M,CLR,M,M,M,M,M,M,M,M,M,M,M,M,M,M,30.44,KOOA 010155Z AUTO 35014KT 10SM CLR 04/02 A2996 RMK AO2 T00400020,M
OOA,2026-01-01 02:15,38.00,34.70,87.76,360.00,10.00,0.00,29.97,M,10.00,M,SCT,SCT,M,M,7000.00,8000.00,M,M,M,M,M,M,M,M,M,30.49,KOOA 010215Z AUTO 36010KT 10SM SCT070 SCT080 03/02 A2997 RMK AO2 T00330015,M
OOA,2026-01-01 02:35,37.60,34.00,86.70,360.00,11.00,0.00,29.97,M,10.00,M,CLR,M,M,M,M,M,M,M,M,M,M,M,M,M,M,29.54,KOOA 010235Z AUTO 36011KT 10SM CLR 03/01 A2997 RMK AO2 T00310012,M
OOA,2026-01-01 02:55,37.00,33.80,88.06,360.00,11.00,0.00,29.97,M,10.00,M,CLR,M,M,M,M,M,M,M,M,M,M,M,M,M,M,28.79,KOOA 010255Z AUTO 36011KT 10SM CLR 03/01 A2997 RMK AO2 T00280010,M
OOA,2026-01-01 03:15,36.00,32.50,86.96,10.00,17.00,0.00,29.98,M,10.00,22.00,CLR,M,M,M,M,M,M,M,M,M,M,M,M,M,M,25.32,KOOA 010315Z AUTO 01017G22KT 10SM CLR 02/00 A2998 RMK AO2 T00230003,M
OOA,2026-01-01 03:35,35.40,32.00,87.27,360.00,12.00,0.00,29.98,M,10.00,16.00,CLR,M,M,M,M,M,M,M,M,M,M,M,M,M,M,26.33,KOOA 010335Z AUTO 36012G16KT 10SM CLR 02/00 A2998 RMK AO2 T00190000,M
OOA,2026-01-01 03:55,35.00,31.30,86.20,10.00,11.00,0.00,29.99,M,10.00,M,CLR,M,M,M,M,M,M,M,M,M,M,M,M,M,M,26.26,KOOA 010355Z AUTO 01011KT 10SM CLR 02/00 A2999 RMK AO2 T00161004,M
OOA,2026-01-01 04:15,34.30,31.00,87.57,10.00,13.00,0.00,30.00,M,10.00,M,CLR,M,M,M,M,M,M,M,M,M,M,M,M,M,M,24.51,KOOA 010415Z AUTO 01013KT 10SM CLR 01/M01 A3000 RMK AO2 T00131006,M
OOA,2026-01-01 04:35,33.80,30.40,87.19,360.00,14.00,0.00,30.01,M,10.00,17.00,CLR,M,M,M,M,M,M,M,M,M,M,M,M,M,M,23.48,KOOA 010435Z AUTO 36014G17KT 10SM CLR 01/M01 A3001 RMK AO2 T00101009,M
OOA,2026-01-01 04:55,33.00,28.60,83.65,360.00,14.00,0.00,30.02,M,10.00,M,CLR,M,M,M,M,M,M,M,M,M,M,M,M,M,M,22.45,KOOA 010455Z AUTO 36014KT 10SM CLR 01/M02 A3002 RMK AO2 T00051019,M
OOA,2026-01-01 05:15,32.50,28.60,85.35,360.00,10.00,0.00,30.02,M,10.00,M,CLR,M,M,M,M,M,M,M,M,M,M,M,M,M,M,23.60,KOOA 010515Z AUTO 36010KT 10SM CLR 00/M02 A3002 RMK AO2 T00031019,M
OOA,2026-01-01 05:35,32.00,29.00,88.53,360.00,11.00,0.00,30.03,M,10.00,15.00,CLR,M,M,M,M,M,M,M,M,M,M,M,M,M,M,22.47,KOOA 010535Z AUTO 36011G15KT 10SM CLR 00/M02 A3003 RMK AO2 T00011017,M
OOA,2026-01-01 05:55,32.00,27.70,83.93,360.00,12.00,0.00,30.04,M,10.00,16.00,CLR,M,M,M,M,M,M,M,M,M,M,M,M,M,M,22.00,KOOA 010555Z AUTO 36012G16KT 10SM CLR 00/M02 A3004 RMK AO2 T00001024 10042 20000 400800000,M
OOA,2026-01-01 06:15,31.00,26.00,81.46,360.00,13.00,0.00,30.04,M,10.00,M,CLR,M,M,M,M,M,M,M,M,M,M,M,M,M,M,20.29,KOOA 010615Z AUTO 36013KT 10SM CLR M01/M03 A3004 RMK AO2 T10061034,M
OOA,2026-01-01 06:35,29.50,24.80,82.37,20.00,14.00,0.00,30.04,M,10.00,M,CLR,M,M,M,M,M,M,M,M,M,M,M,M,M,M,17.94,KOOA 010635Z AUTO 02014KT 10SM CLR M01/M04 A3004 RMK AO2 T10141040,M
OOA,2026-01-01 06:55,28.00,23.70,83.65,20.00,15.00,0.00,30.05,M,10.00,M,CLR,M,M,M,M,M,M,M,M,M,M,M,M,M,M,15.59,KOOA 010655Z AUTO 02015KT 10SM CLR M02/M05 A3005 RMK AO2 T10221046,M
OOA,2026-01-01 07:15,26.80,22.30,82.87,20.00,14.00,0.00,30.05,M,10.00,M,CLR,M,M,M,M,M,M,M,M,M,M,M,M,M,M,14.46,KOOA 010715Z AUTO 02014KT 10SM CLR M03/M05 A3005 RMK AO2 T10291054,M
OOA,2026-01-01 07:35,25.70,20.70,81.05,10.00,14.00,0.00,30.05,M,10.00,M,CLR,M,M,M,M,M,M,M,M,M,M,M,M,M,M,13.04,KOOA 010735Z AUTO 01014KT 10SM CLR M03/M06 A3005 RMK AO2 T10351063,M
OOA,2026-01-01 07:55,24.80,19.80,80.98,10.00,11.00,0.00,30.07,M,10.00,M,CLR,M,M,M,M,M,M,M,M,M,M,M,M,M,M,13.37,KOOA 010755Z AUTO 01011KT 10SM CLR M04/M07 A3007 RMK AO2 T10401068,M
OOA,2026-01-01 08:15,24.00,19.20,81.61,20.00,11.00,0.00,30.07,M,10.00,M,CLR,M,M,M,M,M,M,M,M,M,M,M,M,M,M,12.36,KOOA 010815Z AUTO 02011KT 10SM CLR M04/M07 A3007 RMK AO2 T10451071,M
OOA,2026-01-01 08:35,23.00,18.00,80.83,30.00,8.00,0.00,30.07,M,10.00,M,CLR,M,M,M,M,M,M,M,M,M,M,M,M,M,M,13.03,KOOA 010835Z AUTO 03008KT 10SM CLR M05/M08 A3007 RMK AO2 T10501077,M
OOA,2026-01-01 08:55,22.30,17.60,81.83,20.00,10.00,0.00,30.07,M,10.00,M,CLR,M,M,M,M,M,M,M,M,M,M,M,M,M,M,10.80,KOOA 010855Z AUTO 02010KT 10SM CLR M05/M08 A3007 RMK AO2 T10541080,M
OOA,2026-01-01 09:15,21.70,17.20,82.49,30.00,8.00,0.00,30.06,M,10.00,M,CLR,M,M,M,M,M,M,M,M,M,M,M,M,M,M,11.43,KOOA 010915Z AUTO 03008KT 10SM CLR M06/M08 A3006 RMK AO2 T10571082,M
OOA,2026-01-01 09:35,21.40,17.60,85.00,20.00,10.00,0.00,30.06,M,10.00,M,CLR,M,M,M,M,M,M,M,M,M,M,M,M,M,M,9.68,KOOA 010935Z AUTO 02010KT 10SM CLR M06/M08 A3006 RMK AO2 T10591080,M
OOA,2026-01-01 09:55,21.00,17.00,84.25,20.00,8.00,0.00,30.07,M,10.00,M,CLR,M,M,M,M,M,M,M,M,M,M,M,M,M,M,10.56,KOOA 010955Z AUTO 02008KT 10SM CLR M06/M08 A3007 RMK AO2 T10611084,M
OOA,2026-01-01 10:15,21.00,17.00,84.25,30.00,7.00,0.00,30.06,M,10.00,M,CLR,M,M,M,M,M,M,M,M,M,M,M,M,M,M,11.37,KOOA 011015Z AUTO 03007KT 10SM CLR M06/M08 A3006 RMK AO2 T10621084,M
OOA,2026-01-01 10:35,20.30,16.50,84.93,30.00,6.00,0.00,30.06,M,10.00,M,CLR,M,M,M,M,M,M,M,M,M,M,M,M,M,M,11.44,KOOA 011035Z AUTO 03006KT 10SM CLR M06/M09 A3006 RMK AO2 T10651086,M
OOA,2026-01-01 10:55,20.30,16.70,85.67,20.00,5.00,0.00,30.06,M,10.00,M,CLR,M,M,M,M,M,M,M,M,M,M,M,M,M,M,12.50,KOOA 011055Z AUTO 02005KT 10SM CLR M06/M08 A3006 RMK AO2 T10651085,M
OOA,2026-01-01 11:15,20.00,16.30,85.28,40.00,5.00,0.00,30.06,M,10.00,M,CLR,M,M,M,M,M,M,M,M,M,M,M,M,M,M,12.14,KOOA 011115Z AUTO 04005KT 10SM CLR M07/M09 A3006 RMK AO2 T10661087,M
OOA,2026-01-01 11:35,20.00,16.00,84.18,30.00,7.00,0.00,30.06,M,10.00,M,CLR,M,M,M,M,M,M,M,M,M,M,M,M,M,M,10.15,KOOA 011135Z AUTO 03007KT 10SM CLR M07/M09 A3006 RMK AO2 T10671088,M
OOA,2026-01-01 11:55,19.40,15.80,85.61,10.00,6.00,0.00,30.07,M,10.00,M,CLR,M,M,M,M,M,M,M,M,M,M,M,M,M,M,10.36,KOOA 011155Z AUTO 01006KT 10SM CLR M07/M09 A3007 RMK AO2 T10701090 11001 21070,M
OOA,2026-01-01 12:15,19.20,15.60,85.60,20.00,8.00,0.00,30.07,M,10.00,M,CLR,M,M,M,M,M,M,M,M,M,M,M,M,M,M,8.35,KOOA 011215Z AUTO 02008KT 10SM CLR M07/M09 A3007 RMK AO2 T10711091,M
OOA,2026-01-01 12:35,19.00,15.60,86.34,20.00,7.00,0.00,30.07,M,10.00,M,CLR,M,M,M,M,M,M,M,M,M,M,M,M,M,M,8.93,KOOA 011235Z AUTO 02007KT 10SM CLR M07/M09 A3007 RMK AO2 T10721091,M
OOA,2026-01-01 12:55,19.00,15.60,86.34,20.00,5.00,0.00,30.07,M,10.00,M,CLR,M,M,M,M,M,M,M,M,M,M,M,M,M,M,10.96,KOOA 011255Z AUTO 02005KT 10SM CLR M07/M09 A3007 RMK AO2 T10731091,M
OOA,2026-01-01 13:15,18.50,15.40,87.45,30.00,4.00,0.00,30.07,M,10.00,M,CLR,M,M,M,M,M,M,M,M,M,M,M,M,M,M,11.66,KOOA 011315Z AUTO 03004KT 10SM CLR M07/M09 A3007 RMK AO2 T10751092,M
OOA,2026-01-01 13:35,18.50,15.00,85.93,60.00,4.00,0.00,30.06,M,10.00,M,CLR,M,M,M,M,M,M,M,M,M,M,M,M,M,M,11.66,KOOA 011335Z AUTO 06004KT 10SM CLR M07/M09 A3006 RMK AO2 T10751095,M
OOA,2026-01-01 13:55,18.50,15.00,85.93,60.00,5.00,0.00,30.05,M,10.00,M,SCT,M,M,M,11000.00,M,M,M,M,M,M,M,M,M,M,10.36,KOOA 011355Z AUTO 06005KT 10SM SCT110 M07/M09 A3005 RMK AO2 T10751095,M
OOA,2026-01-01 14:15,19.00,15.00,84.11,50.00,5.00,0.00,30.05,M,10.00,M,SCT,M,M,M,11000.00,M,M,M,M,M,M,M,M,M,M,10.96,KOOA 011415Z AUTO 05005KT 10SM SCT110 M07/M09 A3005 RMK AO2 T10721095,M
OOA,2026-01-01 14:35,19.00,15.00,84.11,50.00,5.00,0.00,30.05,M,10.00,M,CLR,M,M,M,M,M,M,M,M,M,M,M,M,M,M,10.96,KOOA 011435Z AUTO 05005KT 10SM CLR M07/M09 A3005 RMK AO2 T10721094,M
OOA,2026-01-01 14:55,20.30,15.30,80.61,90.00,5.00,0.00,30.04,M,10.00,M,CLR,M,M,M,M,M,M,M,M,M,M,M,M,M,M,12.50,KOOA 011455Z AUTO 09005KT 10SM CLR M06/M09 A3004 RMK AO2 T10651093,M
OOA,2026-01-01 15:15,20.50,15.40,80.28,0.00,0.00,0.00,30.06,M,10.00,M,CLR,M,M,M,M,M,M,M,M,M,M,M,M,M,M,20.50,KOOA 011515Z AUTO 00000KT 10SM CLR M06/M09 A3006 RMK AO2 T10641092,M
OOA,2026-01-01 15:35,21.60,16.00,78.64,0.00,0.00,0.00,30.07,M,10.00,M,CLR,M,M,M,M,M,M,M,M,M,M,M,M,M,M,21.60,KOOA 011535Z AUTO 00000KT 10SM CLR M06/M09 A3007 RMK AO2 T10581089,M
OOA,2026-01-01 15:55,22.30,16.30,77.35,0.00,0.00,0.00,30.07,M,10.00,M,CLR,M,M,M,M,M,M,M,M,M,M,M,M,M,M,22.30,KOOA 011555Z AUTO 00000KT 10SM CLR M05/M09 A3007 RMK AO2 T10541087,M
OOA,2026-01-01 16:15,23.00,16.50,75.76,0.00,0.00,0.00,30.07,M,10.00,M,CLR,M,M,M,M,M,M,M,M,M,M,M,M,M,M,23.00,KOOA 011615Z AUTO 00000KT 10SM CLR M05/M09 A3007 RMK AO2 T10511086,M
OOA,2026-01-01 16:35,23.70,17.40,76.49,0.00,0.00,0.00,30.07,M,10.00,M,CLR,M,M,M,M,M,M,M,M,M,M,M,M,M,M,23.70,KOOA 011635Z AUTO 00000KT 10SM CLR M05/M08 A3007 RMK AO2 T10461081,M
OOA,2026-01-01 16:55,23.70,17.60,77.15,110.00,4.00,0.00,30.05,M,10.00,M,CLR,M,M,M,M,M,M,M,M,M,M,M,M,M,M,17.73,KOOA 011655Z AUTO 11004KT 10SM CLR M05/M08 A3005 RMK AO2 T10461080,M
OOA,2026-01-01 17:15,25.50,18.70,75.03,100.00,3.00,0.00,30.03,M,10.00,M,CLR,M,M,M,M,M,M,M,M,M,M,M,M,M,M,21.26,KOOA 011715Z AUTO 10003KT 10SM CLR M04/M07 A3003 RMK AO2 T10361074,M
OOA,2026-01-01 17:35,24.80,18.30,75.94,170.00,3.00,0.00,30.01,M,10.00,M,CLR,M,M,M,M,M,M,M,M,M,M,M,M,M,M,20.46,KOOA 011735Z AUTO 17003KT 10SM CLR M04/M08 A3001 RMK AO2 T10401076,M
OOA,2026-01-01 17:55,26.80,20.00,75.16,180.00,6.00,0.00,29.99,M,10.00,M,CLR,M,M,M,M,M,M,M,M,M,M,M,M,M,M,19.27,KOOA 011755Z AUTO 18006KT 10SM CLR M03/M07 A2999 RMK AO2 T10291066 11029 21076,M
OOA,2026-01-01 18:15,26.80,20.00,75.16,200.00,6.00,0.00,29.98,M,10.00,M,CLR,M,M,M,M,M,M,M,M,M,M,M,M,M,M,19.27,KOOA 011815Z AUTO 20006KT 10SM CLR M03/M07 A2998 RMK AO2 T10291066,M
OOA,2026-01-01 18:35,28.00,21.00,74.65,180.00,5.00,0.00,29.96,M,10.00,M,CLR,M,M,M,M,M,M,M,M,M,M,M,M,M,M,21.64,KOOA 011835Z AUTO 18005KT 10SM CLR M02/M06 A2996 RMK AO2 T10231061,M
OOA,2026-01-01 18:55,29.00,21.00,71.65,240.00,6.00,0.00,29.97,M,10.00,M,CLR,M,M,M,M,M,M,M,M,M,M,M,M,M,M,21.92,KOOA 011855Z AUTO 24006KT 10SM CLR M02/M06 A2997 RMK AO2 T10161062,M
OOA,2026-01-01 19:15,29.00,19.60,67.50,0.00,0.00,0.00,29.96,M,10.00,M,CLR,M,M,M,M,M,M,M,M,M,M,M,M,M,M,29.00,KOOA 011915Z AUTO 00000KT 10SM CLR M02/M07 A2996 RMK AO2 T10161069,M
OOA,2026-01-01 19:35,30.20,20.70,67.36,230.00,4.00,0.00,29.94,M,10.00,M,CLR,M,M,M,M,M,M,M,M,M,M,M,M,M,M,25.32,KOOA 011935Z AUTO 23004KT 10SM CLR M01/M06 A2994 RMK AO2 T10101063,M
OOA,2026-01-01 19:55,31.00,20.00,63.29,220.00,5.00,0.00,29.93,M,10.00,M,CLR,M,M,M,M,M,M,M,M,M,M,M,M,M,M,25.21,KOOA 011955Z AUTO 22005KT 10SM CLR M01/M07 A2993 RMK AO2 T10061067,M
OOA,2026-01-01 20:15,31.60,20.30,62.57,210.00,4.00,0.00,29.92,M,10.00,M,CLR,M,M,M,M,M,M,M,M,M,M,M,M,M,M,26.95,KOOA 012015Z AUTO 21004KT 10SM CLR 00/M06 A2992 RMK AO2 T10021065,M
OOA,2026-01-01 20:35,32.00,21.00,63.43,220.00,5.00,0.00,29.91,M,10.00,M,CLR,M,M,M,M,M,M,M,M,M,M,M,M,M,M,26.40,KOOA 012035Z AUTO 22005KT 10SM CLR 00/M06 A2991 RMK AO2 T00001061,M
OOA,2026-01-01 20:55,32.00,21.00,63.43,190.00,4.00,0.00,29.91,M,10.00,M,CLR,M,M,M,M,M,M,M,M,M,M,M,M,M,M,27.42,KOOA 012055Z AUTO 19004KT 10SM CLR 00/M06 A2991 RMK AO2 T00001061,M
OOA,2026-01-01 21:15,32.00,21.00,63.43,220.00,5.00,0.00,29.91,M,10.00,M,CLR,M,M,M,M,M,M,M,M,M,M,M,M,M,M,26.40,KOOA 012115Z AUTO 22005KT 10SM CLR 00/M06 A2991 RMK AO2 T00001061,M
OOA,2026-01-01 21:35,32.00,21.20,63.97,240.00,5.00,0.00,29.90,M,10.00,M,CLR,M,M,M,M,M,M,M,M,M,M,M,M,M,M,26.40,KOOA 012135Z AUTO 24005KT 10SM CLR 00/M06 A2990 RMK AO2 T00001060,M
OOA,2026-01-01 21:55,32.00,22.00,66.17,210.00,4.00,0.00,29.90,M,10.00,M,CLR,M,M,M,M,M,M,M,M,M,M,M,M,M,M,27.42,KOOA 012155Z AUTO 21004KT 10SM CLR 00/M06 A2990 RMK AO2 T00001056,M
OOA,2026-01-01 22:15,31.60,23.00,70.14,240.00,5.00,0.00,29.89,M,10.00,M,CLR,M,M,M,M,M,M,M,M,M,M,M,M,M,M,25.92,KOOA 012215Z AUTO 24005KT 10SM CLR 00/M05 A2989 RMK AO2 T10021050,M
OOA,2026-01-01 22:35,30.00,25.00,81.39,240.00,9.00,0.00,29.89,M,10.00,M,CLR,M,M,M,M,M,M,M,M,M,M,M,M,M,M,21.03,KOOA 012235Z AUTO 24009KT 10SM CLR M01/M04 A2989 RMK AO2 T10111039,M
OOA,2026-01-01 22:55,29.30,25.00,83.74,260.00,8.00,0.00,29.90,M,10.00,M,CLR,M,M,M,M,M,M,M,M,M,M,M,M,M,M,20.79,KOOA 012255Z AUTO 26008KT 10SM CLR M01/M04 A2990 RMK AO2 T10151038,M
OOA,2026-01-01 23:15,29.00,24.80,84.07,270.00,8.00,0.00,29.91,M,10.00,M,CLR,M,M,M,M,M,M,M,M,M,M,M,M,M,M,20.42,KOOA 012315Z AUTO 27008KT 10SM CLR M02/M04 A2991 RMK AO2 T10171040,M
OOA,2026-01-01 23:35,28.40,24.80,86.16,270.00,6.00,0.00,29.91,M,10.00,M,CLR,M,M,M,M,M,M,M,M,M,M,M,M,M,M,21.19,KOOA 012335Z AUTO 27006KT 10SM CLR M02/M04 A2991 RMK AO2 T10201040,M
OOA,2026-01-01 23:55,28.00,24.80,87.59,280.00,4.00,0.00,29.92,M,10.00,M,CLR,M,M,M,M,M,M,M,M,M,M,M,M,M,M,22.75,KOOA 012355Z AUTO 28004KT 10SM CLR M02/M04 A2992 RMK AO2 T10221040 10000 21032,M
OOA,2026-01-02 00:15,28.00,24.80,87.59,260.00,4.00,0.00,29.91,M,10.00,M,CLR,M,M,M,M,M,M,M,M,M,M,M,M,M,M,22.75,KOOA 020015Z AUTO 26004KT 10SM CLR M02/M04 A2991 RMK AO2 T10231040,M
OOA,2026-01-02 00:35,27.50,24.40,87.93,270.00,4.00,0.00,29.91,M,10.00,M,CLR,M,M,M,M,M,M,M,M,M,M,M,M,M,M,22.17,KOOA 020035Z AUTO 27004KT 10SM CLR M02/M04 A2991 RMK AO2 T10251042,M
OOA,2026-01-02 00:55,27.00,24.60,90.52,270.00,3.00,0.00,29.91,M,10.00,M,CLR,M,M,M,M,M,M,M,M,M,M,M,M,M,M,22.97,KOOA 020055Z AUTO 27003KT 10SM CLR M03/M04 A2991 RMK AO2 T10281041,M
OOA,2026-01-02 01:15,26.60,24.80,92.80,270.00,4.00,0.00,29.92,M,10.00,M,CLR,M,M,M,M,M,M,M,M,M,M,M,M,M,M,21.11,KOOA 020115Z AUTO 27004KT 10SM CLR M03/M04 A2992 RMK AO2 T10301040,M
OOA,2026-01-02 01:35,27.00,24.80,91.27,290.00,4.00,0.00,29.92,M,10.00,M,CLR,M,M,M,M,M,M,M,M,M,M,M,M,M,M,21.58,KOOA 020135Z AUTO 29004KT 10SM CLR M03/M04 A2992 RMK AO2 T10281040,M
OOA,2026-01-02 01:55,27.30,25.00,90.91,290.00,3.00,0.00,29.92,M,10.00,M,CLR,M,M,M,M,M,M,M,M,M,M,M,M,M,M,23.32,KOOA 020155Z AUTO 29003KT 10SM CLR M03/M04 A2992 RMK AO2 T10261039,M
OOA,2026-01-02 02:15,27.30,25.00,90.91,0.00,0.00,0.00,29.92,M,10.00,M,CLR,M,M,M,M,M,M,M,M,M,M,M,M,M,M,27.30,KOOA 020215Z AUTO 00000KT 10SM CLR M03/M04 A2992 RMK AO2 T10261039,M
OOA,2026-01-02 02:35,27.00,24.80,91.27,0.00,0.00,0.00,29.92,M,10.00,M,CLR,M,M,M,M,M,M,M,M,M,M,M,M,M,M,27.00,KOOA 020235Z AUTO 00000KT 10SM CLR M03/M04 A2992 RMK AO2 T10281040,M
OOA,2026-01-02 02:55,26.00,24.40,93.56,350.00,4.00,0.00,29.91,M,10.00,M,CLR,M,M,M,M,M,M,M,M,M,M,M,M,M,M,20.41,KOOA 020255Z AUTO 35004KT 10SM CLR M03/M04 A2991 RMK AO2 T10331042,M
OOA,2026-01-02 03:15,25.50,24.00,93.93,340.00,3.00,0.00,29.91,M,10.00,M,CLR,M,M,M,M,M,M,M,M,M,M,M,M,M,M,21.26,KOOA 020315Z AUTO 34003KT 10SM CLR M04/M04 A2991 RMK AO2 T10361045,M
OOA,2026-01-02 03:35,25.30,23.70,93.54,330.00,3.00,0.00,29.92,M,10.00,M,CLR,M,M,M,M,M,M,M,M,M,M,M,M,M,M,21.03,KOOA 020335Z AUTO 33003KT 10SM CLR M04/M05 A2992 RMK AO2 T10371046,M
OOA,2026-01-02 03:55,25.30,23.70,93.54,0.00,0.00,0.00,29.92,M,10.00,M,CLR,M,M,M,M,M,M,M,M,M,M,M,M,M,M,25.30,KOOA 020355Z AUTO 00000KT 10SM CLR M04/M05 A2992 RMK AO2 T10371046,M
OOA,2026-01-02 04:15,25.70,24.00,93.16,0.00,0.00,0.00,29.92,M,10.00,M,CLR,M,M,M,M,M,M,M,M,M,M,M,M,M,M,25.70,KOOA 020415Z AUTO 00000KT 10SM CLR M03/M04 A2992 RMK AO2 T10351044,M
OOA,2026-01-02 04:35,26.60,24.30,90.88,0.00,0.00,0.00,29.92,M,10.00,M,CLR,M,M,M,M,M,M,M,M,M,M,M,M,M,M,26.60,KOOA 020435Z AUTO 00000KT 10SM CLR M03/M04 A2992 RMK AO2 T10301043,M
OOA,2026-01-02 04:55,27.50,23.40,84.32,310.00,4.00,0.00,29.92,M,10.00,M,CLR,M,M,M,M,M,M,M,M,M,M,M,M,M,M,22.17,KOOA 020455Z AUTO 31004KT 10SM CLR M02/M05 A2992 RMK AO2 T10251048,M
OOA,2026-01-02 05:15,28.00,23.50,82.95,360.00,4.00,0.00,29.93,M,10.00,M,CLR,M,M,M,M,M,M,M,M,M,M,M,M,M,M,22.75,KOOA 020515Z AUTO 36004KT 10SM CLR M02/M05 A2993 RMK AO2 T10231047,M
OOA,2026-01-02 05:35,28.00,23.50,82.95,350.00,5.00,0.00,29.92,M,10.00,M,CLR,M,M,M,M,M,M,M,M,M,M,M,M,M,M,21.64,KOOA 020535Z AUTO 35005KT 10SM CLR M02/M05 A2992 RMK AO2 T10221047,M
OOA,2026-01-02 05:55,28.00,23.50,82.95,350.00,6.00,0.00,29.92,M,10.00,M,CLR,M,M,M,M,M,M,M,M,M,M,M,M,M,M,20.71,KOOA 020555Z AUTO 35006KT 10SM CLR M02/M05 A2992 RMK AO2 T10231047 11022 21040 400001076,M
OOA,2026-01-02 06:15,28.00,24.00,84.71,350.00,7.00,0.00,29.92,M,10.00,M,CLR,M,M,M,M,M,M,M,M,M,M,M,M,M,M,19.90,KOOA 020615Z AUTO 35007KT 10SM CLR M02/M04 A2992 RMK AO2 T10221045,M
OOA,2026-01-02 06:35,28.00,23.50,82.95,340.00,8.00,0.00,29.91,M,10.00,M,CLR,M,M,M,M,M,M,M,M,M,M,M,M,M,M,19.19,KOOA 020635Z AUTO 34008KT 10SM CLR M02/M05 A2991 RMK AO2 T10221047,M
OOA,2026-01-02 06:55,28.00,23.50,82.95,350.00,7.00,0.00,29.91,M,10.00,M,CLR,M,M,M,M,M,M,M,M,M,M,M,M,M,M,19.90,KOOA 020655Z AUTO 35007KT 10SM CLR M02/M05 A2991 RMK AO2 T10221047,M
OOA,2026-01-02 07:15,28.00,23.70,83.65,360.00,9.00,0.00,29.92,M,10.00,M,CLR,M,M,M,M,M,M,M,M,M,M,M,M,M,M,18.54,KOOA 020715Z AUTO 36009KT 10SM CLR M02/M05 A2992 RMK AO2 T10221046,M
OOA,2026-01-02 07:35,28.00,23.40,82.61,340.00,7.00,0.00,29.92,M,10.00,M,CLR,M,M,M,M,M,M,M,M,M,M,M,M,M,M,19.90,KOOA 020735Z AUTO 34007KT 10SM CLR M02/M05 A2992 RMK AO2 T10231048,M
OOA,2026-01-02 07:55,28.00,24.00,84.71,360.00,6.00,0.00,29.92,M,10.00,M,CLR,M,M,M,M,M,M,M,M,M,M,M,M,M,M,20.71,KOOA 020755Z AUTO 36006KT 10SM CLR M02/M04 A2992 RMK AO2 T10231045,M
OOA,2026-01-02 08:15,28.00,24.00,84.71,340.00,6.00,0.00,29.93,M,10.00,M,CLR,M,M,M,M,M,M,M,M,M,M,M,M,M,M,20.71,KOOA 020815Z AUTO 34006KT 10SM CLR M02/M04 A2993 RMK AO2 T10231045,M
OOA,2026-01-02 08:35,27.50,23.70,85.39,10.00,7.00,0.00,29.93,M,10.00,M,CLR,M,M,M,M,M,M,M,M,M,M,M,M,M,M,19.29,KOOA 020835Z AUTO 01007KT 10SM CLR M02/M05 A2993 RMK AO2 T10251046,M
OOA,2026-01-02 08:55,27.30,23.50,85.38,20.00,8.00,0.00,29.92,M,10.00,M,CLR,M,M,M,M,M,M,M,M,M,M,M,M,M,M,18.32,KOOA 020855Z AUTO 02008KT 10SM CLR M03/M05 A2992 RMK AO2 T10261047,M
OOA,2026-01-02 09:15,27.30,23.00,83.60,360.00,6.00,0.00,29.93,M,10.00,M,CLR,M,M,M,M,M,M,M,M,M,M,M,M,M,M,19.87,KOOA 020915Z AUTO 36006KT 10SM CLR M03/M05 A2993 RMK AO2 T10261049,M
OOA,2026-01-02 09:35,27.30,23.00,83.60,360.00,6.00,0.00,29.92,M,10.00,M,CLR,M,M,M,M,M,M,M,M,M,M,M,M,M,M,19.87,KOOA 020935Z AUTO 36006KT 10SM CLR M03/M05 A2992 RMK AO2 T10261050,M
OOA,2026-01-02 09:55,27.00,23.00,84.65,360.00,7.00,0.00,29.92,M,10.00,M,CLR,M,M,M,M,M,M,M,M,M,M,M,M,M,M,18.68,KOOA 020955Z AUTO 36007KT 10SM CLR M03/M05 A2992 RMK AO2 T10281050,M
OOA,2026-01-02 10:15,26.60,22.60,84.62,30.00,5.00,0.00,29.92,M,10.00,M,CLR,M,M,M,M,M,M,M,M,M,M,M,M,M,M,19.98,KOOA 021015Z AUTO 03005KT 10SM CLR M03/M05 A2992 RMK AO2 T10301052,M
OOA,2026-01-02 10:35,26.60,23.00,86.06,350.00,6.00,0.00,29.92,M,10.00,M,CLR,M,M,M,M,M,M,M,M,M,M,M,M,M,M,19.03,KOOA 021035Z AUTO 35006KT 10SM CLR M03/M05 A2992 RMK AO2 T10301051,M
OOA,2026-01-02 10:55,26.20,22.00,83.88,20.00,8.00,0.00,29.92,M,10.00,M,CLR,M,M,M,M,M,M,M,M,M,M,M,M,M,M,16.97,KOOA 021055Z AUTO 02008KT 10SM CLR M03/M05 A2992 RMK AO2 T10321055,M
OOA,2026-01-02 11:15,26.20,22.00,83.88,350.00,7.00,0.00,29.93,M,10.00,M,CLR,M,M,M,M,M,M,M,M,M,M,M,M,M,M,17.71,KOOA 021115Z AUTO 35007KT 10SM CLR M03/M06 A2993 RMK AO2 T10321056,M
OOA,2026-01-02 11:35,26.00,21.40,82.46,10.00,5.00,0.00,29.93,M,10.00,M,CLR,M,M,M,M,M,M,M,M,M,M,M,M,M,M,19.27,KOOA 021135Z AUTO 01005KT 10SM CLR M03/M06 A2993 RMK AO2 T10331059,M
OOA,2026-01-02 11:55,26.00,21.20,81.76,10.00,5.00,0.00,29.94,M,10.00,M,CLR,M,M,M,M,M,M,M,M,M,M,M,M,M,M,19.27,KOOA 021155Z AUTO 01005KT 10SM CLR M03/M06 A2994 RMK AO2 T10341060 11021 21035,M
OOA,2026-01-02 12:15,25.70,21.70,84.56,10.00,7.00,0.00,29.94,M,10.00,M,CLR,M,M,M,M,M,M,M,M,M,M,M,M,M,M,17.10,KOOA 021215Z AUTO 01007KT 10SM CLR M03/M06 A2994 RMK AO2 T10351057,M
OOA,2026-01-02 12:35,25.70,22.00,85.64,50.00,6.00,0.00,29.95,M,10.00,M,CLR,M,M,M,M,M,M,M,M,M,M,M,M,M,M,17.94,KOOA 021235Z AUTO 05006KT 10SM CLR M03/M06 A2995 RMK AO2 T10351056,M
OOA,2026-01-02 12:55,25.50,22.00,86.35,360.00,5.00,0.00,29.96,M,10.00,M,CLR,M,M,M,M,M,M,M,M,M,M,M,M,M,M,18.68,KOOA 021255Z AUTO 36005KT 10SM CLR M04/M05 A2996 RMK AO2 T10361055,M
OOA,2026-01-02 13:15,25.70,22.50,87.47,40.00,4.00,0.00,29.95,M,10.00,M,CLR,M,M,M,M,M,M,M,M,M,M,M,M,M,M,20.06,KOOA 021315Z AUTO 04004KT 10SM CLR M03/M05 A2995 RMK AO2 T10351053,M
OOA,2026-01-02 13:35,25.70,22.60,87.84,50.00,6.00,0.00,29.95,M,10.00,M,CLR,M,M,M,M,M,M,M,M,M,M,M,M,M,M,17.94,KOOA 021335Z AUTO 05006KT 10SM CLR M03/M05 A2995 RMK AO2 T10351052,M
OOA,2026-01-02 13:55,25.50,22.50,88.20,40.00,6.00,0.00,29.96,M,10.00,M,CLR,M,M,M,M,M,M,M,M,M,M,M,M,M,M,17.70,KOOA 021355Z AUTO 04006KT 10SM CLR M04/M05 A2996 RMK AO2 T10361053,M
OOA,2026-01-02 14:15,25.50,22.50,88.20,30.00,6.00,0.00,29.97,M,10.00,M,CLR,M,M,M,M,M,M,M,M,M,M,M,M,M,M,17.70,KOOA 021415Z AUTO 03006KT 10SM CLR M04/M05 A2997 RMK AO2 T10361053,M
OOA,2026-01-02 14:35,25.30,22.00,87.08,40.00,6.00,0.00,29.98,M,10.00,M,CLR,M,M,M,M,M,M,M,M,M,M,M,M,M,M,17.46,KOOA 021435Z AUTO 04006KT 10SM CLR M04/M05 A2998 RMK AO2 T10371055,M
OOA,2026-01-02 14:55,25.30,22.30,88.19,30.00,7.00,0.00,29.99,M,10.00,M,CLR,M,M,M,M,M,M,M,M,M,M,M,M,M,M,16.61,KOOA 021455Z AUTO 03007KT 10SM CLR M04/M05 A2999 RMK AO2 T10371054,M
OOA,2026-01-02 15:15,25.00,22.00,88.17,20.00,5.00,0.00,29.99,M,10.00,M,CLR,M,M,M,M,M,M,M,M,M,M,M,M,M,M,18.08,KOOA 021515Z AUTO 02005KT 10SM CLR M04/M05 A2999 RMK AO2 T10381055,M
OOA,2026-01-02 15:35,25.50,22.00,86.35,10.00,6.00,0.00,29.99,M,10.00,M,CLR,M,M,M,M,M,M,M,M,M,M,M,M,M,M,17.70,KOOA 021535Z AUTO 01006KT 10SM CLR M04/M05 A2999 RMK AO2 T10361055,M
OOA,2026-01-02 15:55,25.70,22.00,85.64,10.00,8.00,0.00,30.00,M,10.00,M,CLR,M,M,M,M,M,M,M,M,M,M,M,M,M,M,16.35,KOOA 021555Z AUTO 01008KT 10SM CLR M03/M06 A3000 RMK AO2 T10351056,M
OOA,2026-01-02 16:15,25.70,22.00,85.64,30.00,6.00,0.00,30.00,M,10.00,M,CLR,M,M,M,M,M,M,M,M,M,M,M,M,M,M,17.94,KOOA 021615Z AUTO 03006KT 10SM CLR M03/M05 A3000 RMK AO2 T10351055,M
OOA,2026-01-02 16:35,25.70,22.00,85.64,30.00,8.00,0.00,30.01,M,10.00,M,CLR,M,M,M,M,M,M,M,M,M,M,M,M,M,M,16.35,KOOA 021635Z AUTO 03008KT 10SM CLR M03/M06 A3001 RMK AO2 T10351056,M
OOA,2026-01-02 16:55,26.20,21.40,81.78,30.00,9.00,0.00,30.01,M,10.00,M,CLR,M,M,M,M,M,M,M,M,M,M,M,M,M,M,16.30,KOOA 021655Z AUTO 03009KT 10SM CLR M03/M06 A3001 RMK AO2 T10321059,M
OOA,2026-01-02 17:15,26.40,21.20,80.42,40.00,6.00,0.00,30.01,M,10.00,M,CLR,M,M,M,M,M,M,M,M,M,M,M,M,M,M,18.79,KOOA 021715Z AUTO 04006KT 10SM CLR M03/M06 A3001 RMK AO2 T10311060,M
OOA,2026-01-02 17:35,26.60,21.40,80.43,40.00,8.00,0.00,30.00,M,10.00,M,CLR,M,M,M,M,M,M,M,M,M,M,M,M,M,M,17.46,KOOA 021735Z AUTO 04008KT 10SM CLR M03/M06 A3000 RMK AO2 T10301059,M
OOA,2026-01-02 17:55,26.60,21.70,81.46,40.00,7.00,0.00,30.00,M,10.00,M,CLR,M,M,M,M,M,M,M,M,M,M,M,M,M,M,18.20,KOOA 021755Z AUTO 04007KT 10SM CLR M03/M06 A3000 RMK AO2 T10301057 11029 21038,M
OOA,2026-01-02 18:15,26.60,21.60,81.12,50.00,5.00,0.00,29.99,M,10.00,M,CLR,M,M,M,M,M,M,M,M,M,M,M,M,M,M,19.98,KOOA 021815Z AUTO 05005KT 10SM CLR M03/M06 A2999 RMK AO2 T10301058,M
OOA,2026-01-02 18:35,27.00,22.30,82.19,40.00,8.00,0.00,29.98,M,10.00,M,CLR,M,M,M,M,M,M,M,M,M,M,M,M,M,M,17.95,KOOA 021835Z AUTO 04008KT 10SM CLR M03/M05 A2998 RMK AO2 T10271054,M
OOA,2026-01-02 18:55,27.00,22.50,82.88,40.00,9.00,0.00,29.97,M,10.00,M,CLR,M,M,M,M,M,M,M,M,M,M,M,M,M,M,17.30,KOOA 021855Z AUTO 04009KT 10SM CLR M03/M05 A2997 RMK AO2 T10271053,M
OOA,2026-01-02 19:15,27.50,23.00,82.92,30.00,9.00,0.00,29.97,M,10.00,M,CLR,M,M,M,M,M,M,M,M,M,M,M,M,M,M,17.92,KOOA 021915Z AUTO 03009KT 10SM CLR M02/M05 A2997 RMK AO2 T10251051,M
OOA,2026-01-02 19:35,27.30,22.00,80.15,60.00,9.00,0.00,29.97,M,10.00,M,CLR,M,M,M,M,M,M,M,M,M,M,M,M,M,M,17.67,KOOA 021935Z AUTO 06009KT 10SM CLR M03/M05 A2997 RMK AO2 T10261055,M
OOA,2026-01-02 19:55,27.30,22.00,80.15,30.00,8.00,0.00,29.97,M,10.00,M,CLR,M,M,M,M,M,M,M,M,M,M,M,M,M,M,18.32,KOOA 021955Z AUTO 03008KT 10SM CLR M03/M05 A2997 RMK AO2 T10261055,M
OOA,2026-01-02 20:15,27.50,22.00,79.49,40.00,7.00,0.00,29.97,M,10.00,M,CLR,M,M,M,M,M,M,M,M,M,M,M,M,M,M,19.29,KOOA 022015Z AUTO 04007KT 10SM CLR M02/M05 A2997 RMK AO2 T10251055,M
OOA,2026-01-02 20:35,27.50,22.00,79.49,20.00,6.00,0.00,29.97,M,10.00,M,CLR,M,M,M,M,M,M,M,M,M,M,M,M,M,M,20.11,KOOA 022035Z AUTO 02006KT 10SM CLR M02/M06 A2997 RMK AO2 T10251056,M
OOA,2026-01-02 20:55,27.50,21.40,77.50,60.00,4.00,0.00,29.97,M,10.00,M,CLR,M,M,M,M,M,M,M,M,M,M,M,M,M,M,22.17,KOOA 022055Z AUTO 06004KT 10SM CLR M02/M06 A2997 RMK AO2 T10251059,M
OOA,2026-01-02 21:15,28.00,21.20,75.28,70.00,3.00,0.00,29.98,M,10.00,M,CLR,M,M,M,M,M,M,M,M,M,M,M,M,M,M,24.12,KOOA 022115Z AUTO 07003KT 10SM CLR M02/M06 A2998 RMK AO2 T10231060,M
OOA,2026-01-02 21:35,27.70,21.40,76.87,50.00,3.00,0.00,29.97,M,10.00,M,CLR,M,M,M,M,M,M,M,M,M,M,M,M,M,M,23.77,KOOA 022135Z AUTO 05003KT 10SM CLR M02/M06 A2997 RMK AO2 T10241059,M
OOA,2026-01-02 21:55,28.00,21.70,76.89,90.00,4.00,0.00,29.97,M,10.00,M,CLR,M,M,M,M,M,M,M,M,M,M,M,M,M,M,22.75,KOOA 022155Z AUTO 09004KT 10SM CLR M02/M06 A2997 RMK AO2 T10221057,M
OOA,2026-01-02 22:15,28.00,21.40,75.92,70.00,3.00,0.00,29.97,M,10.00,M,CLR,M,M,M,M,M,M,M,M,M,M,M,M,M,M,24.12,KOOA 022215Z AUTO 07003KT 10SM CLR M02/M06 A2997 RMK AO2 T10221059,M
OOA,2026-01-02 22:35,28.00,21.70,76.89,70.00,3.00,0.00,29.98,M,10.00,M,CLR,M,M,M,M,M,M,M,M,M,M,M,M,M,M,24.12,KOOA 022235Z AUTO 07003KT 10SM CLR M02/M06 A2998 RMK AO2 T10221057,M
OOA,2026-01-02 22:55,28.00,22.00,77.88,50.00,3.00,0.00,29.99,M,10.00,M,CLR,M,M,M,M,M,M,M,M,M,M,M,M,M,M,24.12,KOOA 022255Z AUTO 05003KT 10SM CLR M02/M06 A2999 RMK AO2 T10221056,M
OOA,2026-01-02 23:15,27.70,22.00,78.84,30.00,5.00,0.00,29.99,M,10.00,M,CLR,M,M,M,M,M,M,M,M,M,M,M,M,M,M,21.29,KOOA 022315Z AUTO 03005KT 10SM CLR M02/M06 A2999 RMK AO2 T10241056,M
OOA,2026-01-02 23:35,27.50,22.00,79.49,40.00,6.00,0.00,29.99,M,10.00,M,CLR,M,M,M,M,M,M,M,M,M,M,M,M,M,M,20.11,KOOA 022335Z AUTO 04006KT 10SM CLR M02/M06 A2999 RMK AO2 T10251056,M
OOA,2026-01-02 23:55,27.30,22.00,80.15,40.00,5.00,0.00,30.00,M,10.00,M,CLR,M,M,M,M,M,M,M,M,M,M,M,M,M,M,20.81,KOOA 022355Z AUTO 04005KT 10SM CLR M03/M06 A3000 RMK AO2 T10261056 11021 21030,M
OOA,2026-01-03 00:15,27.00,22.00,81.15,40.00,4.00,0.00,30.00,M,10.00,M,CLR,M,M,M,M,M,M,M,M,M,M,M,M,M,M,21.58,KOOA 030015Z AUTO 04004KT 10SM CLR M03/M06 A3000 RMK AO2 T10271056,M
OOA,2026-01-03 00:35,27.00,22.00,81.15,30.00,3.00,0.00,30.00,M,10.00,M,CLR,M,M,M,M,M,M,M,M,M,M,M,M,M,M,22.97,KOOA 030035Z AUTO 03003KT 10SM CLR M03/M06 A3000 RMK AO2 T10281056,M
OOA,2026-01-03 00:55,27.00,22.00,81.15,20.00,3.00,0.00,30.01,M,10.00,M,CLR,M,M,M,M,M,M,M,M,M,M,M,M,M,M,22.97,KOOA 030055Z AUTO 02003KT 10SM CLR M03/M05 A3001 RMK AO2 T10281055,M
OOA,2026-01-03 01:15,27.00,22.00,81.15,20.00,4.00,0.00,30.01,M,10.00,M,CLR,M,M,M,M,M,M,M,M,M,M,M,M,M,M,21.58,KOOA 030115Z AUTO 02004KT 10SM CLR M03/M06 A3001 RMK AO2 T10281056,M
OOA,2026-01-03 01:35,27.30,21.60,78.81,20.00,5.00,0.00,30.01,M,10.00,M,CLR,M,M,M,M,M,M,M,M,M,M,M,M,M,M,20.81,KOOA 030135Z AUTO 02005KT 10SM CLR M03/M06 A3001 RMK AO2 T10261058,M
OOA,2026-01-03 01:55,27.50,22.00,79.49,30.00,4.00,0.00,30.01,M,10.00,M,SCT,M,M,M,12000.00,M,M,M,M,M,M,M,M,M,M,22.17,KOOA 030155Z AUTO 03004KT 10SM SCT120 M02/M06 A3001 RMK AO2 T10251056,M
OOA,2026-01-03 02:15,27.50,22.00,79.49,40.00,4.00,0.00,30.02,M,10.00,M,SCT,M,M,M,12000.00,M,M,M,M,M,M,M,M,M,M,22.17,KOOA 030215Z AUTO 04004KT 10SM SCT120 M02/M05 A3002 RMK AO2 T10251055,M
OOA,2026-01-03 02:35,27.70,22.00,78.84,50.00,5.00,0.00,30.02,M,10.00,M,CLR,M,M,M,M,M,M,M,M,M,M,M,M,M,M,21.29,KOOA 030235Z AUTO 05005KT 10SM CLR M02/M06 A3002 RMK AO2 T10241056,M
OOA,2026-01-03 02:55,27.70,21.40,76.87,40.00,7.00,0.00,30.02,M,10.00,M,CLR,M,M,M,M,M,M,M,M,M,M,M,M,M,M,19.54,KOOA 030255Z AUTO 04007KT 10SM CLR M02/M06 A3002 RMK AO2 T10241059,M
OOA,2026-01-03 03:15,27.50,21.40,77.50,50.00,6.00,0.00,30.03,M,10.00,M,CLR,M,M,M,M,M,M,M,M,M,M,M,M,M,M,20.11,KOOA 030315Z AUTO 05006KT 10SM CLR M02/M06 A3003 RMK AO2 T10251059,M
OOA,2026-01-03 03:35,27.50,21.20,76.85,40.00,5.00,0.00,30.04,M,10.00,M,CLR,M,M,M,M,M,M,M,M,M,M,M,M,M,M,21.05,KOOA 030335Z AUTO 04005KT 10SM CLR M02/M06 A3004 RMK AO2 T10251060,M
OOA,2026-01-03 03:55,27.50,21.00,76.20,50.00,6.00,0.00,30.04,M,10.00,M,CLR,M,M,M,M,M,M,M,M,M,M,M,M,M,M,20.11,KOOA 030355Z AUTO 05006KT 10SM CLR M02/M06 A3004 RMK AO2 T10251062,M
OOA,2026-01-03 04:15,27.50,20.70,75.23,60.00,6.00,0.00,30.04,M,10.00,M,CLR,M,M,M,M,M,M,M,M,M,M,M,M,M,M,20.11,KOOA 030415Z AUTO 06006KT 10SM CLR M02/M06 A3004 RMK AO2 T10251063,M
OOA,2026-01-03 04:35,27.30,21.20,77.48,40.00,7.00,0.00,30.04,M,10.00,M,CLR,M,M,M,M,M,M,M,M,M,M,M,M,M,M,19.05,KOOA 030435Z AUTO 04007KT 10SM CLR M03/M06 A3004 RMK AO2 T10261060,M
OOA,2026-01-03 04:55,27.00,21.00,77.78,50.00,5.00,0.00,30.05,M,10.00,M,CLR,M,M,M,M,M,M,M,M,M,M,M,M,M,M,20.46,KOOA 030455Z AUTO 05005KT 10SM CLR M03/M06 A3005 RMK AO2 T10271062,M
OOA,2026-01-03 05:15,27.00,20.00,74.54,60.00,7.00,0.00,30.05,M,10.00,M,CLR,M,M,M,M,M,M,M,M,M,M,M,M,M,M,18.68,KOOA 030515Z AUTO 06007KT 10SM CLR M03/M07 A3005 RMK AO2 T10281067,M
OOA,2026-01-03 05:35,26.60,20.00,75.79,50.00,6.00,0.00,30.05,M,7.00,M,CLR,M,M,M,M,M,M,M,M,M,M,M,M,M,M,19.03,KOOA 030535Z AUTO 05006KT 7SM CLR M03/M07 A3005 RMK AO2 T10301066,M
OOA,2026-01-03 05:55,26.40,21.00,79.74,50.00,4.00,0.00,30.05,M,7.00,M,CLR,M,M,M,M,M,M,M,M,M,M,M,M,M,M,20.88,KOOA 030555Z AUTO 05004KT 7SM CLR M03/M06 A3005 RMK AO2 T10311061 11023 21031 410211038,M
OOA,2026-01-03 06:15,26.20,20.50,78.71,40.00,4.00,0.00,30.05,M,10.00,M,CLR,M,M,M,M,M,M,M,M,M,M,M,M,M,M,20.65,KOOA 030615Z AUTO 04004KT 10SM CLR M03/M06 A3005 RMK AO2 T10321064,M
OOA,2026-01-03 06:35,26.40,21.00,79.74,50.00,4.00,0.00,30.05,M,10.00,M,CLR,M,M,M,M,M,M,M,M,M,M,M,M,M,M,20.88,KOOA 030635Z AUTO 05004KT 10SM CLR M03/M06 A3005 RMK AO2 T10311061,M
OOA,2026-01-03 06:55,26.20,21.00,80.40,50.00,5.00,0.00,30.05,M,10.00,M,CLR,M,M,M,M,M,M,M,M,M,M,M,M,M,M,19.51,KOOA 030655Z AUTO 05005KT 10SM CLR M03/M06 A3005 RMK AO2 T10321061,M
OOA,2026-01-03 07:15,26.00,21.20,81.76,60.00,3.00,0.00,30.05,M,10.00,M,CLR,M,M,M,M,M,M,M,M,M,M,M,M,M,M,21.83,KOOA 030715Z AUTO 06003KT 10SM CLR M03/M06 A3005 RMK AO2 T10331060,M
OOA,2026-01-03 07:35,26.00,21.00,81.07,0.00,0.00,0.00,30.05,M,10.00,M,CLR,M,M,M,M,M,M,M,M,M,M,M,M,M,M,26.00,KOOA 030735Z AUTO 00000KT 10SM CLR M03/M06 A3005 RMK AO2 T10331062,M
OOA,2026-01-03 07:55,26.00,21.40,82.46,30.00,4.00,0.00,30.05,M,10.00,M,CLR,M,M,M,M,M,M,M,M,M,M,M,M,M,M,20.41,KOOA 030755Z AUTO 03004KT 10SM CLR M03/M06 A3005 RMK AO2 T10331059,M
OOA,2026-01-03 08:15,25.70,21.20,82.79,30.00,5.00,0.00,30.05,M,10.00,M,CLR,M,M,M,M,M,M,M,M,M,M,M,M,M,M,18.91,KOOA 030815Z AUTO 03005KT 10SM CLR M03/M06 A3005 RMK AO2 T10351060,M
OOA,2026-01-03 08:35,25.50,21.00,82.77,30.00,5.00,0.00,30.05,M,10.00,M,CLR,M,M,M,M,M,M,M,M,M,M,M,M,M,M,18.68,KOOA 030835Z AUTO 03005KT 10SM CLR M04/M06 A3005 RMK AO2 T10361061,M
OOA,2026-01-03 08:55,25.00,21.00,84.51,50.00,3.00,0.00,30.05,M,10.00,M,CLR,M,M,M,M,M,M,M,M,M,M,M,M,M,M,20.69,KOOA 030855Z AUTO 05003KT 10SM CLR M04/M06 A3005 RMK AO2 T10381061,M
OOA,2026-01-03 09:15,25.30,21.20,84.18,30.00,4.00,0.00,30.06,M,10.00,M,CLR,M,M,M,M,M,M,M,M,M,M,M,M,M,M,19.60,KOOA 030915Z AUTO 03004KT 10SM CLR M04/M06 A3006 RMK AO2 T10371060,M
OOA,2026-01-03 09:35,25.30,20.50,81.71,30.00,5.00,0.00,30.05,M,10.00,M,CLR,M,M,M,M,M,M,M,M,M,M,M,M,M,M,18.44,KOOA 030935Z AUTO 03005KT 10SM CLR M04/M06 A3005 RMK AO2 T10371064,M
OOA,2026-01-03 09:55,24.80,20.00,81.67,20.00,5.00,0.00,30.05,M,10.00,M,CLR,M,M,M,M,M,M,M,M,M,M,M,M,M,M,17.84,KOOA 030955Z AUTO 02005KT 10SM CLR M04/M07 A3005 RMK AO2 T10401066,M
OOA,2026-01-03 10:15,24.80,20.00,81.67,0.00,0.00,0.00,30.05,M,10.00,M,CLR,M,M,M,M,M,M,M,M,M,M,M,M,M,M,24.80,KOOA 031015Z AUTO 00000KT 10SM CLR M04/M07 A3005 RMK AO2 T10401066,M
OOA,2026-01-03 10:35,24.40,20.00,83.05,10.00,3.00,0.00,30.05,M,10.00,M,CLR,M,M,M,M,M,M,M,M,M,M,M,M,M,M,20.00,KOOA 031035Z AUTO 01003KT 10SM CLR M04/M07 A3005 RMK AO2 T10421067,M
OOA,2026-01-03 10:55,24.00,20.50,86.27,360.00,3.00,0.00,30.05,M,10.00,M,CLR,M,M,M,M,M,M,M,M,M,M,M,M,M,M,19.54,KOOA 031055Z AUTO 36003KT 10SM CLR M04/M06 A3005 RMK AO2 T10441064,M
OOA,2026-01-03 11:15,24.00,20.00,84.45,0.00,0.00,0.00,30.05,M,10.00,M,CLR,M,M,M,M,M,M,M,M,M,M,M,M,M,M,24.00,KOOA 031115Z AUTO 00000KT 10SM CLR M04/M07 A3005 RMK AO2 T10451066,M
OOA,2026-01-03 11:35,23.70,20.00,85.52,360.00,4.00,0.00,30.06,M,10.00,M,CLR,M,M,M,M,M,M,M,M,M,M,M,M,M,M,17.73,KOOA 031135Z AUTO 36004KT 10SM CLR M05/M07 A3006 RMK AO2 T10461066,M
OOA,2026-01-03 11:55,23.00,19.40,85.84,30.00,3.00,0.00,30.05,M,10.00,M,CLR,M,M,M,M,M,M,M,M,M,M,M,M,M,M,18.40,KOOA 031155Z AUTO 03003KT 10SM CLR M05/M07 A3005 RMK AO2 T10491070 11031 21049,M
OOA,2026-01-03 12:15,22.60,19.20,86.55,40.00,3.00,0.00,30.04,M,10.00,M,CLR,M,M,M,M,M,M,M,M,M,M,M,M,M,M,17.94,KOOA 031215Z AUTO 04003KT 10SM CLR M05/M07 A3004 RMK AO2 T10521071,M
OOA,2026-01-03 12:35,22.00,19.00,88.01,40.00,3.00,0.00,30.05,M,10.00,M,CLR,M,M,M,M,M,M,M,M,M,M,M,M,M,M,17.26,KOOA 031235Z AUTO 04003KT 10SM CLR M05/M07 A3005 RMK AO2 T10551072,M
OOA,2026-01-03 12:55,21.70,18.50,87.25,30.00,3.00,0.00,30.06,M,10.00,M,CLR,M,M,M,M,M,M,M,M,M,M,M,M,M,M,16.91,KOOA 031255Z AUTO 03003KT 10SM CLR M06/M07 A3006 RMK AO2 T10571075,M
OOA,2026-01-03 13:15,21.60,18.30,86.87,10.00,3.00,0.00,30.08,M,10.00,M,CLR,M,M,M,M,M,M,M,M,M,M,M,M,M,M,16.80,KOOA 031315Z AUTO 01003KT 10SM CLR M06/M08 A3008 RMK AO2 T10581076,M
OOA,2026-01-03 13:35,21.60,18.00,85.75,0.00,0.00,0.00,30.09,M,10.00,M,CLR,M,M,M,M,M,M,M,M,M,M,M,M,M,M,21.60,KOOA 031335Z AUTO 00000KT 10SM CLR M06/M08 A3009 RMK AO2 T10581077,M
OOA,2026-01-03 13:55,21.40,18.00,86.48,0.00,0.00,0.00,30.07,M,10.00,M,CLR,M,M,M,M,M,M,M,M,M,M,M,M,M,M,21.40,KOOA 031355Z AUTO 00000KT 10SM CLR M06/M08 A3007 RMK AO2 T10591078,M
OOA,2026-01-03 14:15,21.20,18.70,89.88,0.00,0.00,0.00,30.09,M,10.00,M,CLR,M,M,M,M,M,M,M,M,M,M,M,M,M,M,21.20,KOOA 031415Z AUTO 00000KT 10SM CLR M06/M07 A3009 RMK AO2 T10601074,M
OOA,2026-01-03 14:35,23.00,19.40,85.84,0.00,0.00,0.00,30.10,M,10.00,M,CLR,M,M,M,M,M,M,M,M,M,M,M,M,M,M,23.00,KOOA 031435Z AUTO 00000KT 10SM CLR M05/M07 A3010 RMK AO2 T10491070,M
OOA,2026-01-03 14:55,24.60,19.40,80.27,0.00,0.00,0.00,30.11,M,10.00,M,CLR,M,M,M,M,M,M,M,M,M,M,M,M,M,M,24.60,KOOA 031455Z AUTO 00000KT 10SM CLR M04/M07 A3011 RMK AO2 T10411070,M
OOA,2026-01-03 15:15,25.30,19.40,77.96,0.00,0.00,0.00,30.12,M,10.00,M,SCT,M,M,M,7000.00,M,M,M,M,M,M,M,M,M,M,25.30,KOOA 031515Z AUTO 00000KT 10SM SCT070 M04/M07 A3012 RMK AO2 T10371070,M
OOA,2026-01-03 15:35,25.70,20.00,78.67,0.00,0.00,0.00,30.14,M,10.00,M,BKN,M,M,M,7000.00,M,M,M,M,M,M,M,M,M,M,25.70,KOOA 031535Z AUTO 00000KT 10SM BKN070 M03/M07 A3014 RMK AO2 T10351067,M
OOA,2026-01-03 15:55,26.20,20.70,79.38,330.00,5.00,0.00,30.15,M,10.00,M,BKN,M,M,M,7000.00,M,M,M,M,M,M,M,M,M,M,19.51,KOOA 031555Z AUTO 33005KT 10SM BKN070 M03/M06 A3015 RMK AO2 T10321063,M
OOA,2026-01-03 16:15,26.40,20.50,78.06,330.00,4.00,0.00,30.15,M,10.00,M,SCT,M,M,M,7000.00,M,M,M,M,M,M,M,M,M,M,20.88,KOOA 031615Z AUTO 33004KT 10SM SCT070 M03/M06 A3015 RMK AO2 T10311064,M
OOA,2026-01-03 16:35,26.60,20.70,78.08,0.00,0.00,0.00,30.14,M,10.00,M,CLR,M,M,M,M,M,M,M,M,M,M,M,M,M,M,26.60,KOOA 031635Z AUTO 00000KT 10SM CLR M03/M06 A3014 RMK AO2 T10301063,M
OOA,2026-01-03 16:55,27.30,21.00,76.83,250.00,3.00,0.00,30.12,M,10.00,M,CLR,M,M,M,M,M,M,M,M,M,M,M,M,M,M,23.32,KOOA 031655Z AUTO 25003KT 10SM CLR M03/M06 A3012 RMK AO2 T10261062,M
OOA,2026-01-03 17:15,27.50,21.60,78.16,230.00,4.00,0.00,30.10,M,10.00,M,SCT,M,M,M,10000.00,M,M,M,M,M,M,M,M,M,M,22.17,KOOA 031715Z AUTO 23004KT 10SM SCT100 M02/M06 A3010 RMK AO2 T10251058,M
OOA,2026-01-03 17:35,28.80,21.40,73.47,250.00,4.00,0.00,30.10,M,10.00,M,CLR,M,M,M,M,M,M,M,M,M,M,M,M,M,M,23.68,KOOA 031735Z AUTO 25004KT 10SM CLR M02/M06 A3010 RMK AO2 T10181059,M
OOA,2026-01-03 17:55,30.00,22.30,72.67,270.00,5.00,0.00,30.10,M,10.00,M,CLR,M,M,M,M,M,M,M,M,M,M,M,M,M,M,24.02,KOOA 031755Z AUTO 27005KT 10SM CLR M01/M05 A3010 RMK AO2 T10111054 11010 21065,M
OOA,2026-01-03 18:15,30.20,22.60,73.00,240.00,4.00,0.00,30.08,M,10.00,M,SCT,M,M,M,4700.00,M,M,M,M,M,M,M,M,M,M,25.32,KOOA 031815Z AUTO 24004KT 10SM SCT047 M01/M05 A3008 RMK AO2 T10101052,M
OOA,2026-01-03 18:35,31.00,23.00,71.87,250.00,5.00,0.00,30.07,M,10.00,M,CLR,M,M,M,M,M,M,M,M,M,M,M,M,M,M,25.21,KOOA 031835Z AUTO 25005KT 10SM CLR 00/M05 A3007 RMK AO2 T10051049,M
OOA,2026-01-03 18:55,31.30,22.60,69.81,270.00,6.00,0.00,30.08,M,10.00,M,CLR,M,M,M,M,M,M,M,M,M,M,M,M,M,M,24.69,KOOA 031855Z AUTO 27006KT 10SM CLR 00/M05 A3008 RMK AO2 T10041052,M
OOA,2026-01-03 19:15,32.00,23.40,70.19,290.00,7.00,0.00,30.08,M,10.00,M,CLR,M,M,M,M,M,M,M,M,M,M,M,M,M,M,24.78,KOOA 031915Z AUTO 29007KT 10SM CLR 00/M05 A3008 RMK AO2 T10011048,M
OOA,2026-01-03 19:35,32.00,24.00,71.98,290.00,7.00,0.00,30.07,M,10.00,M,CLR,M,M,M,M,M,M,M,M,M,M,M,M,M,M,24.78,KOOA 031935Z AUTO 29007KT 10SM CLR 00/M04 A3007 RMK AO2 T00001044,M
OOA,2026-01-03 19:55,32.00,23.70,71.08,260.00,4.00,0.00,30.07,M,10.00,M,CLR,M,M,M,M,M,M,M,M,M,M,M,M,M,M,27.42,KOOA 031955Z AUTO 26004KT 10SM CLR 00/M05 A3007 RMK AO2 T00001046,M
OOA,2026-01-03 20:15,33.00,24.00,69.14,300.00,4.00,0.00,30.06,M,10.00,M,CLR,M,M,M,M,M,M,M,M,M,M,M,M,M,M,28.59,KOOA 032015Z AUTO 30004KT 10SM CLR 01/M04 A3006 RMK AO2 T00061044,M
OOA,2026-01-03 20:35,33.00,24.00,69.14,270.00,5.00,0.00,30.06,M,10.00,M,CLR,M,M,M,M,M,M,M,M,M,M,M,M,M,M,27.58,KOOA 032035Z AUTO 27005KT 10SM CLR 01/M04 A3006 RMK AO2 T00051044,M
OOA,2026-01-03 20:55,33.00,24.40,70.30,320.00,4.00,0.00,30.06,M,10.00,M,CLR,M,M,M,M,M,M,M,M,M,M,M,M,M,M,28.59,KOOA 032055Z AUTO 32004KT 10SM CLR 01/M04 A3006 RMK AO2 T00061042,M
OOA,2026-01-03 21:15,33.00,24.60,70.89,310.00,5.00,0.00,30.07,M,10.00,M,CLR,M,M,M,M,M,M,M,M,M,M,M,M,M,M,27.58,KOOA 032115Z AUTO 31005KT 10SM CLR 01/M04 A3007 RMK AO2 T00051041,M
OOA,2026-01-03 21:35,33.00,25.00,72.09,310.00,5.00,0.00,30.07,M,10.00,M,CLR,M,M,M,M,M,M,M,M,M,M,M,M,M,M,27.58,KOOA 032135Z AUTO 31005KT 10SM CLR 01/M04 A3007 RMK AO2 T00061038,M
OOA,2026-01-03 21:55,33.30,25.00,71.22,330.00,5.00,0.00,30.07,M,10.00,M,CLR,M,M,M,M,M,M,M,M,M,M,M,M,M,M,27.94,KOOA 032155Z AUTO 33005KT 10SM CLR 01/M04 A3007 RMK AO2 T00071039,M
OOA,2026-01-03 22:15,33.00,26.00,75.15,340.00,7.00,0.00,30.08,M,10.00,M,CLR,M,M,M,M,M,M,M,M,M,M,M,M,M,M,26.00,KOOA 032215Z AUTO 34007KT 10SM CLR 01/M03 A3008 RMK AO2 T00061034,M
OOA,2026-01-03 22:35,33.00,25.70,74.22,330.00,6.00,0.00,30.08,M,10.00,M,CLR,M,M,M,M,M,M,M,M,M,M,M,M,M,M,26.73,KOOA 032235Z AUTO 33006KT 10SM CLR 01/M03 A3008 RMK AO2 T00051035,M
OOA,2026-01-03 22:55,33.00,26.20,75.77,330.00,6.00,0.00,30.08,M,10.00,M,CLR,M,M,M,M,M,M,M,M,M,M,M,M,M,M,26.73,KOOA 032255Z AUTO 33006KT 10SM CLR 01/M03 A3008 RMK AO2 T00051032,M
OOA,2026-01-03 23:15,33.00,26.20,75.77,340.00,6.00,0.00,30.09,M,10.00,M,CLR,M,M,M,M,M,M,M,M,M,M,M,M,M,M,26.73,KOOA 032315Z AUTO 34006KT 10SM CLR 01/M03 A3009 RMK AO2 T00051032,M
OOA,2026-01-03 23:35,32.40,25.70,76.03,360.00,3.00,0.00,30.09,M,10.00,M,CLR,M,M,M,M,M,M,M,M,M,M,M,M,M,M,29.15,KOOA 032335Z AUTO 36003KT 10SM CLR 00/M03 A3009 RMK AO2 T00021035,M
OOA,2026-01-03 23:55,32.40,25.70,76.03,350.00,4.00,0.00,30.10,M,10.00,M,CLR,M,M,M,M,M,M,M,M,M,M,M,M,M,M,27.89,KOOA 032355Z AUTO 35004KT 10SM CLR 00/M03 A3010 RMK AO2 T00021035 10007 21013,M
OOA,2026-01-04 00:15,32.40,26.20,77.62,10.00,3.00,0.00,30.09,M,10.00,M,CLR,M,M,M,M,M,M,M,M,M,M,M,M,M,M,29.15,KOOA 040015Z AUTO 01003KT 10SM CLR 00/M03 A3009 RMK AO2 T00021032,M
OOA,2026-01-04 00:35,32.00,26.00,78.23,350.00,4.00,0.00,30.09,M,10.00,M,CLR,M,M,M,M,M,M,M,M,M,M,M,M,M,M,27.42,KOOA 040035Z AUTO 35004KT 10SM CLR 00/M03 A3009 RMK AO2 T00011033,M
OOA,2026-01-04 00:55,32.00,26.20,78.89,350.00,5.00,0.00,30.10,M,10.00,M,CLR,M,M,M,M,M,M,M,M,M,M,M,M,M,M,26.40,KOOA 040055Z AUTO 35005KT 10SM CLR 00/M03 A3010 RMK AO2 T00001032,M
OOA,2026-01-04 01:15,32.00,26.20,78.89,350.00,4.00,0.00,30.11,M,10.00,M,CLR,M,M,M,M,M,M,M,M,M,M,M,M,M,M,27.42,KOOA 040115Z AUTO 35004KT 10SM CLR 00/M03 A3011 RMK AO2 T00001032,M
OOA,2026-01-04 01:35,32.00,26.40,79.54,360.00,5.00,0.00,30.11,M,10.00,M,CLR,M,M,M,M,M,M,M,M,M,M,M,M,M,M,26.40,KOOA 040135Z AUTO 36005KT 10SM CLR 00/M03 A3011 RMK AO2 T00001031,M
OOA,2026-01-04 01:55,31.60,26.60,81.51,10.00,4.00,0.00,30.12,M,10.00,M,CLR,M,M,M,M,M,M,M,M,M,M,M,M,M,M,26.95,KOOA 040155Z AUTO 01004KT 10SM CLR 00/M03 A3012 RMK AO2 T10021030,M
OOA,2026-01-04 02:15,31.00,26.60,83.51,0.00,0.00,0.00,30.12,M,10.00,M,CLR,M,M,M,M,M,M,M,M,M,M,M,M,M,M,31.00,KOOA 040215Z AUTO 00000KT 10SM CLR M01/M03 A3012 RMK AO2 T10061030,M
OOA,2026-01-04 02:35,30.60,26.00,82.80,20.00,3.00,0.00,30.12,M,10.00,M,CLR,M,M,M,M,M,M,M,M,M,M,M,M,M,M,27.09,KOOA 040235Z AUTO 02003KT 10SM CLR M01/M03 A3012 RMK AO2 T10081033,M
OOA,2026-01-04 02:55,30.00,26.40,86.26,20.00,4.00,0.00,30.12,M,10.00,M,CLR,M,M,M,M,M,M,M,M,M,M,M,M,M,M,25.08,KOOA 040255Z AUTO 02004KT 10SM CLR M01/M03 A3012 RMK AO2 T10111031,M
OOA,2026-01-04 03:15,30.20,26.40,85.56,20.00,4.00,0.00,30.12,M,10.00,M,CLR,M,M,M,M,M,M,M,M,M,M,M,M,M,M,25.32,KOOA 040315Z AUTO 02004KT 10SM CLR M01/M03 A3012 RMK AO2 T10101031,M
OOA,2026-01-04 03:35,30.60,26.40,84.18,20.00,3.00,0.00,30.12,M,10.00,M,CLR,M,M,M,M,M,M,M,M,M,M,M,M,M,M,27.09,KOOA 040335Z AUTO 02003KT 10SM CLR M01/M03 A3012 RMK AO2 T10081031,M
OOA,2026-01-04 03:55,31.00,27.00,84.90,10.00,4.00,0.00,30.13,M,10.00,M,CLR,M,M,M,M,M,M,M,M,M,M,M,M,M,M,26.25,KOOA 040355Z AUTO 01004KT 10SM CLR 00/M03 A3013 RMK AO2 T10051028,M
OOA,2026-01-04 04:15,31.00,27.00,84.90,20.00,3.00,0.00,30.13,M,10.00,M,CLR,M,M,M,M,M,M,M,M,M,M,M,M,M,M,27.55,KOOA 040415Z AUTO 02003KT 10SM CLR 00/M03 A3013 RMK AO2 T10051028,M
OOA,2026-01-04 04:35,31.00,26.60,83.51,30.00,3.00,0.00,30.13,M,10.00,M,CLR,M,M,M,M,M,M,M,M,M,M,M,M,M,M,27.55,KOOA 040435Z AUTO 03003KT 10SM CLR 00/M03 A3013 RMK AO2 T10051030,M
OOA,2026-01-04 04:55,31.00,26.60,83.51,20.00,4.00,0.00,30.14,M,10.00,M,CLR,M,M,M,M,M,M,M,M,M,M,M,M,M,M,26.25,KOOA 040455Z AUTO 02004KT 10SM CLR 00/M03 A3014 RMK AO2 T10051030,M
OOA,2026-01-04 05:15,31.00,26.60,83.51,20.00,4.00,0.00,30.14,M,10.00,M,CLR,M,M,M,M,M,M,M,M,M,M,M,M,M,M,26.25,KOOA 040515Z AUTO 02004KT 10SM CLR 00/M03 A3014 RMK AO2 T10051030,M
OOA,2026-01-04 05:35,31.00,26.40,82.82,10.00,5.00,0.00,30.14,M,10.00,M,CLR,M,M,M,M,M,M,M,M,M,M,M,M,M,M,25.21,KOOA 040535Z AUTO 01005KT 10SM CLR 00/M03 A3014 RMK AO2 T10051031,M
OOA,2026-01-04 05:55,31.00,26.00,81.46,30.00,5.00,0.00,30.14,M,10.00,M,CLR,M,M,M,M,M,M,M,M,M,M,M,M,M,M,25.21,KOOA 040555Z AUTO 03005KT 10SM CLR 00/M03 A3014 RMK AO2 T10051033 10002 21012 400071065,M
OOA,2026-01-04 06:15,30.70,26.00,82.46,40.00,4.00,0.00,30.14,M,10.00,M,CLR,M,M,M,M,M,M,M,M,M,M,M,M,M,M,25.90,KOOA 040615Z AUTO 04004KT 10SM CLR M01/M03 A3014 RMK AO2 T10071034,M
OOA,2026-01-04 06:35,30.60,26.00,82.80,40.00,5.00,0.00,30.14,M,10.00,M,CLR,M,M,M,M,M,M,M,M,M,M,M,M,M,M,24.73,KOOA 040635Z AUTO 04005KT 10SM CLR M01/M03 A3014 RMK AO2 T10081033,M
OOA,2026-01-04 06:55,30.20,26.00,84.15,40.00,5.00,0.00,30.14,M,10.00,M,CLR,M,M,M,M,M,M,M,M,M,M,M,M,M,M,24.26,KOOA 040655Z AUTO 04005KT 10SM CLR M01/M03 A3014 RMK AO2 T10101034,M
OOA,2026-01-04 07:15,30.20,26.00,84.15,40.00,5.00,0.00,30.13,M,10.00,M,CLR,M,M,M,M,M,M,M,M,M,M,M,M,M,M,24.26,KOOA 040715Z AUTO 04005KT 10SM CLR M01/M03 A3013 RMK AO2 T10101034,M
OOA,2026-01-04 07:35,30.20,26.00,84.15,50.00,6.00,0.00,30.13,M,10.00,M,CLR,M,M,M,M,M,M,M,M,M,M,M,M,M,M,23.36,KOOA 040735Z AUTO 05006KT 10SM CLR M01/M03 A3013 RMK AO2 T10101033,M
OOA,2026-01-04 07:55,30.00,25.70,83.79,60.00,6.00,0.00,30.13,M,10.00,M,CLR,M,M,M,M,M,M,M,M,M,M,M,M,M,M,23.12,KOOA 040755Z AUTO 06006KT 10SM CLR M01/M03 A3013 RMK AO2 T10111035,M
OOA,2026-01-04 08:15,30.00,25.70,83.79,50.00,5.00,0.00,30.14,M,10.00,M,CLR,M,M,M,M,M,M,M,M,M,M,M,M,M,M,24.02,KOOA 040815Z AUTO 05005KT 10SM CLR M01/M03 A3014 RMK AO2 T10111035,M
OOA,2026-01-04 08:35,30.00,25.50,83.10,50.00,6.00,0.00,30.15,M,10.00,M,CLR,M,M,M,M,M,M,M,M,M,M,M,M,M,M,23.12,KOOA 040835Z AUTO 05006KT 10SM CLR M01/M04 A3015 RMK AO2 T10121036,M
OOA,2026-01-04 08:55,29.50,25.70,85.52,50.00,6.00,0.00,30.14,M,10.00,M,CLR,M,M,M,M,M,M,M,M,M,M,M,M,M,M,22.52,KOOA 040855Z AUTO 05006KT 10SM CLR M01/M03 A3014 RMK AO2 T10141035,M
OOA,2026-01-04 09:15,29.30,25.30,84.80,40.00,4.00,0.00,30.15,M,10.00,M,CLR,M,M,M,M,M,M,M,M,M,M,M,M,M,M,24.27,KOOA 040915Z AUTO 04004KT 10SM CLR M01/M04 A3015 RMK AO2 T10151037,M
OOA,2026-01-04 09:35,29.30,25.00,83.74,80.00,6.00,0.00,30.14,M,10.00,M,CLR,M,M,M,M,M,M,M,M,M,M,M,M,M,M,22.28,KOOA 040935Z AUTO 08006KT 10SM CLR M01/M04 A3014 RMK AO2 T10151038,M
OOA,2026-01-04 09:55,29.00,25.00,84.78,80.00,5.00,0.00,30.14,M,10.00,M,CLR,M,M,M,M,M,M,M,M,M,M,M,M,M,M,22.83,KOOA 040955Z AUTO 08005KT 10SM CLR M02/M04 A3014 RMK AO2 T10161038,M
OOA,2026-01-04 10:15,29.00,25.00,84.78,80.00,6.00,0.00,30.15,M,10.00,M,CLR,M,M,M,M,M,M,M,M,M,M,M,M,M,M,21.92,KOOA 041015Z AUTO 08006KT 10SM CLR M02/M04 A3015 RMK AO2 T10161039,M
OOA,2026-01-04 10:35,29.00,25.00,84.78,80.00,4.00,0.00,30.15,M,10.00,M,CLR,M,M,M,M,M,M,M,M,M,M,M,M,M,M,23.92,KOOA 041035Z AUTO 08004KT 10SM CLR M02/M04 A3015 RMK AO2 T10161039,M
OOA,2026-01-04 10:55,29.00,25.00,84.78,80.00,4.00,0.00,30.16,M,10.00,M,CLR,M,M,M,M,M,M,M,M,M,M,M,M,M,M,23.92,KOOA 041055Z AUTO 08004KT 10SM CLR M02/M04 A3016 RMK AO2 T10161039,M
OOA,2026-01-04 11:15,29.30,25.30,84.80,90.00,4.00,0.00,30.15,M,10.00,M,CLR,M,M,M,M,M,M,M,M,M,M,M,M,M,M,24.27,KOOA 041115Z AUTO 09004KT 10SM CLR M01/M04 A3015 RMK AO2 T10151037,M
OOA,2026-01-04 11:35,29.00,24.80,84.07,100.00,5.00,0.00,30.15,M,10.00,M,CLR,M,M,M,M,M,M,M,M,M,M,M,M,M,M,22.83,KOOA 041135Z AUTO 10005KT 10SM CLR M02/M04 A3015 RMK AO2 T10161040,M
OOA,2026-01-04 11:55,28.80,24.80,84.76,120.00,6.00,0.00,30.15,M,10.00,M,CLR,M,M,M,M,M,M,M,M,M,M,M,M,M,M,21.68,KOOA 041155Z AUTO 12006KT 10SM CLR M02/M04 A3015 RMK AO2 T10181040 11006 21018,M
OOA,2026-01-04 12:15,28.80,25.00,85.47,130.00,5.00,0.00,30.15,M,10.00,M,CLR,M,M,M,M,M,M,M,M,M,M,M,M,M,M,22.59,KOOA 041215Z AUTO 13005KT 10SM CLR M02/M04 A3015 RMK AO2 T10181039,M
OOA,2026-01-04 12:35,28.60,25.00,86.18,130.00,6.00,0.00,30.15,M,10.00,M,CLR,M,M,M,M,M,M,M,M,M,M,M,M,M,M,21.44,KOOA 041235Z AUTO 13006KT 10SM CLR M02/M04 A3015 RMK AO2 T10191039,M
OOA,2026-01-04 12:55,28.80,25.50,87.27,130.00,7.00,0.00,30.14,M,10.00,M,CLR,M,M,M,M,M,M,M,M,M,M,M,M,M,M,20.88,KOOA 041255Z AUTO 13007KT 10SM CLR M02/M04 A3014 RMK AO2 T10181036,M
OOA,2026-01-04 13:15,28.80,25.70,88.00,120.00,7.00,0.00,30.13,M,10.00,M,CLR,M,M,M,M,M,M,M,M,M,M,M,M,M,M,20.88,KOOA 041315Z AUTO 12007KT 10SM CLR M02/M03 A3013 RMK AO2 T10181035,M
OOA,2026-01-04 13:35,28.80,25.70,88.00,140.00,6.00,0.00,30.15,M,10.00,M,CLR,M,M,M,M,M,M,M,M,M,M,M,M,M,M,21.68,KOOA 041335Z AUTO 14006KT 10SM CLR M02/M03 A3015 RMK AO2 T10181035,M
OOA,2026-01-04 13:55,29.00,26.20,89.11,140.00,8.00,0.00,30.15,M,10.00,M,CLR,M,M,M,M,M,M,M,M,M,M,M,M,M,M,20.42,KOOA 041355Z AUTO 14008KT 10SM CLR M02/M03 A3015 RMK AO2 T10171032,M
OOA,2026-01-04 14:15,29.00,26.20,89.11,140.00,8.00,0.00,30.14,M,10.00,M,CLR,M,M,M,M,M,M,M,M,M,M,M,M,M,M,20.42,KOOA 041415Z AUTO 14008KT 10SM CLR M02/M03 A3014 RMK AO2 T10161032,M
OOA,2026-01-04 14:35,29.30,26.60,89.49,140.00,9.00,0.00,30.14,M,10.00,M,CLR,M,M,M,M,M,M,M,M,M,M,M,M,M,M,20.16,KOOA 041435Z AUTO 14009KT 10SM CLR M01/M03 A3014 RMK AO2 T10151030,M
OOA,2026-01-04 14:55,30.00,26.80,87.70,150.00,10.00,0.00,30.14,M,7.00,M,CLR,M,M,M,M,M,M,M,M,M,M,M,M,M,M,20.46,KOOA 041455Z AUTO 15010KT 7SM CLR M01/M03 A3014 RMK AO2 T10121029,M
OOA,2026-01-04 15:15,30.20,27.00,87.71,150.00,11.00,0.00,30.13,M,7.00,M,CLR,M,M,M,M,M,M,M,M,M,M,M,M,M,M,20.19,KOOA 041515Z AUTO 15011KT 7SM CLR M01/M03 A3013 RMK AO2 T10101028,M
OOA,2026-01-04 15:35,30.70,27.30,87.01,140.00,11.00,0.00,30.13,M,10.00,M,CLR,M,M,M,M,M,M,M,M,M,M,M,M,M,M,20.82,KOOA 041535Z AUTO 14011KT 10SM CLR M01/M03 A3013 RMK AO2 T10071026,M
OOA,2026-01-04 15:55,31.00,27.50,86.67,140.00,13.00,0.00,30.12,M,10.00,M,CLR,M,M,M,M,M,M,M,M,M,M,M,M,M,M,20.29,KOOA 041555Z AUTO 14013KT 10SM CLR 00/M02 A3012 RMK AO2 T10051025,M
OOA,2026-01-04 16:15,31.60,27.50,84.59,150.00,14.00,0.00,30.11,M,10.00,M,CLR,M,M,M,M,M,M,M,M,M,M,M,M,M,M,20.65,KOOA 041615Z AUTO 15014KT 10SM CLR 00/M02 A3011 RMK AO2 T10021025,M
OOA,2026-01-04 16:35,32.00,27.70,83.93,150.00,12.00,0.00,30.11,M,10.00,M,CLR,M,M,M,M,M,M,M,M,M,M,M,M,M,M,22.00,KOOA 041635Z AUTO 15012KT 10SM CLR 00/M02 A3011 RMK AO2 T10011024,M
OOA,2026-01-04 16:55,32.00,28.00,84.97,150.00,14.00,0.00,30.10,M,10.00,M,CLR,M,M,M,M,M,M,M,M,M,M,M,M,M,M,21.16,KOOA 041655Z AUTO 15014KT 10SM CLR 00/M02 A3010 RMK AO2 T00001022,M
OOA,2026-01-04 17:15,32.50,28.40,84.65,150.00,12.00,0.00,30.10,M,10.00,M,CLR,M,M,M,M,M,M,M,M,M,M,M,M,M,M,22.64,KOOA 041715Z AUTO 15012KT 10SM CLR 00/M02 A3010 RMK AO2 T00031020,M
OOA,2026-01-04 17:35,33.00,28.40,82.97,150.00,11.00,0.00,30.08,M,10.00,M,CLR,M,M,M,M,M,M,M,M,M,M,M,M,M,M,23.73,KOOA 041735Z AUTO 15011KT 10SM CLR 01/M02 A3008 RMK AO2 T00061020,M
OOA,2026-01-04 17:55,33.60,28.80,82.33,160.00,12.00,0.00,30.08,M,10.00,M,CLR,M,M,M,M,M,M,M,M,M,M,M,M,M,M,24.04,KOOA 041755Z AUTO 16012KT 10SM CLR 01/M02 A3008 RMK AO2 T00091018 10009 21019,M
OOA,2026-01-04 18:15,34.00,29.00,81.69,160.00,15.00,0.00,30.04,M,10.00,M,CLR,M,M,M,M,M,M,M,M,M,M,M,M,M,M,23.37,KOOA 041815Z AUTO 16015KT 10SM CLR 01/M02 A3004 RMK AO2 T00111017,M
OOA,2026-01-04 18:35,34.70,29.00,79.44,160.00,14.00,0.00,30.03,M,10.00,M,CLR,M,M,M,M,M,M,M,M,M,M,M,M,M,M,24.64,KOOA 041835Z AUTO 16014KT 10SM CLR 02/M02 A3003 RMK AO2 T00151016,M
OOA,2026-01-04 18:55,35.00,29.00,78.50,160.00,13.00,0.00,30.03,M,10.00,M,CLR,M,M,M,M,M,M,M,M,M,M,M,M,M,M,25.41,KOOA 041855Z AUTO 16013KT 10SM CLR 02/M02 A3003 RMK AO2 T00171016,M
OOA,2026-01-04 19:15,35.60,29.50,78.23,160.00,12.00,0.00,30.01,M,10.00,M,CLR,M,M,M,M,M,M,M,M,M,M,M,M,M,M,26.58,KOOA 041915Z AUTO 16012KT 10SM CLR 02/M01 A3001 RMK AO2 T00201014,M
OOA,2026-01-04 19:35,36.00,29.50,77.00,160.00,15.00,0.00,29.99,M,10.00,M,CLR,M,M,M,M,M,M,M,M,M,M,M,M,M,M,25.97,KOOA 041935Z AUTO 16015KT 10SM CLR 02/M01 A2999 RMK AO2 T00221014,M
OOA,2026-01-04 19:55,36.50,30.00,77.05,150.00,16.00,0.00,29.97,M,10.00,M,CLR,M,M,M,M,M,M,M,M,M,M,M,M,M,M,26.28,KOOA 041955Z AUTO 15016KT 10SM CLR 03/M01 A2997 RMK AO2 T00251011,M
OOA,2026-01-04 20:15,38.00,30.70,74.72,150.00,15.00,0.00,29.95,M,10.00,M,CLR,M,M,M,M,M,M,M,M,M,M,M,M,M,M,28.56,KOOA 042015Z AUTO 15015KT 10SM CLR 03/M01 A2995 RMK AO2 T00341007,M
OOA,2026-01-04 20:35,38.70,31.00,73.59,160.00,20.00,0.00,29.92,M,10.00,M,CLR,M,M,M,M,M,M,M,M,M,M,M,M,M,M,28.04,KOOA 042035Z AUTO 16020KT 10SM CLR 04/M01 A2992 RMK AO2 T00371006,M
OOA,2026-01-04 20:55,37.80,30.20,73.80,170.00,15.00,0.00,29.95,M,10.00,M,CLR,M,M,M,M,M,M,M,M,M,M,M,M,M,M,28.30,KOOA 042055Z AUTO 17015KT 10SM CLR 03/M01 A2995 RMK AO2 T00321010,M
OOA,2026-01-04 21:15,37.60,30.60,75.60,150.00,16.00,0.00,29.92,M,10.00,M,CLR,M,M,M,M,M,M,M,M,M,M,M,M,M,M,27.72,KOOA 042115Z AUTO 15016KT 10SM CLR 03/M01 A2992 RMK AO2 T00311008,M
OOA,2026-01-04 21:35,37.40,30.70,76.50,160.00,13.00,0.00,29.91,M,10.00,20.00,CLR,M,M,M,M,M,M,M,M,M,M,M,M,M,M,28.49,KOOA 042135Z AUTO 16013G20KT 10SM CLR 03/M01 A2991 RMK AO2 T00301007,M
OOA,2026-01-04 21:55,37.40,30.70,76.50,160.00,15.00,0.00,29.90,M,10.00,20.00,CLR,M,M,M,M,M,M,M,M,M,M,M,M,M,M,27.78,KOOA 042155Z AUTO 16015G20KT 10SM CLR 03/M01 A2990 RMK AO2 T00301007,M
OOA,2026-01-04 22:15,37.40,30.70,76.50,160.00,16.00,0.00,29.89,M,10.00,M,CLR,M,M,M,M,M,M,M,M,M,M,M,M,M,M,27.46,KOOA 042215Z AUTO 16016KT 10SM CLR 03/M01 A2989 RMK AO2 T00301007,M
OOA,2026-01-04 22:35,37.40,31.00,77.44,160.00,17.00,0.00,29.89,M,10.00,20.00,CLR,M,M,M,M,M,M,M,M,M,M,M,M,M,M,27.15,KOOA 042235Z AUTO 16017G20KT 10SM CLR 03/M01 A2989 RMK AO2 T00301006,M
OOA,2026-01-04 22:55,36.70,30.70,78.65,160.00,15.00,0.00,29.86,M,10.00,M,CLR,M,M,M,M,M,M,M,M,M,M,M,M,M,M,26.87,KOOA 042255Z AUTO 16015KT 10SM CLR 03/M01 A2986 RMK AO2 T00261007,M
OOA,2026-01-04 23:15,35.80,30.60,81.17,160.00,15.00,0.00,29.85,M,10.00,M,CLR,M,M,M,M,M,M,M,M,M,M,M,M,M,M,25.71,KOOA 042315Z AUTO 16015KT 10SM CLR 02/M01 A2985 RMK AO2 T00211008,M
OOA,2026-01-04 23:35,35.80,30.70,81.50,160.00,15.00,0.00,29.84,M,10.00,M,CLR,M,M,M,M,M,M,M,M,M,M,M,M,M,M,25.71,KOOA 042335Z AUTO 16015KT 10SM CLR 02/M01 A2984 RMK AO2 T00211007,M
OOA,2026-01-04 23:55,35.60,31.00,83.15,160.00,14.00,0.00,29.85,M,10.00,M,CLR,M,M,M,M,M,M,M,M,M,M,M,M,M,M,25.80,KOOA 042355Z AUTO 16014KT 10SM CLR 02/M01 A2985 RMK AO2 T00201006 10040 20010,M
OOA,2026-01-05 00:15,35.60,30.70,82.15,160.00,14.00,0.00,29.83,M,10.00,M,CLR,M,M,M,M,M,M,M,M,M,M,M,M,M,M,25.80,KOOA 050015Z AUTO 16014KT 10SM CLR 02/M01 A2983 RMK AO2 T00201007,M
OOA,2026-01-05 00:35,35.60,30.70,82.15,160.00,15.00,0.00,29.83,M,10.00,M,CLR,M,M,M,M,M,M,M,M,M,M,M,M,M,M,25.45,KOOA 050035Z AUTO 16015KT 10SM CLR 02/M01 A2983 RMK AO2 T00201007,M
OOA,2026-01-05 00:55,35.60,30.70,82.15,170.00,10.00,0.00,29.85,M,10.00,M,CLR,M,M,M,M,M,M,M,M,M,M,M,M,M,M,27.48,KOOA 050055Z AUTO 17010KT 10SM CLR 02/M01 A2985 RMK AO2 T00201007,M
OOA,2026-01-05 01:15,34.00,30.60,87.20,180.00,8.00,0.00,29.86,M,10.00,M,CLR,M,M,M,M,M,M,M,M,M,M,M,M,M,M,26.58,KOOA 050115Z AUTO 18008KT 10SM CLR 01/M01 A2986 RMK AO2 T00121008,M
OOA,2026-01-05 01:35,34.00,30.40,86.49,170.00,9.00,0.00,29.84,M,10.00,M,CLR,M,M,M,M,M,M,M,M,M,M,M,M,M,M,26.00,KOOA 050135Z AUTO 17009KT 10SM CLR 01/M01 A2984 RMK AO2 T00111009,M
OOA,2026-01-05 01:55,33.80,30.60,87.90,170.00,11.00,0.00,29.83,M,10.00,M,CLR,M,M,M,M,M,M,M,M,M,M,M,M,M,M,24.74,KOOA 050155Z AUTO 17011KT 10SM CLR 01/M01 A2983 RMK AO2 T00101008,M
OOA,2026-01-05 02:15,33.80,30.20,86.48,170.00,8.00,0.00,29.83,M,10.00,M,CLR,M,M,M,M,M,M,M,M,M,M,M,M,M,M,26.33,KOOA 050215Z AUTO 17008KT 10SM CLR 01/M01 A2983 RMK AO2 T00101010,M
OOA,2026-01-05 02:35,33.80,30.20,86.48,160.00,9.00,0.00,29.82,M,10.00,M,CLR,M,M,M,M,M,M,M,M,M,M,M,M,M,M,25.75,KOOA 050235Z AUTO 16009KT 10SM CLR 01/M01 A2982 RMK AO2 T00101010,M
OOA,2026-01-05 02:55,33.60,30.20,87.18,170.00,7.00,0.00,29.82,M,10.00,M,CLR,M,M,M,M,M,M,M,M,M,M,M,M,M,M,26.73,KOOA 050255Z AUTO 17007KT 10SM CLR 01/M01 A2982 RMK AO2 T00091010,M
OOA,2026-01-05 03:15,33.40,30.00,87.16,170.00,8.00,0.00,29.81,M,10.00,M,CLR,M,M,M,M,M,M,M,M,M,M,M,M,M,M,25.84,KOOA 050315Z AUTO 17008KT 10SM CLR 01/M01 A2981 RMK AO2 T00081011,M
OOA,2026-01-05 03:35,33.40,30.00,87.16,170.00,9.00,0.00,29.81,M,10.00,M,CLR,M,M,M,M,M,M,M,M,M,M,M,M,M,M,25.25,KOOA 050335Z AUTO 17009KT 10SM CLR 01/M01 A2981 RMK AO2 T00081011,M
OOA,2026-01-05 03:55,33.00,30.00,88.57,170.00,9.00,0.00,29.81,M,10.00,M,CLR,M,M,M,M,M,M,M,M,M,M,M,M,M,M,24.76,KOOA 050355Z AUTO 17009KT 10SM CLR 01/M01 A2981 RMK AO2 T00051011,M
OOA,2026-01-05 04:15,33.40,30.20,87.88,180.00,10.00,0.00,29.80,M,10.00,M,CLR,M,M,M,M,M,M,M,M,M,M,M,M,M,M,24.72,KOOA 050415Z AUTO 18010KT 10SM CLR 01/M01 A2980 RMK AO2 T00081010,M
OOA,2026-01-05 04:35,33.00,30.00,88.57,180.00,8.00,0.00,29.80,M,10.00,M,CLR,M,M,M,M,M,M,M,M,M,M,M,M,M,M,25.34,KOOA 050435Z AUTO 18008KT 10SM CLR 01/M01 A2980 RMK AO2 T00051012,M
OOA,2026-01-05 04:55,32.00,29.70,91.09,180.00,9.00,0.00,29.80,M,10.00,M,CLR,M,M,M,M,M,M,M,M,M,M,M,M,M,M,23.51,KOOA 050455Z AUTO 18009KT 10SM CLR 00/M01 A2980 RMK AO2 T00011013,M
OOA,2026-01-05 05:15,32.50,30.00,90.37,180.00,9.00,0.00,29.80,M,10.00,M,CLR,M,M,M,M,M,M,M,M,M,M,M,M,M,M,24.14,KOOA 050515Z AUTO 18009KT 10SM CLR 00/M01 A2980 RMK AO2 T00031011,M
OOA,2026-01-05 05:35,32.50,30.00,90.37,180.00,10.00,0.00,29.79,M,10.00,M,CLR,M,M,M,M,M,M,M,M,M,M,M,M,M,M,23.60,KOOA 050535Z AUTO 18010KT 10SM CLR 00/M01 A2979 RMK AO2 T00031011,M
OOA,2026-01-05 05:55,33.00,30.20,89.30,190.00,10.00,0.00,29.79,M,10.00,M,CLR,M,M,M,M,M,M,M,M,M,M,M,M,M,M,24.22,KOOA 050555Z AUTO 19010KT 10SM CLR 01/M01 A2979 RMK AO2 T00051010 10021 20001 400401019,M
OOA,2026-01-05 06:15,33.00,30.60,90.76,200.00,8.00,0.00,29.78,M,10.00,M,CLR,M,M,M,M,M,M,M,M,M,M,M,M,M,M,25.34,KOOA 050615Z AUTO 20008KT 10SM CLR 01/M01 A2978 RMK AO2 T00061008,M
OOA,2026-01-05 06:35,32.50,30.40,91.86,210.00,9.00,0.00,29.78,M,10.00,M,CLR,M,M,M,M,M,M,M,M,M,M,M,M,M,M,24.14,KOOA 050635Z AUTO 21009KT 10SM CLR 00/M01 A2978 RMK AO2 T00031009,M
OOA,2026-01-05 06:55,33.80,31.50,91.16,220.00,10.00,0.00,29.77,M,10.00,M,CLR,M,M,M,M,M,M,M,M,M,M,M,M,M,M,25.23,KOOA 050655Z AUTO 22010KT 10SM CLR 01/00 A2977 RMK AO2 T00101003,M
OOA,2026-01-05 07:15,35.60,32.50,88.35,220.00,10.00,0.00,29.77,M,10.00,M,CLR,M,M,M,M,M,M,M,M,M,M,M,M,M,M,27.48,KOOA 050715Z AUTO 22010KT 10SM CLR 02/00 A2977 RMK AO2 T00200003,M
OOA,2026-01-05 07:35,38.00,34.00,85.35,220.00,11.00,0.00,29.77,M,10.00,M,CLR,M,M,M,M,M,M,M,M,M,M,M,M,M,M,30.05,KOOA 050735Z AUTO 22011KT 10SM CLR 03/01 A2977 RMK AO2 T00330012,M
OOA,2026-01-05 07:55,37.60,34.00,86.70,220.00,12.00,0.00,29.77,M,10.00,M,CLR,M,M,M,M,M,M,M,M,M,M,M,M,M,M,29.13,KOOA 050755Z AUTO 22012KT 10SM CLR 03/01 A2977 RMK AO2 T00310012,M
OOA,2026-01-05 08:15,38.00,34.50,87.07,230.00,11.00,0.00,29.77,M,10.00,M,CLR,M,M,M,M,M,M,M,M,M,M,M,M,M,M,30.05,KOOA 050815Z AUTO 23011KT 10SM CLR 03/01 A2977 RMK AO2 T00330014,M
OOA,2026-01-05 08:35,38.50,35.00,87.09,230.00,10.00,0.00,29.78,M,10.00,M,CLR,M,M,M,M,M,M,M,M,M,M,M,M,M,M,31.12,KOOA 050835Z AUTO 23010KT 10SM CLR 04/02 A2978 RMK AO2 T00360016,M
OOA,2026-01-05 08:55,38.30,34.70,86.74,230.00,8.00,0.00,29.78,M,10.00,M,CLR,M,M,M,M,M,M,M,M,M,M,M,M,M,M,31.87,KOOA 050855Z AUTO 23008KT 10SM CLR 04/02 A2978 RMK AO2 T00350015,M
OOA,2026-01-05 09:15,37.40,34.30,88.44,230.00,8.00,0.00,29.79,M,10.00,M,CLR,M,M,M,M,M,M,M,M,M,M,M,M,M,M,30.76,KOOA 050915Z AUTO 23008KT 10SM CLR 03/01 A2979 RMK AO2 T00300013,M
OOA,2026-01-05 09:35,36.50,33.80,89.82,230.00,8.00,0.00,29.79,M,7.00,M,CLR,M,M,M,M,M,M,M,M,M,M,M,M,M,M,29.66,KOOA 050935Z AUTO 23008KT 7SM CLR 03/01 A2979 RMK AO2 T00250010,M
OOA,2026-01-05 09:55,36.00,34.00,92.35,240.00,8.00,0.00,29.79,M,7.00,M,CLR,M,M,M,M,M,M,M,M,M,M,M,M,M,M,29.04,KOOA 050955Z AUTO 24008KT 7SM CLR 02/01 A2979 RMK AO2 T00230012,M
OOA,2026-01-05 10:15,34.50,33.00,94.17,230.00,7.00,0.00,29.78,M,7.00,M,CLR,M,M,M,M,M,M,M,M,M,M,M,M,M,M,27.83,KOOA 051015Z AUTO 23007KT 7SM CLR 01/01 A2978 RMK AO2 T00140005,M
OOA,2026-01-05 10:35,35.60,34.00,93.83,240.00,7.00,0.00,29.78,M,7.00,M,CLR,M,M,M,M,M,M,M,M,M,M,M,M,M,M,29.17,KOOA 051035Z AUTO 24007KT 7SM CLR 02/01 A2978 RMK AO2 T00200012,M
OOA,2026-01-05 10:55,35.60,34.00,93.83,240.00,7.00,0.00,29.78,M,7.00,M,CLR,M,M,M,M,M,M,M,M,M,M,M,M,M,M,29.17,KOOA 051055Z AUTO 24007KT 7SM CLR 02/01 A2978 RMK AO2 T00200012,M
OOA,2026-01-05 11:15,35.20,33.60,93.81,240.00,6.00,0.00,29.78,M,7.00,M,CLR,M,M,M,M,M,M,M,M,M,M,M,M,M,M,29.38,KOOA 051115Z AUTO 24006KT 7SM CLR 02/01 A2978 RMK AO2 T00180009,M
OOA,2026-01-05 11:35,34.70,33.40,94.94,240.00,7.00,0.00,29.78,M,7.00,M,CLR,M,M,M,M,M,M,M,M,M,M,M,M,M,M,28.07,KOOA 051135Z AUTO 24007KT 7SM CLR 02/01 A2978 RMK AO2 T00150008,M
OOA,2026-01-05 11:55,34.70,33.40,94.94,250.00,6.00,0.00,29.79,M,7.00,M,CLR,M,M,M,M,M,M,M,M,M,M,M,M,M,M,28.78,KOOA 051155Z AUTO 25006KT 7SM CLR 02/01 A2979 RMK AO2 T00150008 10036 20002,M
OOA,2026-01-05 12:15,35.60,34.30,94.96,250.00,6.00,0.00,29.79,M,7.00,M,CLR,M,M,M,M,M,M,M,M,M,M,M,M,M,M,29.87,KOOA 051215Z AUTO 25006KT 7SM CLR 02/01 A2979 RMK AO2 T00200013,M
OOA,2026-01-05 12:35,35.00,33.80,95.32,250.00,7.00,0.00,29.80,M,7.00,M,CLR,M,M,M,M,M,M,M,M,M,M,M,M,M,M,28.44,KOOA 051235Z AUTO 25007KT 7SM CLR 02/01 A2980 RMK AO2 T00170010,M
OOA,2026-01-05 12:55,34.00,33.00,96.07,250.00,5.00,0.00,29.80,M,5.00,M,CLR,M,M,M,M,M,M,M,M,M,M,M,M,M,M,28.77,KOOA 051255Z AUTO 25005KT 5SM CLR 01/01 A2980 RMK AO2 T00110006,M
OOA,2026-01-05 13:15,34.70,34.00,97.24,230.00,4.00,0.00,29.80,M,5.00,M,CLR,M,M,M,M,M,M,M,M,M,M,M,M,M,M,30.57,KOOA 051315Z AUTO 23004KT 5SM CLR 02/01 A2980 RMK AO2 T00150012,M
OOA,2026-01-05 13:35,36.00,35.60,98.43,230.00,4.00,0.00,29.80,M,5.00,M,CLR,M,M,M,M,M,M,M,M,M,M,M,M,M,M,32.09,KOOA 051335Z AUTO 23004KT 5SM CLR 02/02 A2980 RMK AO2 T00220020,M
OOA,2026-01-05 13:55,34.70,33.80,96.47,200.00,3.00,0.00,29.79,M,3.00,M,CLR,M,M,M,M,M,M,M,M,M,M,M,M,M,M,31.78,KOOA 051355Z AUTO 20003KT 3SM CLR 02/01 A2979 RMK AO2 T00150010,M
OOA,2026-01-05 14:15,33.40,33.00,98.41,210.00,6.00,0.00,29.79,M,1.75,M,VV ,M,M,M,700.00,M,M,M,M,M,M,M,M,M,M,27.22,KOOA 051415Z AUTO 21006KT 1 3/4SM VV007 01/01 A2979 RMK AO2 T00080006,M
OOA,2026-01-05 14:35,33.60,33.40,99.20,210.00,5.00,0.00,29.80,M,2.00,M,CLR,M,M,M,M,M,M,M,M,M,M,M,M,M,M,28.30,KOOA 051435Z AUTO 21005KT 2SM CLR 01/01 A2980 RMK AO2 T00090008,M
OOA,2026-01-05 14:55,35.80,35.60,99.21,210.00,5.00,0.00,29.80,M,3.00,M,CLR,M,M,M,M,M,M,M,M,M,M,M,M,M,M,30.91,KOOA 051455Z AUTO 21005KT 3SM CLR 02/02 A2980 RMK AO2 T00210020,M
OOA,2026-01-05 15:15,38.00,37.20,96.90,210.00,3.00,0.00,29.80,M,4.00,M,CLR,M,M,M,M,M,M,M,M,M,M,M,M,M,M,35.55,KOOA 051515Z AUTO 21003KT 4SM CLR 03/03 A2980 RMK AO2 T00330029,M
OOA,2026-01-05 15:35,39.40,38.00,94.67,210.00,5.00,0.00,29.81,M,4.00,M,CLR,M,M,M,M,M,M,M,M,M,M,M,M,M,M,35.18,KOOA 051535Z AUTO 21005KT 4SM CLR 04/03 A2981 RMK AO2 T00410033,M
OOA,2026-01-05 15:55,40.50,38.50,92.50,210.00,4.00,0.00,29.81,M,5.00,M,CLR,M,M,M,M,M,M,M,M,M,M,M,M,M,M,37.35,KOOA 051555Z AUTO 21004KT 5SM CLR 05/04 A2981 RMK AO2 T00470036,M
OOA,2026-01-05 16:15,41.50,39.00,90.74,220.00,4.00,0.00,29.82,M,5.00,M,CLR,M,M,M,M,M,M,M,M,M,M,M,M,M,M,38.51,KOOA 051615Z AUTO 22004KT 5SM CLR 05/04 A2982 RMK AO2 T00530038,M
OOA,2026-01-05 16:35,42.80,39.20,86.99,210.00,4.00,0.00,29.81,M,5.00,M,CLR,M,M,M,M,M,M,M,M,M,M,M,M,M,M,40.03,KOOA 051635Z AUTO 21004KT 5SM CLR 06/04 A2981 RMK AO2 T00600040,M
OOA,2026-01-05 16:55,44.80,39.70,82.17,200.00,4.00,0.00,29.80,M,7.00,M,CLR,M,M,M,M,M,M,M,M,M,M,M,M,M,M,42.37,KOOA 051655Z AUTO 20004KT 7SM CLR 07/04 A2980 RMK AO2 T00710043,M
OOA,2026-01-05 17:15,47.00,40.00,76.49,0.00,0.00,0.00,29.79,M,7.00,M,CLR,M,M,M,M,M,M,M,M,M,M,M,M,M,M,47.00,KOOA 051715Z AUTO 00000KT 7SM CLR 08/05 A2979 RMK AO2 T00830045,M
OOA,2026-01-05 17:35,48.00,40.50,75.11,0.00,0.00,0.00,29.77,M,10.00,M,CLR,M,M,M,M,M,M,M,M,M,M,M,M,M,M,48.00,KOOA 051735Z AUTO 00000KT 10SM CLR 09/05 A2977 RMK AO2 T00890047,M
OOA,2026-01-05 17:55,48.60,40.30,72.87,0.00,0.00,0.00,29.77,M,10.00,M,CLR,M,M,M,M,M,M,M,M,M,M,M,M,M,M,48.60,KOOA 051755Z AUTO 00000KT 10SM CLR 09/05 A2977 RMK AO2 T00920046 10093 20006,M
OOA,2026-01-05 18:15,48.60,41.00,74.88,160.00,5.00,0.00,29.76,M,10.00,M,CLR,M,M,M,M,M,M,M,M,M,M,M,M,M,M,46.11,KOOA 051815Z AUTO 16005KT 10SM CLR 09/05 A2976 RMK AO2 T00920049,M
OOA,2026-01-05 18:35,49.60,41.00,72.13,140.00,5.00,0.00,29.74,M,10.00,M,CLR,M,M,M,M,M,M,M,M,M,M,M,M,M,M,47.30,KOOA 051835Z AUTO 14005KT 10SM CLR 10/05 A2974 RMK AO2 T00980050,M
OOA,2026-01-05 18:55,51.00,41.40,69.54,130.00,5.00,0.00,29.74,M,10.00,M,CLR,M,M,M,M,M,M,M,M,M,M,M,M,M,M,51.00,KOOA 051855Z AUTO 13005KT 10SM CLR 11/05 A2974 RMK AO2 T01050052,M
OOA,2026-01-05 19:15,52.00,41.70,67.80,150.00,7.00,0.00,29.73,M,10.00,M,CLR,M,M,M,M,M,M,M,M,M,M,M,M,M,M,52.00,KOOA 051915Z AUTO 15007KT 10SM CLR 11/05 A2973 RMK AO2 T01120054,M
OOA,2026-01-05 19:35,53.20,41.70,64.88,150.00,7.00,0.00,29.72,M,10.00,M,CLR,M,M,M,M,M,M,M,M,M,M,M,M,M,M,53.20,KOOA 051935Z AUTO 15007KT 10SM CLR 12/05 A2972 RMK AO2 T01180054,M
OOA,2026-01-05 19:55,53.60,42.00,64.68,140.00,7.00,0.00,29.71,M,10.00,M,CLR,M,M,M,M,M,M,M,M,M,M,M,M,M,M,53.60,KOOA 051955Z AUTO 14007KT 10SM CLR 12/06 A2971 RMK AO2 T01200056,M
OOA,2026-01-05 20:15,53.80,42.00,64.20,130.00,9.00,0.00,29.71,M,10.00,M,CLR,M,M,M,M,M,M,M,M,M,M,M,M,M,M,53.80,KOOA 052015Z AUTO 13009KT 10SM CLR 12/06 A2971 RMK AO2 T01210055,M
OOA,2026-01-05 20:35,53.40,42.00,65.15,140.00,9.00,0.00,29.70,M,10.00,M,CLR,M,M,M,M,M,M,M,M,M,M,M,M,M,M,53.40,KOOA 052035Z AUTO 14009KT 10SM CLR 12/06 A2970 RMK AO2 T01190056,M
OOA,2026-01-05 20:55,52.70,42.00,66.85,130.00,7.00,0.00,29.70,M,10.00,M,CLR,M,M,M,M,M,M,M,M,M,M,M,M,M,M,52.70,KOOA 052055Z AUTO 13007KT 10SM CLR 12/06 A2970 RMK AO2 T01150056,M
OOA,2026-01-05 21:15,52.70,42.40,67.88,120.00,6.00,0.00,29.69,M,10.00,M,CLR,M,M,M,M,M,M,M,M,M,M,M,M,M,M,52.70,KOOA 052115Z AUTO 12006KT 10SM CLR 12/06 A2969 RMK AO2 T01150058,M
OOA,2026-01-05 21:35,51.40,42.00,70.13,130.00,8.00,0.00,29.68,M,10.00,M,CLR,M,M,M,M,M,M,M,M,M,M,M,M,M,M,51.40,KOOA 052135Z AUTO 13008KT 10SM CLR 11/06 A2968 RMK AO2 T01080056,M
OOA,2026-01-05 21:55,50.40,42.00,72.77,130.00,8.00,0.00,29.69,M,10.00,M,CLR,M,M,M,M,M,M,M,M,M,M,M,M,M,M,50.40,KOOA 052155Z AUTO 13008KT 10SM CLR 10/06 A2969 RMK AO2 T01020056,M
OOA,2026-01-05 22:15,49.00,42.00,76.67,140.00,10.00,0.00,29.68,M,10.00,M,CLR,M,M,M,M,M,M,M,M,M,M,M,M,M,M,44.29,KOOA 052215Z AUTO 14010KT 10SM CLR 09/06 A2968 RMK AO2 T00940055,M
OOA,2026-01-05 22:35,46.80,41.00,80.12,130.00,10.00,0.00,29.67,M,7.00,M,CLR,M,M,M,M,M,M,M,M,M,M,M,M,M,M,41.53,KOOA 052235Z AUTO 13010KT 7SM CLR 08/05 A2967 RMK AO2 T00820051,M
OOA,2026-01-05 22:55,45.00,40.50,84.12,130.00,9.00,0.00,29.67,M,7.00,M,CLR,M,M,M,M,M,M,M,M,M,M,M,M,M,M,39.68,KOOA 052255Z AUTO 13009KT 7SM CLR 07/05 A2967 RMK AO2 T00720047,M
OOA,2026-01-05 23:15,42.40,39.00,87.65,150.00,8.00,0.00,29.67,M,7.00,M,CLR,M,M,M,M,M,M,M,M,M,M,M,M,M,M,36.92,KOOA 052315Z AUTO 15008KT 7SM CLR 06/04 A2967 RMK AO2 T00580038,M
OOA,2026-01-05 23:35,41.40,39.00,91.09,140.00,5.00,0.00,29.68,M,7.00,M,CLR,M,M,M,M,M,M,M,M,M,M,M,M,M,M,37.56,KOOA 052335Z AUTO 14005KT 7SM CLR 05/04 A2968 RMK AO2 T00520039,M
OOA,2026-01-05 23:55,41.00,39.00,92.51,140.00,6.00,0.00,29.69,M,5.00,M,CLR,M,M,M,M,M,M,M,M,M,M,M,M,M,M,36.37,KOOA 052355Z AUTO 14006KT 5SM CLR 05/04 A2969 RMK AO2 T00500039 10121 20050,M
OOA,2026-01-06 00:15,40.00,38.70,95.05,150.00,4.00,0.00,29.69,M,5.00,M,CLR,M,M,M,M,M,M,M,M,M,M,M,M,M,M,36.76,KOOA 060015Z AUTO 15004KT 5SM CLR 05/04 A2969 RMK AO2 T00450037,M
OOA,2026-01-06 00:35,39.00,38.00,96.16,150.00,4.00,0.00,29.69,M,4.00,M,CLR,M,M,M,M,M,M,M,M,M,M,M,M,M,M,35.59,KOOA 060035Z AUTO 15004KT 4SM CLR 04/03 A2969 RMK AO2 T00390034,M
OOA,2026-01-06 00:55,40.00,39.20,96.93,180.00,3.00,0.00,29.70,M,5.00,M,CLR,M,M,M,M,M,M,M,M,M,M,M,M,M,M,37.83,KOOA 060055Z AUTO 18003KT 5SM CLR 05/04 A2970 RMK AO2 T00450040,M
OOA,2026-01-06 01:15,39.20,38.30,96.54,170.00,3.00,0.00,29.70,M,4.00,M,CLR,M,M,M,M,M,M,M,M,M,M,M,M,M,M,36.92,KOOA 060115Z AUTO 17003KT 4SM CLR 04/04 A2970 RMK AO2 T00400035,M
OOA,2026-01-06 01:35,39.20,38.70,98.06,140.00,3.00,0.00,29.69,M,3.00,M,CLR,M,M,M,M,M,M,M,M,M,M,M,M,M,M,36.92,KOOA 060135Z AUTO 14003KT 3SM CLR 04/04 A2969 RMK AO2 T00400037,M
OOA,2026-01-06 01:55,36.30,35.80,98.04,110.00,3.00,0.00,29.68,M,1.00,M,VV ,M,M,M,700.00,M,M,M,M,M,M,M,M,M,M,33.60,KOOA 060155Z AUTO 11003KT 1SM VV007 02/02 A2968 RMK AO2 T00240021,M
OOA,2026-01-06 02:15,36.70,36.30,98.43,100.00,4.00,0.00,29.67,M,0.50,M,VV ,M,M,M,500.00,M,M,M,M,M,M,M,M,M,M,32.91,KOOA 060215Z AUTO 10004KT 1/2SM VV005 03/02 A2967 RMK AO2 T00260024,M
OOA,2026-01-06 02:35,37.80,37.60,99.22,110.00,4.00,0.00,29.67,M,1.25,M,VV ,M,M,M,700.00,M,M,M,M,M,M,M,M,M,M,34.19,KOOA 060235Z AUTO 11004KT 1 1/4SM VV007 03/03 A2967 RMK AO2 T00320031,M
OOA,2026-01-06 02:55,36.30,36.00,98.82,70.00,3.00,0.00,29.65,M,0.75,M,VV ,M,M,M,500.00,M,M,M,M,M,M,M,M,M,M,33.60,KOOA 060255Z AUTO 07003KT 3/4SM VV005 02/02 A2965 RMK AO2 T00240023,M
OOA,2026-01-06 03:15,36.70,36.30,98.43,360.00,5.00,0.00,29.65,M,1.00,M,VV ,M,M,M,700.00,M,M,M,M,M,M,M,M,M,M,31.98,KOOA 060315Z AUTO 36005KT 1SM VV007 03/02 A2965 RMK AO2 T00260024,M
OOA,2026-01-06 03:35,37.20,37.00,99.21,10.00,4.00,0.00,29.64,M,1.25,M,VV ,M,M,M,700.00,M,M,M,M,M,M,M,M,M,M,33.49,KOOA 060335Z AUTO 01004KT 1 1/4SM VV007 03/03 A2964 RMK AO2 T00290027,M
OOA,2026-01-06 03:55,37.40,37.00,98.44,340.00,5.00,0.00,29.64,M,1.25,M,VV ,M,M,M,700.00,M,M,M,M,M,M,M,M,M,M,32.81,KOOA 060355Z AUTO 34005KT 1 1/4SM VV007 03/03 A2964 RMK AO2 T00300028,M
OOA,2026-01-06 04:15,38.00,37.80,99.22,350.00,5.00,0.00,29.64,M,2.00,M,M,M,M,M,M,M,M,M,M,M,M,M,M,M,M,33.52,KOOA 060415Z AUTO 35005KT 2SM 03/03 A2964 RMK AO2 SKY OBSCURED T00330032,M
OOA,2026-01-06 04:35,38.70,38.50,99.22,350.00,5.00,0.00,29.64,M,2.50,M,M,M,M,M,M,M,M,M,M,M,M,M,M,M,M,34.35,KOOA 060435Z AUTO 35005KT 2 1/2SM 04/04 A2964 RMK AO2 SKY OBSCURED T00370036,M
OOA,2026-01-06 04:55,39.20,39.00,99.22,350.00,5.00,0.00,29.64,M,2.50,M,M,M,M,M,M,M,M,M,M,M,M,M,M,M,M,34.95,KOOA 060455Z AUTO 35005KT 2 1/2SM 04/04 A2964 RMK AO2 SKY OBSCURED T00400039,M
OOA,2026-01-06 05:15,39.40,39.20,99.22,360.00,5.00,0.00,29.63,M,2.50,M,M,M,M,M,M,M,M,M,M,M,M,M,M,M,M,35.18,KOOA 060515Z AUTO 36005KT 2 1/2SM 04/04 A2963 RMK AO2 SKY OBSCURED T00410040,M
OOA,2026-01-06 05:35,40.00,39.60,98.45,20.00,5.00,0.00,29.62,M,3.00,M,M,M,M,M,M,M,M,M,M,M,M,M,M,M,M,35.90,KOOA 060535Z AUTO 02005KT 3SM 04/04 A2962 RMK AO2 SKY OBSCURED T00440042,M
OOA,2026-01-06 05:55,40.00,39.60,98.45,30.00,5.00,0.00,29.61,M,3.00,M,M,M,M,M,M,M,M,M,M,M,M,M,M,M,M,35.90,KOOA 060555Z AUTO 03005KT 3SM 04/04 A2961 RMK AO2 SKY OBSCURED T00440042 10049 20022 401210002,M
OOA,2026-01-06 06:15,40.00,39.60,98.45,30.00,4.00,0.00,29.61,M,4.00,M,SCT,M,M,M,9000.00,M,M,M,M,M,M,M,M,M,M,36.76,KOOA 060615Z AUTO 03004KT 4SM SCT090 05/04 A2961 RMK AO2 T00450042,M
OOA,2026-01-06 06:35,40.00,39.40,97.69,20.00,4.00,0.00,29.60,M,4.00,M,SCT,M,M,M,9000.00,M,M,M,M,M,M,M,M,M,M,36.76,KOOA 060635Z AUTO 02004KT 4SM SCT090 05/04 A2960 RMK AO2 T00450041,M
OOA,2026-01-06 06:55,39.60,39.00,97.69,330.00,4.00,0.00,29.61,M,3.00,M,M,M,M,M,M,M,M,M,M,M,M,M,M,M,M,36.30,KOOA 060655Z AUTO 33004KT 3SM 04/04 A2961 RMK AO2 SKY OBSCURED T00420039,M
OOA,2026-01-06 07:15,39.60,39.20,98.45,0.00,0.00,0.00,29.60,M,3.00,M,M,M,M,M,M,M,M,M,M,M,M,M,M,M,M,39.60,KOOA 060715Z AUTO 00000KT 3SM 04/04 A2960 RMK AO2 SKY OBSCURED T00420040,M
OOA,2026-01-06 07:35,39.40,39.00,98.45,350.00,3.00,0.00,29.60,M,3.00,M,M,M,M,M,M,M,M,M,M,M,M,M,M,M,M,37.15,KOOA 060735Z AUTO 35003KT 3SM 04/04 A2960 RMK AO2 SKY OBSCURED T00410038,M
OOA,2026-01-06 07:55,39.40,39.00,98.45,280.00,5.00,0.00,29.60,M,2.00,M,M,M,M,M,M,M,M,M,M,M,M,M,M,M,M,35.18,KOOA 060755Z AUTO 28005KT 2SM 04/04 A2960 RMK AO2 SKY OBSCURED T00410038,M
OOA,2026-01-06 08:15,39.60,39.20,98.45,280.00,6.00,0.00,29.62,M,1.50,M,VV ,M,M,M,700.00,M,M,M,M,M,M,M,M,M,M,34.68,KOOA 060815Z AUTO 28006KT 1 1/2SM VV007 04/04 A2962 RMK AO2 T00420040,M
OOA,2026-01-06 08:35,39.60,39.20,98.45,280.00,6.00,0.00,29.62,M,1.25,M,VV ,M,M,M,700.00,M,M,M,M,M,M,M,M,M,M,34.68,KOOA 060835Z AUTO 28006KT 1 1/4SM VV007 04/04 A2962 RMK AO2 T00420040,M
OOA,2026-01-06 08:55,39.70,39.40,98.84,280.00,5.00,0.00,29.62,M,1.25,M,VV ,M,M,M,700.00,M,M,M,M,M,M,M,M,M,M,35.54,KOOA 060855Z AUTO 28005KT 1 1/4SM VV007 04/04 A2962 RMK AO2 T00430041,M
OOA,2026-01-06 09:15,39.60,39.40,99.22,290.00,6.00,0.00,29.62,M,1.25,M,VV ,M,M,M,700.00,M,M,M,M,M,M,M,M,M,M,34.68,KOOA 060915Z AUTO 29006KT 1 1/4SM VV007 04/04 A2962 RMK AO2 T00420041,M
OOA,2026-01-06 09:35,39.40,39.20,99.22,280.00,4.00,0.00,29.62,M,1.00,M,VV ,M,M,M,700.00,M,M,M,M,M,M,M,M,M,M,36.06,KOOA 060935Z AUTO 28004KT 1SM VV007 04/04 A2962 RMK AO2 T00410040,M
OOA,2026-01-06 09:55,39.70,39.60,99.61,280.00,6.00,0.00,29.62,M,1.00,M,VV ,M,M,M,700.00,M,M,M,M,M,M,M,M,M,M,34.80,KOOA 060955Z AUTO 28006KT 1SM VV007 04/04 A2962 RMK AO2 T00430042,M
OOA,2026-01-06 10:15,39.70,39.60,99.61,290.00,7.00,0.00,29.63,M,0.50,M,VV ,M,M,M,500.00,M,M,M,M,M,M,M,M,M,M,34.16,KOOA 061015Z AUTO 29007KT 1/2SM VV005 04/04 A2963 RMK AO2 T00430042,M
OOA,2026-01-06 10:35,40.00,39.70,98.84,300.00,6.00,0.00,29.63,M,0.50,M,VV ,M,M,M,500.00,M,M,M,M,M,M,M,M,M,M,35.17,KOOA 061035Z AUTO 30006KT 1/2SM VV005 05/04 A2963 RMK AO2 T00450043,M
OOA,2026-01-06 10:55,40.30,40.00,98.84,290.00,6.00,0.00,29.63,M,0.50,M,VV ,M,M,M,500.00,M,M,M,M,M,M,M,M,M,M,35.53,KOOA 061055Z AUTO 29006KT 1/2SM VV005 05/05 A2963 RMK AO2 T00460045,M
OOA,2026-01-06 11:15,40.30,40.00,98.84,270.00,6.00,0.00,29.63,M,1.00,M,VV ,M,M,M,700.00,M,M,M,M,M,M,M,M,M,M,35.53,KOOA 061115Z AUTO 27006KT 1SM VV007 05/05 A2963 RMK AO2 T00460045,M
OOA,2026-01-06 11:35,40.30,40.00,98.84,280.00,6.00,0.00,29.64,M,1.00,M,VV ,M,M,M,700.00,M,M,M,M,M,M,M,M,M,M,35.53,KOOA 061135Z AUTO 28006KT 1SM VV007 05/05 A2964 RMK AO2 T00460045,M
OOA,2026-01-06 11:55,40.30,40.00,98.84,300.00,6.00,0.00,29.64,M,1.00,M,VV ,M,M,M,700.00,M,M,M,M,M,M,M,M,M,M,35.53,KOOA 061155Z AUTO 30006KT 1SM VV007 05/05 A2964 RMK AO2 T00460045 10047 20040,M
OOA,2026-01-06 12:15,40.50,40.30,99.23,300.00,5.00,0.00,29.65,M,1.25,M,VV ,M,M,M,700.00,M,M,M,M,M,M,M,M,M,M,36.49,KOOA 061215Z AUTO 30005KT 1 1/4SM VV007 05/05 A2965 RMK AO2 T00470046,M
OOA,2026-01-06 12:35,41.00,40.60,98.46,290.00,7.00,0.00,29.66,M,1.50,M,VV ,M,M,M,700.00,M,M,M,M,M,M,M,M,M,M,35.75,KOOA 061235Z AUTO 29007KT 1 1/2SM VV007 05/05 A2966 RMK AO2 T00490048,M
OOA,2026-01-06 12:55,41.00,41.00,100.00,300.00,8.00,0.00,29.67,M,1.75,M,VV ,M,M,M,700.00,M,M,M,M,M,M,M,M,M,M,35.20,KOOA 061255Z AUTO 30008KT 1 3/4SM VV007 05/05 A2967 RMK AO2 T00500050,M
OOA,2026-01-06 13:15,41.00,41.00,100.00,300.00,9.00,0.00,29.67,M,1.75,M,VV ,M,M,M,700.00,M,M,M,M,M,M,M,M,M,M,34.70,KOOA 061315Z AUTO 30009KT 1 3/4SM VV007 05/05 A2967 RMK AO2 T00510050,M
OOA,2026-01-06 13:35,41.00,41.00,100.00,300.00,7.00,0.00,29.67,M,1.75,M,VV ,M,M,M,700.00,M,M,M,M,M,M,M,M,M,M,35.75,KOOA 061335Z AUTO 30007KT 1 3/4SM VV007 05/05 A2967 RMK AO2 T00510050,M
OOA,2026-01-06 13:55,41.00,41.00,100.00,290.00,5.00,0.00,29.67,M,1.00,M,VV ,M,M,M,700.00,M,M,M,M,M,M,M,M,M,M,37.08,KOOA 061355Z AUTO 29005KT 1SM VV007 05/05 A2967 RMK AO2 T00500049,M
OOA,2026-01-06 14:15,41.00,41.00,100.00,290.00,5.00,0.00,29.67,M,0.75,M,VV ,M,M,M,500.00,M,M,M,M,M,M,M,M,M,M,37.08,KOOA 061415Z AUTO 29005KT 3/4SM VV005 05/05 A2967 RMK AO2 T00500050,M
OOA,2026-01-06 14:35,41.40,41.00,98.46,290.00,7.00,0.00,29.68,M,0.50,M,VV ,M,M,M,500.00,M,M,M,M,M,M,M,M,M,M,36.24,KOOA 061435Z AUTO 29007KT 1/2SM VV005 05/05 A2968 RMK AO2 T00520051,M
OOA,2026-01-06 14:55,41.40,41.00,98.46,0.00,0.00,0.00,29.68,M,0.50,M,VV ,M,M,M,500.00,M,M,M,M,M,M,M,M,M,M,41.40,KOOA 061455Z AUTO 00000KT 1/2SM VV005 05/05 A2968 RMK AO2 T00520051,M
OOA,2026-01-06 15:15,42.00,41.70,98.85,260.00,3.00,0.00,29.68,M,0.50,M,VV ,M,M,M,500.00,M,M,M,M,M,M,M,M,M,M,40.12,KOOA 061515Z AUTO 26003KT 1/2SM VV005 06/05 A2968 RMK AO2 T00550054,M
OOA,2026-01-06 15:35,42.00,42.00,100.00,260.00,7.00,0.00,29.69,M,0.25,M,VV ,M,M,M,200.00,M,M,M,M,M,M,M,M,M,M,36.97,KOOA 061535Z AUTO 26007KT 1/4SM VV002 06/06 A2969 RMK AO2 T00560055,M
OOA,2026-01-06 15:55,42.00,42.00,100.00,270.00,10.00,0.00,29.71,M,0.25,M,VV ,M,M,M,200.00,M,M,M,M,M,M,M,M,M,M,35.51,KOOA 061555Z AUTO 27010KT 1/4SM VV002 06/06 A2971 RMK AO2 T00550055,M
OOA,2026-01-06 16:15,42.00,42.00,100.00,280.00,10.00,0.00,29.73,M,1.00,M,VV ,M,M,M,700.00,M,M,M,M,M,M,M,M,M,M,35.51,KOOA 061615Z AUTO 28010KT 1SM VV007 06/06 A2973 RMK AO2 T00550055,M
OOA,2026-01-06 16:35,42.00,42.00,100.00,290.00,9.00,0.00,29.72,M,0.75,M,VV ,M,M,M,500.00,M,M,M,M,M,M,M,M,M,M,35.95,KOOA 061635Z AUTO 29009KT 3/4SM VV005 06/06 A2972 RMK AO2 T00560055,M
OOA,2026-01-06 16:55,42.30,42.00,98.85,280.00,9.00,0.00,29.72,M,1.00,M,VV ,M,M,M,700.00,M,M,M,M,M,M,M,M,M,M,36.32,KOOA 061655Z AUTO 28009KT 1SM VV007 06/06 A2972 RMK AO2 T00570055,M
OOA,2026-01-06 17:15,42.30,42.00,98.85,290.00,10.00,0.00,29.72,M,1.50,M,VV ,M,M,M,700.00,M,M,M,M,M,M,M,M,M,M,35.88,KOOA 061715Z AUTO 29010KT 1 1/2SM VV007 06/06 A2972 RMK AO2 T00570055,M
OOA,2026-01-06 17:35,42.00,42.00,100.00,300.00,13.00,0.00,29.72,M,1.50,M,VV ,M,M,M,700.00,M,M,M,M,M,M,M,M,M,M,34.38,KOOA 061735Z AUTO 30013KT 1 1/2SM VV007 06/06 A2972 RMK AO2 T00560055,M
OOA,2026-01-06 17:55,42.00,42.00,100.00,280.00,12.00,0.00,29.71,M,2.00,M,M,M,M,M,M,M,M,M,M,M,M,M,M,M,M,34.73,KOOA 061755Z AUTO 28012KT 2SM 06/06 A2971 RMK AO2 SKY OBSCURED T00550055 10058 20046,M
OOA,2026-01-06 18:15,42.00,42.00,100.00,270.00,10.00,0.00,29.70,M,1.75,M,VV ,M,M,M,700.00,M,M,M,M,M,M,M,M,M,M,35.51,KOOA 061815Z AUTO 27010KT 1 3/4SM VV007 06/06 A2970 RMK AO2 T00550055,M
OOA,2026-01-06 18:35,41.70,41.40,98.85,270.00,12.00,0.00,29.70,M,1.25,M,VV ,M,M,M,700.00,M,M,M,M,M,M,M,M,M,M,34.35,KOOA 061835Z AUTO 27012KT 1 1/4SM VV007 05/05 A2970 RMK AO2 T00540052,M
OOA,2026-01-06 18:55,41.00,41.00,100.00,280.00,14.00,0.00,29.71,M,1.25,M,VV ,M,M,M,700.00,M,M,M,M,M,M,M,M,M,M,32.76,KOOA 061855Z AUTO 28014KT 1 1/4SM VV007 05/05 A2971 RMK AO2 T00510050,M
OOA,2026-01-06 19:15,41.00,40.60,98.46,290.00,14.00,0.00,29.71,M,1.50,M,VV ,M,M,M,700.00,M,M,M,M,M,M,M,M,M,M,32.76,KOOA 061915Z AUTO 29014KT 1 1/2SM VV007 05/05 A2971 RMK AO2 T00500048,M
OOA,2026-01-06 19:35,40.60,40.50,99.61,280.00,12.00,0.00,29.71,M,1.75,M,VV ,M,M,M,700.00,M,M,M,M,M,M,M,M,M,M,32.95,KOOA 061935Z AUTO 28012KT 1 3/4SM VV007 05/05 A2971 RMK AO2 T00480047,M
OOA,2026-01-06 19:55,40.50,40.30,99.23,280.00,13.00,0.00,29.72,M,2.00,M,M,M,M,M,M,M,M,M,M,M,M,M,M,M,M,32.46,KOOA 061955Z AUTO 28013KT 2SM 05/05 A2972 RMK AO2 SKY OBSCURED T00470046,M
OOA,2026-01-06 20:15,40.30,40.00,98.84,290.00,14.00,0.00,29.73,M,3.00,M,M,M,M,M,M,M,M,M,M,M,M,M,M,M,M,31.86,KOOA 062015Z AUTO 29014KT 3SM 05/05 A2973 RMK AO2 SKY OBSCURED T00460045,M
OOA,2026-01-06 20:35,40.00,40.00,100.00,300.00,12.00,0.00,29.73,M,3.00,M,M,M,M,M,M,M,M,M,M,M,M,M,M,M,M,32.18,KOOA 062035Z AUTO 30012KT 3SM 05/04 A2973 RMK AO2 SKY OBSCURED T00450044,M
OOA,2026-01-06 20:55,40.00,40.00,100.00,310.00,13.00,0.00,29.74,M,3.00,M,M,M,M,M,M,M,M,M,M,M,M,M,M,M,M,31.82,KOOA 062055Z AUTO 31013KT 3SM 05/05 A2974 RMK AO2 SKY OBSCURED T00450045,M
OOA,2026-01-06 21:15,40.00,39.70,98.84,300.00,13.00,0.00,29.76,M,5.00,M,CLR,M,M,M,M,M,M,M,M,M,M,M,M,M,M,31.82,KOOA 062115Z AUTO 30013KT 5SM CLR 05/04 A2976 RMK AO2 T00450043,M
OOA,2026-01-06 21:35,40.00,39.70,98.84,310.00,14.00,0.00,29.76,M,5.00,M,CLR,M,M,M,M,M,M,M,M,M,M,M,M,M,M,31.47,KOOA 062135Z AUTO 31014KT 5SM CLR 05/04 A2976 RMK AO2 T00450043,M
OOA,2026-01-06 21:55,39.60,39.40,99.22,300.00,13.00,0.00,29.77,M,7.00,M,CLR,M,M,M,M,M,M,M,M,M,M,M,M,M,M,31.30,KOOA 062155Z AUTO 30013KT 7SM CLR 04/04 A2977 RMK AO2 T00420041,M
OOA,2026-01-06 22:15,39.20,39.20,100.00,300.00,9.00,0.00,29.77,M,7.00,M,CLR,M,M,M,M,M,M,M,M,M,M,M,M,M,M,32.47,KOOA 062215Z AUTO 30009KT 7SM CLR 04/04 A2977 RMK AO2 T00400040,M
OOA,2026-01-06 22:35,39.00,38.00,96.16,310.00,8.00,0.00,29.79,M,7.00,M,CLR,M,M,M,M,M,M,M,M,M,M,M,M,M,M,32.74,KOOA 062235Z AUTO 31008KT 7SM CLR 04/03 A2979 RMK AO2 T00380034,M
OOA,2026-01-06 22:55,38.50,37.00,94.28,310.00,8.00,0.00,29.79,M,7.00,M,CLR,M,M,M,M,M,M,M,M,M,M,M,M,M,M,32.12,KOOA 062255Z AUTO 31008KT 7SM CLR 04/03 A2979 RMK AO2 T00360027,M
OOA,2026-01-06 23:15,37.40,36.30,95.75,320.00,6.00,0.00,29.79,M,7.00,M,CLR,M,M,M,M,M,M,M,M,M,M,M,M,M,M,32.03,KOOA 062315Z AUTO 32006KT 7SM CLR 03/02 A2979 RMK AO2 T00300024,M
OOA,2026-01-06 23:35,36.30,35.60,97.26,330.00,7.00,0.00,29.80,M,5.00,M,CLR,M,M,M,M,M,M,M,M,M,M,M,M,M,M,30.02,KOOA 062335Z AUTO 33007KT 5SM CLR 02/02 A2980 RMK AO2 T00240020,M
OOA,2026-01-06 23:55,36.00,35.40,97.65,340.00,6.00,0.00,29.80,M,5.00,M,CLR,M,M,M,M,M,M,M,M,M,M,M,M,M,M,30.35,KOOA 062355Z AUTO 34006KT 5SM CLR 02/02 A2980 RMK AO2 T00230019 10055 20023,M
OOA,2026-01-07 00:15,37.00,36.50,98.05,340.00,7.00,0.00,29.81,M,7.00,M,CLR,M,M,M,M,M,M,M,M,M,M,M,M,M,M,30.87,KOOA 070015Z AUTO 34007KT 7SM CLR 03/03 A2981 RMK AO2 T00270025,M
OOA,2026-01-07 00:35,36.00,35.40,97.65,350.00,5.00,0.00,29.82,M,7.00,M,CLR,M,M,M,M,M,M,M,M,M,M,M,M,M,M,31.15,KOOA 070035Z AUTO 35005KT 7SM CLR 02/02 A2982 RMK AO2 T00230019,M
OOA,2026-01-07 00:55,35.00,34.70,98.81,350.00,5.00,0.00,29.83,M,5.00,M,CLR,M,M,M,M,M,M,M,M,M,M,M,M,M,M,29.96,KOOA 070055Z AUTO 35005KT 5SM CLR 02/02 A2983 RMK AO2 T00170015,M
OOA,2026-01-07 01:15,35.00,34.70,98.81,350.00,3.00,0.00,29.84,M,5.00,M,CLR,M,M,M,M,M,M,M,M,M,M,M,M,M,M,32.12,KOOA 070115Z AUTO 35003KT 5SM CLR 02/02 A2984 RMK AO2 T00160015,M
OOA,2026-01-07 01:35,32.50,32.00,98.01,0.00,0.00,0.00,29.84,M,3.00,M,CLR,M,M,M,M,M,M,M,M,M,M,M,M,M,M,32.50,KOOA 070135Z AUTO 00000KT 3SM CLR 00/00 A2984 RMK AO2 T00030001,M
OOA,2026-01-07 01:55,34.70,34.70,100.00,0.00,0.00,0.00,29.84,M,4.00,M,CLR,M,M,M,M,M,M,M,M,M,M,M,M,M,M,34.70,KOOA 070155Z AUTO 00000KT 4SM CLR 02/02 A2984 RMK AO2 T00150015,M
OOA,2026-01-07 02:15,34.00,34.00,100.00,0.00,0.00,0.00,29.85,M,2.50,M,M,M,M,M,M,M,M,M,M,M,M,M,M,M,M,34.00,KOOA 070215Z AUTO 00000KT 2 1/2SM 01/01 A2985 RMK AO2 SKY OBSCURED T00120012,M
OOA,2026-01-07 02:35,33.80,33.80,100.00,300.00,3.00,0.00,29.85,M,0.25,M,VV ,M,M,M,200.00,M,M,M,M,M,M,M,M,M,M,30.75,KOOA 070235Z AUTO 30003KT 1/4SM VV002 01/01 A2985 RMK AO2 T00100010,M
OOA,2026-01-07 02:55,34.00,34.00,100.00,290.00,5.00,0.00,29.86,M,0.25,M,VV ,M,M,M,0.00,M,M,M,M,M,M,M,M,M,M,28.77,KOOA 070255Z AUTO 29005KT M1/4SM VV000 01/01 A2986 RMK AO2 T00110011,M
OOA,2026-01-07 03:15,33.00,33.00,100.00,0.00,0.00,0.00,29.86,M,0.25,M,VV ,M,M,M,0.00,M,M,M,M,M,M,M,M,M,M,33.00,KOOA 070315Z AUTO 00000KT M1/4SM VV000 01/01 A2986 RMK AO2 T00060006,M
OOA,2026-01-07 03:35,33.00,33.00,100.00,0.00,0.00,0.00,29.86,M,0.25,M,VV ,M,M,M,0.00,M,M,M,M,M,M,M,M,M,M,33.00,KOOA 070335Z AUTO 00000KT M1/4SM VV000 01/01 A2986 RMK AO2 T00050005,M
OOA,2026-01-07 03:55,32.00,32.00,100.00,0.00,0.00,0.00,29.85,M,0.25,M,VV ,M,M,M,0.00,M,M,M,M,M,M,M,M,M,M,32.00,KOOA 070355Z AUTO 00000KT M1/4SM VV000 00/00 A2985 RMK AO2 T00000000,M
OOA,2026-01-07 04:15,31.60,31.60,100.00,0.00,0.00,0.00,29.85,M,0.50,M,VV ,M,M,M,500.00,M,M,M,M,M,M,M,M,M,M,31.60,KOOA 070415Z AUTO 00000KT 1/2SM VV005 00/00 A2985 RMK AO2 T10021002,M
OOA,2026-01-07 04:35,31.00,31.00,100.00,0.00,0.00,0.00,29.84,M,0.25,M,VV ,M,M,M,200.00,M,M,M,M,M,M,M,M,M,M,31.00,KOOA 070435Z AUTO 00000KT 1/4SM VV002 M01/M01 A2984 RMK AO2 T10061006,M
OOA,2026-01-07 04:55,30.20,30.20,100.00,0.00,0.00,0.00,29.84,M,0.50,M,VV ,M,M,M,500.00,M,M,M,M,M,M,M,M,M,M,30.20,KOOA 070455Z AUTO 00000KT 1/2SM VV005 M01/M01 A2984 RMK AO2 T10101010,M
OOA,2026-01-07 05:15,30.00,30.00,100.00,0.00,0.00,0.00,29.84,M,0.25,M,VV ,M,M,M,200.00,M,M,M,M,M,M,M,M,M,M,30.00,KOOA 070515Z AUTO 00000KT 1/4SM VV002 M01/M01 A2984 RMK AO2 T10111011,M
OOA,2026-01-07 05:35,30.60,30.40,99.19,0.00,0.00,0.00,29.85,M,0.25,M,VV ,M,M,M,200.00,M,M,M,M,M,M,M,M,M,M,30.60,KOOA 070535Z AUTO 00000KT 1/4SM VV002 M01/M01 A2985 RMK AO2 T10081009,M
OOA,2026-01-07 05:55,30.70,30.60,99.59,0.00,0.00,0.00,29.84,M,0.50,M,VV ,M,M,M,500.00,M,M,M,M,M,M,M,M,M,M,30.70,KOOA 070555Z AUTO 00000KT 1/2SM VV005 M01/M01 A2984 RMK AO2 T10071008 10027 21011 400581011,M
OOA,2026-01-07 06:15,32.00,32.00,100.00,0.00,0.00,0.00,29.84,M,2.00,M,CLR,M,M,M,M,M,M,M,M,M,M,M,M,M,M,32.00,KOOA 070615Z AUTO 00000KT 2SM CLR 00/00 A2984 RMK AO2 T00000000,M
OOA,2026-01-07 06:35,31.60,31.60,100.00,0.00,0.00,0.00,29.84,M,1.50,M,VV ,M,M,M,700.00,M,M,M,M,M,M,M,M,M,M,31.60,KOOA 070635Z AUTO 00000KT 1 1/2SM VV007 00/00 A2984 RMK AO2 T10021002,M
OOA,2026-01-07 06:55,31.00,31.00,100.00,0.00,0.00,0.00,29.84,M,3.00,M,CLR,M,M,M,M,M,M,M,M,M,M,M,M,M,M,31.00,KOOA 070655Z AUTO 00000KT 3SM CLR 00/00 A2984 RMK AO2 T10051005,M
OOA,2026-01-07 07:15,31.00,31.00,100.00,0.00,0.00,0.00,29.84,M,3.00,M,CLR,M,M,M,M,M,M,M,M,M,M,M,M,M,M,31.00,KOOA 070715Z AUTO 00000KT 3SM CLR 00/00 A2984 RMK AO2 T10051005,M
OOA,2026-01-07 07:35,31.60,31.60,100.00,0.00,0.00,0.00,29.83,M,3.00,M,CLR,M,M,M,M,M,M,M,M,M,M,M,M,M,M,31.60,KOOA 070735Z AUTO 00000KT 3SM CLR 00/00 A2983 RMK AO2 T10021002,M
OOA,2026-01-07 07:55,31.00,31.00,100.00,0.00,0.00,0.00,29.83,M,3.00,M,CLR,M,M,M,M,M,M,M,M,M,M,M,M,M,M,31.00,KOOA 070755Z AUTO 00000KT 3SM CLR 00/00 A2983 RMK AO2 T10051005,M
OOA,2026-01-07 08:15,30.40,30.20,99.19,0.00,0.00,0.00,29.84,M,5.00,M,CLR,M,M,M,M,M,M,M,M,M,M,M,M,M,M,30.40,KOOA 070815Z AUTO 00000KT 5SM CLR M01/M01 A2984 RMK AO2 T10091010,M
OOA,2026-01-07 08:35,30.40,30.20,99.19,0.00,0.00,0.00,29.85,M,5.00,M,CLR,M,M,M,M,M,M,M,M,M,M,M,M,M,M,30.40,KOOA 070835Z AUTO 00000KT 5SM CLR M01/M01 A2985 RMK AO2 T10091010,M
OOA,2026-01-07 08:55,30.00,29.70,98.78,0.00,0.00,0.00,29.85,M,7.00,M,CLR,M,M,M,M,M,M,M,M,M,M,M,M,M,M,30.00,KOOA 070855Z AUTO 00000KT 7SM CLR M01/M01 A2985 RMK AO2 T10121013,M
OOA,2026-01-07 09:15,30.00,29.70,98.78,0.00,0.00,0.00,29.84,M,7.00,M,CLR,M,M,M,M,M,M,M,M,M,M,M,M,M,M,30.00,KOOA 070915Z AUTO 00000KT 7SM CLR M01/M01 A2984 RMK AO2 T10121013,M
OOA,2026-01-07 09:35,30.20,30.20,100.00,0.00,0.00,0.00,29.84,M,5.00,M,CLR,M,M,M,M,M,M,M,M,M,M,M,M,M,M,30.20,KOOA 070935Z AUTO 00000KT 5SM CLR M01/M01 A2984 RMK AO2 T10101010,M
OOA,2026-01-07 09:55,29.30,29.30,100.00,0.00,0.00,0.00,29.84,M,7.00,M,CLR,M,M,M,M,M,M,M,M,M,M,M,M,M,M,29.30,KOOA 070955Z AUTO 00000KT 7SM CLR M01/M01 A2984 RMK AO2 T10151015,M
OOA,2026-01-07 10:15,29.30,29.30,100.00,0.00,0.00,0.00,29.84,M,7.00,M,CLR,M,M,M,M,M,M,M,M,M,M,M,M,M,M,29.30,KOOA 071015Z AUTO 00000KT 7SM CLR M01/M01 A2984 RMK AO2 T10151015,M
OOA,2026-01-07 10:35,29.30,29.30,100.00,0.00,0.00,0.00,29.83,M,5.00,M,CLR,M,M,M,M,M,M,M,M,M,M,M,M,M,M,29.30,KOOA 071035Z AUTO 00000KT 5SM CLR M01/M01 A2983 RMK AO2 T10151015,M
OOA,2026-01-07 10:55,30.00,30.00,100.00,0.00,0.00,0.00,29.83,M,1.25,M,VV ,M,M,M,700.00,M,M,M,M,M,M,M,M,M,M,30.00,KOOA 071055Z AUTO 00000KT 1 1/4SM VV007 M01/M01 A2983 RMK AO2 T10111012,M
OOA,2026-01-07 11:15,29.70,29.30,98.38,0.00,0.00,0.00,29.84,M,0.75,M,VV ,M,M,M,500.00,M,M,M,M,M,M,M,M,M,M,29.70,KOOA 071115Z AUTO 00000KT 3/4SM VV005 M01/M01 A2984 RMK AO2 T10131015,M
OOA,2026-01-07 11:35,29.00,29.00,100.00,0.00,0.00,0.00,29.85,M,0.75,M,VV ,M,M,M,500.00,M,M,M,M,M,M,M,M,M,M,29.00,KOOA 071135Z AUTO 00000KT 3/4SM VV005 M02/M02 A2985 RMK AO2 T10161017,M
OOA,2026-01-07 11:55,28.80,28.40,98.37,0.00,0.00,0.00,29.85,M,1.75,M,VV ,M,M,M,700.00,M,M,M,M,M,M,M,M,M,M,28.80,KOOA 071155Z AUTO 00000KT 1 3/4SM VV007 M02/M02 A2985 RMK AO2 T10181020 10000 21018,M
OOA,2026-01-07 12:15,28.60,28.40,99.18,0.00,0.00,0.00,29.85,M,4.00,M,CLR,M,M,M,M,M,M,M,M,M,M,M,M,M,M,28.60,KOOA 071215Z AUTO 00000KT 4SM CLR M02/M02 A2985 RMK AO2 T10191020,M
OOA,2026-01-07 12:35,29.00,28.80,99.18,0.00,0.00,0.00,29.86,M,5.00,M,CLR,M,M,M,M,M,M,M,M,M,M,M,M,M,M,29.00,KOOA 071235Z AUTO 00000KT 5SM CLR M02/M02 A2986 RMK AO2 T10171018,M
OOA,2026-01-07 12:55,29.30,29.00,98.78,0.00,0.00,0.00,29.86,M,5.00,M,CLR,M,M,M,M,M,M,M,M,M,M,M,M,M,M,29.30,KOOA 071255Z AUTO 00000KT 5SM CLR M01/M02 A2986 RMK AO2 T10151017,M
OOA,2026-01-07 13:15,29.00,28.60,98.38,0.00,0.00,0.00,29.86,M,5.00,M,CLR,M,M,M,M,M,M,M,M,M,M,M,M,M,M,29.00,KOOA 071315Z AUTO 00000KT 5SM CLR M02/M02 A2986 RMK AO2 T10171019,M
OOA,2026-01-07 13:35,29.30,29.30,100.00,0.00,0.00,0.00,29.85,M,4.00,M,CLR,M,M,M,M,M,M,M,M,M,M,M,M,M,M,29.30,KOOA 071335Z AUTO 00000KT 4SM CLR M01/M01 A2985 RMK AO2 T10151015,M
OOA,2026-01-07 13:55,30.40,30.20,99.19,0.00,0.00,0.00,29.86,M,4.00,M,CLR,M,M,M,M,M,M,M,M,M,M,M,M,M,M,30.40,KOOA 071355Z AUTO 00000KT 4SM CLR M01/M01 A2986 RMK AO2 T10091010,M
OOA,2026-01-07 14:20,31.00,31.00,100.00,0.00,0.00,0.00,29.84,M,4.00,M,CLR,M,M,M,M,M,M,M,M,M,M,M,M,M,M,31.00,KOOA 071420Z AUTO 00000KT 4SM CLR 00/00 A2984 RMK AO2 T10051005,M
OOA,2026-01-07 15:35,34.00,34.00,100.00,140.00,10.00,0.00,29.84,M,5.00,M,CLR,M,M,M,M,M,M,M,M,M,M,M,M,M,M,25.48,KOOA 071535Z AUTO 14010KT 5SM CLR 01/01 A2984 RMK AO2 T00120012,M
OOA,2026-01-07 16:15,37.40,37.40,100.00,150.00,10.00,0.00,29.84,M,7.00,M,CLR,M,M,M,M,M,M,M,M,M,M,M,M,M,M,29.74,KOOA 071615Z AUTO 15010KT 7SM CLR 03/03 A2984 RMK AO2 T00300030,M
OOA,2026-01-07 16:35,40.30,40.00,98.84,150.00,8.00,0.00,29.83,M,10.00,M,CLR,M,M,M,M,M,M,M,M,M,M,M,M,M,M,34.34,KOOA 071635Z AUTO 15008KT 10SM CLR 05/05 A2983 RMK AO2 T00460045,M
OOA,2026-01-07 16:55,43.30,41.40,92.95,150.00,8.00,0.00,29.83,M,10.00,M,CLR,M,M,M,M,M,M,M,M,M,M,M,M,M,M,38.03,KOOA 071655Z AUTO 15008KT 10SM CLR 06/05 A2983 RMK AO2 T00630052,M
OOA,2026-01-07 17:15,46.40,40.00,78.24,160.00,8.00,0.00,29.82,M,10.00,M,CLR,M,M,M,M,M,M,M,M,M,M,M,M,M,M,41.85,KOOA 071715Z AUTO 16008KT 10SM CLR 08/05 A2982 RMK AO2 T00800045,M
OOA,2026-01-07 17:35,49.50,41.00,72.40,160.00,9.00,0.00,29.82,M,10.00,M,CLR,M,M,M,M,M,M,M,M,M,M,M,M,M,M,45.27,KOOA 071735Z AUTO 16009KT 10SM CLR 10/05 A2982 RMK AO2 T00970049,M
OOA,2026-01-07 17:55,51.40,40.30,65.66,170.00,9.00,0.00,29.81,M,10.00,M,CLR,M,M,M,M,M,M,M,M,M,M,M,M,M,M,51.40,KOOA 071755Z AUTO 17009KT 10SM CLR 11/05 A2981 RMK AO2 T01080046 10108 21020,M
OOA,2026-01-07 18:15,53.60,40.50,61.03,180.00,9.00,0.00,29.80,M,10.00,M,CLR,M,M,M,M,M,M,M,M,M,M,M,M,M,M,53.60,KOOA 071815Z AUTO 18009KT 10SM CLR 12/05 A2980 RMK AO2 T01200047,M
OOA,2026-01-07 18:35,56.50,39.70,53.24,200.00,11.00,0.00,29.79,M,10.00,M,CLR,M,M,M,M,M,M,M,M,M,M,M,M,M,M,56.50,KOOA 071835Z AUTO 20011KT 10SM CLR 14/04 A2979 RMK AO2 T01360043,M
OOA,2026-01-07 18:55,58.00,36.70,44.84,220.00,12.00,0.00,29.78,M,10.00,M,CLR,M,M,M,M,M,M,M,M,M,M,M,M,M,M,58.00,KOOA 071855Z AUTO 22012KT 10SM CLR 15/03 A2978 RMK AO2 T01450026,M
OOA,2026-01-07 19:15,59.00,37.00,43.78,220.00,12.00,0.00,29.77,M,10.00,M,CLR,M,M,M,M,M,M,M,M,M,M,M,M,M,M,59.00,KOOA 071915Z AUTO 22012KT 10SM CLR 15/03 A2977 RMK AO2 T01500028,M
OOA,2026-01-07 19:35,59.00,36.50,42.92,220.00,13.00,0.00,29.77,M,10.00,M,CLR,M,M,M,M,M,M,M,M,M,M,M,M,M,M,59.00,KOOA 071935Z AUTO 22013KT 10SM CLR 15/03 A2977 RMK AO2 T01500025,M
OOA,2026-01-07 19:55,59.40,37.60,44.19,230.00,12.00,0.00,29.77,M,10.00,M,CLR,M,M,M,M,M,M,M,M,M,M,M,M,M,M,59.40,KOOA 071955Z AUTO 23012KT 10SM CLR 15/03 A2977 RMK AO2 T01520031,M
OOA,2026-01-07 20:15,60.00,37.00,42.24,230.00,14.00,0.00,29.76,M,10.00,M,CLR,M,M,M,M,M,M,M,M,M,M,M,M,M,M,60.00,KOOA 072015Z AUTO 23014KT 10SM CLR 16/03 A2976 RMK AO2 T01560028,M
OOA,2026-01-07 20:35,60.00,36.50,41.42,220.00,11.00,0.00,29.76,M,10.00,M,CLR,M,M,M,M,M,M,M,M,M,M,M,M,M,M,60.00,KOOA 072035Z AUTO 22011KT 10SM CLR 16/03 A2976 RMK AO2 T01560025,M
OOA,2026-01-07 20:55,60.00,37.20,42.58,230.00,12.00,0.00,29.76,M,10.00,M,CLR,M,M,M,M,M,M,M,M,M,M,M,M,M,M,60.00,KOOA 072055Z AUTO 23012KT 10SM CLR 16/03 A2976 RMK AO2 T01550029,M
OOA,2026-01-07 21:15,60.00,38.00,43.94,220.00,9.00,0.00,29.75,M,10.00,M,CLR,M,M,M,M,M,M,M,M,M,M,M,M,M,M,60.00,KOOA 072115Z AUTO 22009KT 10SM CLR 16/03 A2975 RMK AO2 T01550033,M
OOA,2026-01-07 21:35,59.50,40.30,48.93,210.00,6.00,0.00,29.75,M,10.00,M,CLR,M,M,M,M,M,M,M,M,M,M,M,M,M,M,59.50,KOOA 072135Z AUTO 21006KT 10SM CLR 15/05 A2975 RMK AO2 T01530046,M
OOA,2026-01-07 21:55,59.00,40.50,50.20,170.00,3.00,0.00,29.76,M,10.00,M,CLR,M,M,M,M,M,M,M,M,M,M,M,M,M,M,59.00,KOOA 072155Z AUTO 17003KT 10SM CLR 15/05 A2976 RMK AO2 T01490047,M
OOA,2026-01-07 22:30,54.70,41.40,60.71,160.00,7.00,0.00,29.76,M,10.00,M,CLR,M,M,M,M,M,M,M,M,M,M,M,M,M,M,54.70,KOOA 072230Z AUTO 16007KT 10SM CLR 13/05 A2976 RMK AO2 T01260052,M
OOA,2026-01-07 22:55,50.70,38.70,63.31,160.00,10.00,0.00,29.75,M,10.00,M,CLR,M,M,M,M,M,M,M,M,M,M,M,M,M,M,50.70,KOOA 072255Z AUTO 16010KT 10SM CLR 10/04 A2975 RMK AO2 T01040037,M
OOA,2026-01-07 23:15,51.00,36.70,57.88,150.00,7.00,0.00,29.75,M,10.00,M,CLR,M,M,M,M,M,M,M,M,M,M,M,M,M,M,51.00,KOOA 072315Z AUTO 15007KT 10SM CLR 11/03 A2975 RMK AO2 T01060026,M
OOA,2026-01-07 23:35,48.00,36.00,62.96,150.00,9.00,0.00,29.75,M,10.00,M,CLR,M,M,M,M,M,M,M,M,M,M,M,M,M,M,43.41,KOOA 072335Z AUTO 15009KT 10SM CLR 09/02 A2975 RMK AO2 T00890022,M
OOA,2026-01-08 00:00,47.30,35.20,62.62,160.00,9.00,0.00,29.76,M,10.00,M,CLR,M,M,M,M,M,M,M,M,M,M,M,M,M,M,42.54,KOOA 080000Z AUTO 16009KT 10SM CLR 09/02 A2976 RMK AO2 T00850018,M
OOA,2026-01-08 00:15,46.60,34.70,63.02,160.00,11.00,0.00,29.76,M,10.00,M,CLR,M,M,M,M,M,M,M,M,M,M,M,M,M,M,40.92,KOOA 080015Z AUTO 16011KT 10SM CLR 08/02 A2976 RMK AO2 T00810015,M
OOA,2026-01-08 00:35,45.00,34.30,65.90,160.00,8.00,0.00,29.76,M,10.00,M,CLR,M,M,M,M,M,M,M,M,M,M,M,M,M,M,40.13,KOOA 080035Z AUTO 16008KT 10SM CLR 07/01 A2976 RMK AO2 T00720013,M
OOA,2026-01-08 00:55,45.00,33.80,64.60,170.00,7.00,0.00,29.77,M,10.00,M,CLR,M,M,M,M,M,M,M,M,M,M,M,M,M,M,40.63,KOOA 080055Z AUTO 17007KT 10SM CLR 07/01 A2977 RMK AO2 T00730010,M
OOA,2026-01-08 01:15,45.00,33.00,62.56,170.00,7.00,0.00,29.77,M,10.00,M,CLR,M,M,M,M,M,M,M,M,M,M,M,M,M,M,40.63,KOOA 080115Z AUTO 17007KT 10SM CLR 07/01 A2977 RMK AO2 T00730006,M
OOA,2026-01-08 01:35,46.00,32.70,59.51,160.00,6.00,0.00,29.77,M,10.00,M,CLR,M,M,M,M,M,M,M,M,M,M,M,M,M,M,42.39,KOOA 080135Z AUTO 16006KT 10SM CLR 08/00 A2977 RMK AO2 T00770004,M
OOA,2026-01-08 01:55,44.80,32.40,61.54,130.00,6.00,0.00,29.77,M,10.00,M,CLR,M,M,M,M,M,M,M,M,M,M,M,M,M,M,40.95,KOOA 080155Z AUTO 13006KT 10SM CLR 07/00 A2977 RMK AO2 T00710002,M
OOA,2026-01-08 02:15,46.00,32.00,57.85,160.00,7.00,0.00,29.77,M,10.00,M,CLR,M,M,M,M,M,M,M,M,M,M,M,M,M,M,41.84,KOOA 080215Z AUTO 16007KT 10SM CLR 08/00 A2977 RMK AO2 T00780000,M
OOA,2026-01-08 02:35,42.40,32.00,66.38,150.00,9.00,0.00,29.76,M,10.00,M,CLR,M,M,M,M,M,M,M,M,M,M,M,M,M,M,36.45,KOOA 080235Z AUTO 15009KT 10SM CLR 06/00 A2976 RMK AO2 T00580000,M
OOA,2026-01-08 02:55,41.00,32.00,70.06,160.00,7.00,0.00,29.76,M,10.00,M,CLR,M,M,M,M,M,M,M,M,M,M,M,M,M,M,35.75,KOOA 080255Z AUTO 16007KT 10SM CLR 05/00 A2976 RMK AO2 T00510000,M
OOA,2026-01-08 03:15,41.00,32.00,70.06,160.00,8.00,0.00,29.76,M,10.00,M,CLR,M,M,M,M,M,M,M,M,M,M,M,M,M,M,35.20,KOOA 080315Z AUTO 16008KT 10SM CLR 05/00 A2976 RMK AO2 T00500001,M
OOA,2026-01-08 03:35,41.00,32.00,70.06,160.00,7.00,0.00,29.76,M,10.00,M,CLR,M,M,M,M,M,M,M,M,M,M,M,M,M,M,35.75,KOOA 080335Z AUTO 16007KT 10SM CLR 05/00 A2976 RMK AO2 T00490000,M
OOA,2026-01-08 03:55,39.20,32.00,75.14,160.00,8.00,0.00,29.76,M,10.00,M,CLR,M,M,M,M,M,M,M,M,M,M,M,M,M,M,32.98,KOOA 080355Z AUTO 16008KT 10SM CLR 04/00 A2976 RMK AO2 T00401001,M
OOA,2026-01-08 04:15,38.30,32.00,77.84,160.00,8.00,0.00,29.76,M,10.00,M,CLR,M,M,M,M,M,M,M,M,M,M,M,M,M,M,31.87,KOOA 080415Z AUTO 16008KT 10SM CLR 04/00 A2976 RMK AO2 T00350000,M
OOA,2026-01-08 04:35,38.30,32.00,77.84,160.00,9.00,0.00,29.76,M,10.00,M,CLR,M,M,M,M,M,M,M,M,M,M,M,M,M,M,31.35,KOOA 080435Z AUTO 16009KT 10SM CLR 04/00 A2976 RMK AO2 T00350000,M
OOA,2026-01-08 04:55,40.30,32.40,73.16,160.00,10.00,0.00,29.76,M,10.00,M,CLR,M,M,M,M,M,M,M,M,M,M,M,M,M,M,33.38,KOOA 080455Z AUTO 16010KT 10SM CLR 05/00 A2976 RMK AO2 T00460002,M
OOA,2026-01-08 05:15,41.00,32.40,71.20,160.00,11.00,0.00,29.75,M,10.00,M,CLR,M,M,M,M,M,M,M,M,M,M,M,M,M,M,33.84,KOOA 080515Z AUTO 16011KT 10SM CLR 05/00 A2975 RMK AO2 T00500002,M
OOA,2026-01-08 05:35,40.50,32.40,72.60,170.00,10.00,0.00,29.75,M,10.00,M,CLR,M,M,M,M,M,M,M,M,M,M,M,M,M,M,33.63,KOOA 080535Z AUTO 17010KT 10SM CLR 05/00 A2975 RMK AO2 T00470002,M
OOA,2026-01-08 05:55,39.70,32.50,75.19,170.00,11.00,0.00,29.75,M,10.00,M,CLR,M,M,M,M,M,M,M,M,M,M,M,M,M,M,32.20,KOOA 080555Z AUTO 17011KT 10SM CLR 04/00 A2975 RMK AO2 T00430003 10086 20032 401561020,M
OOA,2026-01-08 06:15,41.00,33.00,72.94,170.00,11.00,0.00,29.74,M,10.00,M,CLR,M,M,M,M,M,M,M,M,M,M,M,M,M,M,33.84,KOOA 080615Z AUTO 17011KT 10SM CLR 05/01 A2974 RMK AO2 T00490005,M
OOA,2026-01-08 06:35,40.30,33.00,74.95,170.00,11.00,0.00,29.74,M,10.00,M,CLR,M,M,M,M,M,M,M,M,M,M,M,M,M,M,32.96,KOOA 080635Z AUTO 17011KT 10SM CLR 05/01 A2974 RMK AO2 T00460005,M
OOA,2026-01-08 06:55,40.00,33.00,75.83,160.00,10.00,0.00,29.73,M,10.00,M,CLR,M,M,M,M,M,M,M,M,M,M,M,M,M,M,33.00,KOOA 080655Z AUTO 16010KT 10SM CLR 05/01 A2973 RMK AO2 T00450005,M
OOA,2026-01-08 07:15,41.00,33.00,72.94,160.00,10.00,0.00,29.73,M,10.00,M,CLR,M,M,M,M,M,M,M,M,M,M,M,M,M,M,34.25,KOOA 080715Z AUTO 16010KT 10SM CLR 05/01 A2973 RMK AO2 T00500005,M
OOA,2026-01-08 07:35,41.00,33.00,72.94,160.00,10.00,0.00,29.73,M,10.00,M,CLR,M,M,M,M,M,M,M,M,M,M,M,M,M,M,34.25,KOOA 080735Z AUTO 16010KT 10SM CLR 05/01 A2973 RMK AO2 T00490005,M
OOA,2026-01-08 07:55,39.40,33.00,77.62,160.00,10.00,0.00,29.73,M,10.00,M,CLR,M,M,M,M,M,M,M,M,M,M,M,M,M,M,32.25,KOOA 080755Z AUTO 16010KT 10SM CLR 04/01 A2973 RMK AO2 T00410005,M
OOA,2026-01-08 08:15,40.30,33.30,75.86,160.00,10.00,0.00,29.73,M,10.00,M,CLR,M,M,M,M,M,M,M,M,M,M,M,M,M,M,33.38,KOOA 080815Z AUTO 16010KT 10SM CLR 05/01 A2973 RMK AO2 T00460007,M
OOA,2026-01-08 08:35,40.30,33.30,75.86,160.00,10.00,0.00,29.73,M,10.00,M,CLR,M,M,M,M,M,M,M,M,M,M,M,M,M,M,33.38,KOOA 080835Z AUTO 16010KT 10SM CLR 05/01 A2973 RMK AO2 T00460007,M
OOA,2026-01-08 08:55,41.00,33.80,75.32,150.00,10.00,0.00,29.72,M,10.00,M,CLR,M,M,M,M,M,M,M,M,M,M,M,M,M,M,34.25,KOOA 080855Z AUTO 15010KT 10SM CLR 05/01 A2972 RMK AO2 T00500010,M
OOA,2026-01-08 09:15,41.00,33.80,75.32,150.00,10.00,0.00,29.72,M,10.00,M,CLR,M,M,M,M,M,M,M,M,M,M,M,M,M,M,34.25,KOOA 080915Z AUTO 15010KT 10SM CLR 05/01 A2972 RMK AO2 T00510010,M
OOA,2026-01-08 09:35,40.60,34.00,77.11,160.00,9.00,0.00,29.71,M,10.00,M,CLR,M,M,M,M,M,M,M,M,M,M,M,M,M,M,34.21,KOOA 080935Z AUTO 16009KT 10SM CLR 05/01 A2971 RMK AO2 T00480011,M
OOA,2026-01-08 09:55,41.00,34.30,76.84,150.00,9.00,0.00,29.70,M,10.00,M,CLR,M,M,M,M,M,M,M,M,M,M,M,M,M,M,34.70,KOOA 080955Z AUTO 15009KT 10SM CLR 05/01 A2970 RMK AO2 T00510013,M
OOA,2026-01-08 10:15,41.00,34.00,75.92,150.00,9.00,0.00,29.69,M,10.00,M,CLR,M,M,M,M,M,M,M,M,M,M,M,M,M,M,34.70,KOOA 081015Z AUTO 15009KT 10SM CLR 05/01 A2969 RMK AO2 T00490012,M
OOA,2026-01-08 10:35,39.60,34.00,80.17,150.00,9.00,0.00,29.69,M,10.00,M,CLR,M,M,M,M,M,M,M,M,M,M,M,M,M,M,32.96,KOOA 081035Z AUTO 15009KT 10SM CLR 04/01 A2969 RMK AO2 T00420011,M
OOA,2026-01-08 10:55,39.70,34.30,80.82,150.00,8.00,0.00,29.69,M,10.00,M,CLR,M,M,M,M,M,M,M,M,M,M,M,M,M,M,33.60,KOOA 081055Z AUTO 15008KT 10SM CLR 04/01 A2969 RMK AO2 T00430013,M
OOA,2026-01-08 11:15,40.00,34.70,81.17,150.00,7.00,0.00,29.69,M,10.00,M,CLR,M,M,M,M,M,M,M,M,M,M,M,M,M,M,34.53,KOOA 081115Z AUTO 15007KT 10SM CLR 04/02 A2969 RMK AO2 T00440015,M
OOA,2026-01-08 11:35,40.00,35.00,82.14,140.00,6.00,0.00,29.68,M,10.00,M,CLR,M,M,M,M,M,M,M,M,M,M,M,M,M,M,35.17,KOOA 081135Z AUTO 14006KT 10SM CLR 05/02 A2968 RMK AO2 T00450016,M
OOA,2026-01-08 11:55,40.00,35.40,83.46,150.00,7.00,0.00,29.68,M,10.00,M,CLR,M,M,M,M,M,M,M,M,M,M,M,M,M,M,34.53,KOOA 081155Z AUTO 15007KT 10SM CLR 05/02 A2968 RMK AO2 T00450019 10052 20041,M
OOA,2026-01-08 12:15,40.60,35.60,82.18,140.00,7.00,0.00,29.67,M,10.00,M,SCT,M,M,M,12000.00,M,M,M,M,M,M,M,M,M,M,35.26,KOOA 081215Z AUTO 14007KT 10SM SCT120 05/02 A2967 RMK AO2 T00480020,M
OOA,2026-01-08 12:35,41.70,36.00,80.02,130.00,7.00,0.00,29.67,M,10.00,M,SCT,M,M,M,12000.00,M,M,M,M,M,M,M,M,M,M,36.60,KOOA 081235Z AUTO 13007KT 10SM SCT120 05/02 A2967 RMK AO2 T00540023,M
OOA,2026-01-08 12:55,41.70,36.30,80.97,130.00,5.00,0.00,29.66,M,10.00,M,CLR,M,M,M,M,M,M,M,M,M,M,M,M,M,M,37.92,KOOA 081255Z AUTO 13005KT 10SM CLR 05/02 A2966 RMK AO2 T00540024,M
OOA,2026-01-08 13:15,42.00,36.70,81.32,140.00,8.00,0.00,29.65,M,10.00,M,CLR,M,M,M,M,M,M,M,M,M,M,M,M,M,M,36.43,KOOA 081315Z AUTO 14008KT 10SM CLR 06/03 A2965 RMK AO2 T00550026,M
OOA,2026-01-08 13:35,41.00,37.00,85.53,140.00,8.00,0.00,29.66,M,10.00,M,CLR,M,M,M,M,M,M,M,M,M,M,M,M,M,M,35.20,KOOA 081335Z AUTO 14008KT 10SM CLR 05/03 A2966 RMK AO2 T00510027,M
OOA,2026-01-08 13:55,41.00,37.00,85.53,140.00,7.00,0.00,29.65,M,10.00,M,CLR,M,M,M,M,M,M,M,M,M,M,M,M,M,M,35.75,KOOA 081355Z AUTO 14007KT 10SM CLR 05/03 A2965 RMK AO2 T00500028,M
OOA,2026-01-08 14:15,41.70,37.40,84.57,140.00,6.00,0.00,29.65,M,10.00,M,CLR,M,M,M,M,M,M,M,M,M,M,M,M,M,M,37.21,KOOA 081415Z AUTO 14006KT 10SM CLR 05/03 A2965 RMK AO2 T00540030,M
OOA,2026-01-08 14:35,42.80,38.00,82.99,140.00,7.00,0.00,29.65,M,10.00,M,CLR,M,M,M,M,M,M,M,M,M,M,M,M,M,M,37.94,KOOA 081435Z AUTO 14007KT 10SM CLR 06/03 A2965 RMK AO2 T00600033,M
OOA,2026-01-08 14:55,43.30,39.00,84.67,140.00,6.00,0.00,29.65,M,10.00,M,CLR,M,M,M,M,M,M,M,M,M,M,M,M,M,M,39.14,KOOA 081455Z AUTO 14006KT 10SM CLR 06/04 A2965 RMK AO2 T00630038,M
OOA,2026-01-08 15:15,44.60,39.00,80.57,120.00,5.00,0.00,29.64,M,10.00,M,CLR,M,M,M,M,M,M,M,M,M,M,M,M,M,M,41.36,KOOA 081515Z AUTO 12005KT 10SM CLR 07/04 A2964 RMK AO2 T00700038,M
OOA,2026-01-08 15:35,44.80,39.60,81.85,110.00,8.00,0.00,29.63,M,10.00,M,CLR,M,M,M,M,M,M,M,M,M,M,M,M,M,M,39.88,KOOA 081535Z AUTO 11008KT 10SM CLR 07/04 A2963 RMK AO2 T00710042,M
OOA,2026-01-08 15:55,47.00,40.50,77.99,130.00,8.00,0.00,29.63,M,10.00,M,CLR,M,M,M,M,M,M,M,M,M,M,M,M,M,M,42.59,KOOA 081555Z AUTO 13008KT 10SM CLR 08/05 A2963 RMK AO2 T00830047,M
OOA,2026-01-08 16:15,49.00,41.70,75.79,130.00,8.00,0.00,29.62,M,10.00,M,CLR,M,M,M,M,M,M,M,M,M,M,M,M,M,M,45.05,KOOA 081615Z AUTO 13008KT 10SM CLR 10/05 A2962 RMK AO2 T00950054,M
OOA,2026-01-08 16:35,49.30,42.00,75.82,140.00,8.00,0.00,29.62,M,10.00,M,CLR,M,M,M,M,M,M,M,M,M,M,M,M,M,M,45.42,KOOA 081635Z AUTO 14008KT 10SM CLR 10/06 A2962 RMK AO2 T00960056,M
OOA,2026-01-08 16:55,49.30,42.40,76.99,130.00,9.00,0.00,29.60,M,10.00,M,SCT,SCT,M,M,8500.00,12000.00,M,M,M,M,M,M,M,M,M,45.03,KOOA 081655Z AUTO 13009KT 10SM SCT085 SCT120 10/06 A2960 RMK AO2 T00960058,M
OOA,2026-01-08 17:15,48.70,43.70,82.77,140.00,8.00,0.00,29.59,M,10.00,M,SCT,M,M,M,8000.00,M,M,M,M,M,M,M,M,M,M,44.68,KOOA 081715Z AUTO 14008KT 10SM SCT080 09/07 A2959 RMK AO2 T00930065,M
OOA,2026-01-08 17:35,49.00,45.00,86.00,140.00,8.00,0.00,29.58,M,7.00,M,CLR,M,M,M,M,M,M,M,M,M,M,M,M,M,M,45.05,KOOA 081735Z AUTO 14008KT 7SM CLR 10/07 A2958 RMK AO2 T00950072,M
OOA,2026-01-08 17:55,49.50,46.00,87.68,140.00,5.00,0.00,29.56,M,4.00,M,CLR,M,M,M,M,M,M,M,M,M,M,M,M,M,M,47.18,KOOA 081755Z AUTO 14005KT 4SM CLR 10/08 A2956 RMK AO2 T00970078 10097 20045,M
OOA,2026-01-08 18:15,49.50,47.30,92.09,130.00,5.00,0.03,29.53,M,2.00,M,M,M,M,M,M,M,M,M,M,M,M,M,M,M,M,47.18,KOOA 081815Z AUTO 13005KT 2SM 10/09 A2953 RMK AO2 SKY OBSCURED P0003 T00970085,M
OOA,2026-01-08 18:35,49.50,48.00,94.54,110.00,5.00,0.07,29.50,M,2.50,M,SCT,BKN,OVC,M,3700.00,4600.00,6500.00,M,M,M,M,M,M,M,M,47.18,KOOA 081835Z AUTO 11005KT 2 1/2SM SCT037 BKN046 OVC065 10/09 A2950 RMK AO2 P0007 T00970088,M
OOA,2026-01-08 18:55,49.50,48.40,95.97,120.00,8.00,0.13,29.49,M,2.00,M,SCT,BKN,OVC,M,2700.00,3200.00,4000.00,M,M,M,M,M,M,M,M,45.67,KOOA 081855Z AUTO 12008KT 2SM SCT027 BKN032 OVC040 10/09 A2949 RMK AO2 P0013 T00970091,M
OOA,2026-01-08 19:15,49.30,48.60,97.42,110.00,9.00,0.03,29.45,M,2.50,M,BKN,BKN,OVC,M,2700.00,3400.00,4000.00,M,M,M,M,M,M,M,M,45.03,KOOA 081915Z AUTO 11009KT 2 1/2SM BKN027 BKN034 OVC040 10/09 A2945 RMK AO2 P0003 T00960092,M
OOA,2026-01-08 19:35,49.50,48.70,97.06,100.00,11.00,0.11,29.42,M,1.75,M,SCT,BKN,BKN,M,2300.00,3000.00,4100.00,M,M,M,M,M,M,M,M,44.58,KOOA 081935Z AUTO 10011KT 1 3/4SM SCT023 BKN030 BKN041 10/09 A2942 RMK AO2 P0011 T00970093,M
OOA,2026-01-08 19:55,50.00,49.00,96.34,100.00,13.00,0.22,29.38,M,1.25,M,VV ,M,M,M,700.00,M,M,M,M,M,M,M,M,M,M,50.00,KOOA 081955Z AUTO 10013KT 1 1/4SM VV007 10/10 A2938 RMK AO2 P0022 T01000095,M
OOA,2026-01-08 20:15,50.00,49.30,97.43,110.00,14.00,0.15,29.36,M,1.00,21.00,VV ,M,M,M,700.00,M,M,M,M,M,M,M,M,M,M,50.00,KOOA 082015Z AUTO 11014G21KT 1SM VV007 10/10 A2936 RMK AO2 P0015 T01000096,M
OOA,2026-01-08 20:35,51.00,50.00,96.36,120.00,16.00,0.20,29.34,M,2.50,M,M,M,M,M,M,M,M,M,M,M,M,M,M,M,M,51.00,KOOA 082035Z AUTO 12016KT 2 1/2SM 11/10 A2934 RMK AO2 SKY OBSCURED P0020 T01050100,M
OOA,2026-01-08 20:55,51.60,51.00,97.81,150.00,10.00,0.29,29.34,M,1.00,M,BKN,M,M,M,1100.00,M,M,M,M,M,M,M,M,M,M,51.60,KOOA 082055Z AUTO 15010KT 1SM BKN011 11/11 A2934 RMK AO2 P0029 60065 T01090105,M
OOA,2026-01-08 21:15,52.30,51.80,98.17,160.00,11.00,0.00,29.32,M,4.00,M,CLR,M,M,M,M,M,M,M,M,M,M,M,M,M,M,52.30,KOOA 082115Z AUTO 16011KT 4SM CLR 11/11 A2932 RMK AO2 T01130110,M
OOA,2026-01-08 21:35,53.60,52.70,96.75,170.00,11.00,0.00,29.31,M,5.00,M,CLR,M,M,M,M,M,M,M,M,M,M,M,M,M,M,53.60,KOOA 082135Z AUTO 17011KT 5SM CLR 12/12 A2931 RMK AO2 T01200115,M
OOA,2026-01-08 21:55,54.00,53.20,97.11,160.00,9.00,0.00,29.29,M,5.00,M,CLR,M,M,M,M,M,M,M,M,M,M,M,M,M,M,54.00,KOOA 082155Z AUTO 16009KT 5SM CLR 12/12 A2929 RMK AO2 T01230118,M
OOA,2026-01-08 22:15,56.00,55.00,96.44,170.00,12.00,0.01,29.28,M,4.00,M,CLR,M,M,M,M,M,M,M,M,M,M,M,M,M,M,56.00,KOOA 082215Z AUTO 17012KT 4SM CLR 13/13 A2928 RMK AO2 P0001 T01330128,M
OOA,2026-01-08 22:35,57.20,56.30,96.80,160.00,15.00,0.01,29.26,M,5.00,M,CLR,M,M,M,M,M,M,M,M,M,M,M,M,M,M,57.20,KOOA 082235Z AUTO 16015KT 5SM CLR 14/14 A2926 RMK AO2 P0001 T01400135,M
OOA,2026-01-08 22:55,58.00,57.00,96.47,190.00,16.00,0.01,29.27,M,7.00,24.00,CLR,M,M,M,M,M,M,M,M,M,M,M,M,M,M,58.00,KOOA 082255Z AUTO 19016G24KT 7SM CLR 14/14 A2927 RMK AO2 P0001 T01440139,M
OOA,2026-01-08 23:15,58.00,57.20,97.16,180.00,14.00,0.00,29.27,M,7.00,18.00,CLR,M,M,M,M,M,M,M,M,M,M,M,M,M,M,58.00,KOOA 082315Z AUTO 18014G18KT 7SM CLR 15/14 A2927 RMK AO2 T01450140,M
OOA,2026-01-08 23:35,58.00,57.00,96.47,180.00,15.00,0.00,29.26,M,7.00,M,CLR,M,M,M,M,M,M,M,M,M,M,M,M,M,M,58.00,KOOA 082335Z AUTO 18015KT 7SM CLR 14/14 A2926 RMK AO2 T01440139,M
OOA,2026-01-08 23:55,58.00,57.20,97.16,180.00,15.00,0.00,29.26,M,10.00,M,CLR,M,M,M,M,M,M,M,M,M,M,M,M,M,M,58.00,KOOA 082355Z AUTO 18015KT 10SM CLR 15/14 A2926 RMK AO2 60066 T01450140 10147 20096,M
OOA,2026-01-09 00:15,58.00,57.00,96.47,190.00,12.00,0.00,29.26,M,10.00,M,CLR,M,M,M,M,M,M,M,M,M,M,M,M,M,M,58.00,KOOA 090015Z AUTO 19012KT 10SM CLR 14/14 A2926 RMK AO2 T01440139,M
OOA,2026-01-09 00:35,57.70,56.70,96.46,180.00,16.00,0.00,29.26,M,10.00,M,CLR,M,M,M,M,M,M,M,M,M,M,M,M,M,M,57.70,KOOA 090035Z AUTO 18016KT 10SM CLR 14/14 A2926 RMK AO2 T01430137,M
OOA,2026-01-09 00:55,58.00,57.20,97.16,190.00,16.00,0.00,29.26,M,7.00,M,SCT,SCT,M,M,7000.00,8000.00,M,M,M,M,M,M,M,M,M,58.00,KOOA 090055Z AUTO 19016KT 7SM SCT070 SCT080 15/14 A2926 RMK AO2 T01450140,M
OOA,2026-01-09 01:15,58.50,57.40,96.13,200.00,22.00,0.00,29.26,M,10.00,27.00,SCT,SCT,M,M,7000.00,8500.00,M,M,M,M,M,M,M,M,M,58.50,KOOA 090115Z AUTO 20022G27KT 10SM SCT070 SCT085 15/14 A2926 RMK AO2 T01470141,M
OOA,2026-01-09 01:35,60.00,55.00,83.54,210.00,16.00,0.00,29.26,M,10.00,24.00,CLR,M,M,M,M,M,M,M,M,M,M,M,M,M,M,60.00,KOOA 090135Z AUTO 21016G24KT 10SM CLR 16/13 A2926 RMK AO2 T01550128,M
OOA,2026-01-09 01:55,58.60,52.00,78.68,230.00,29.00,0.00,29.27,M,10.00,36.00,CLR,M,M,M,M,M,M,M,M,M,M,M,M,M,M,58.60,KOOA 090155Z AUTO 23029G36KT 10SM CLR 15/11 A2927 RMK AO2 T01480111,M
OOA,2026-01-09 02:15,56.00,49.60,79.05,230.00,26.00,0.00,29.28,M,10.00,35.00,CLR,M,M,M,M,M,M,M,M,M,M,M,M,M,M,56.00,KOOA 090215Z AUTO 23026G35KT 10SM CLR 13/10 A2928 RMK AO2 T01340098,M
OOA,2026-01-09 02:35,54.00,48.60,81.90,230.00,23.00,0.00,29.29,M,10.00,M,CLR,M,M,M,M,M,M,M,M,M,M,M,M,M,M,54.00,KOOA 090235Z AUTO 23023KT 10SM CLR 12/09 A2929 RMK AO2 T01230092,M
OOA,2026-01-09 02:55,47.00,44.80,92.00,270.00,23.00,0.00,29.33,M,7.00,29.00,CLR,M,M,M,M,M,M,M,M,M,M,M,M,M,M,38.48,KOOA 090255Z AUTO 27023G29KT 7SM CLR 08/07 A2933 RMK AO2 T00830071,M
OOA,2026-01-09 03:15,45.00,43.50,94.44,270.00,19.00,0.00,29.36,M,5.00,M,CLR,M,M,M,M,M,M,M,M,M,M,M,M,M,M,36.63,KOOA 090315Z AUTO 27019KT 5SM CLR 07/06 A2936 RMK AO2 T00720064,M
OOA,2026-01-09 03:35,44.00,42.40,94.05,280.00,21.00,0.00,29.38,M,3.00,25.00,M,M,M,M,M,M,M,M,M,M,M,M,M,M,M,34.86,KOOA 090335Z AUTO 28021G25KT 3SM 07/06 A2938 RMK AO2 SKY OBSCURED T00660058,M
OOA,2026-01-09 03:55,42.80,41.50,95.11,270.00,20.00,0.00,29.40,M,3.00,24.00,M,M,M,M,M,M,M,M,M,M,M,M,M,M,M,33.48,KOOA 090355Z AUTO 27020G24KT 3SM 06/05 A2940 RMK AO2 SKY OBSCURED T00600053,M
OOA,2026-01-09 04:15,42.00,41.00,96.21,280.00,18.00,0.00,29.42,M,4.00,24.00,SCT,M,M,M,700.00,M,M,M,M,M,M,M,M,M,M,32.91,KOOA 090415Z AUTO 28018G24KT 4SM SCT007 06/05 A2942 RMK AO2 T00550050,M
OOA,2026-01-09 04:35,41.40,40.30,95.83,280.00,16.00,0.00,29.45,M,4.00,M,CLR,M,M,M,M,M,M,M,M,M,M,M,M,M,M,32.67,KOOA 090435Z AUTO 28016KT 4SM CLR 05/05 A2945 RMK AO2 T00520046,M
OOA,2026-01-09 04:55,41.00,40.00,96.19,280.00,15.00,0.00,29.47,M,3.00,M,M,M,M,M,M,M,M,M,M,M,M,M,M,M,M,32.45,KOOA 090455Z AUTO 28015KT 3SM 05/05 A2947 RMK AO2 SKY OBSCURED T00510045,M
OOA,2026-01-09 05:15,41.00,40.30,97.32,280.00,16.00,0.00,29.49,M,2.50,21.00,M,M,M,M,M,M,M,M,M,M,M,M,M,M,M,32.15,KOOA 090515Z AUTO 28016G21KT 2 1/2SM 05/05 A2949 RMK AO2 SKY OBSCURED T00500046,M
OOA,2026-01-09 05:35,41.00,40.00,96.19,280.00,15.00,0.00,29.50,M,2.50,21.00,M,M,M,M,M,M,M,M,M,M,M,M,M,M,M,32.45,KOOA 090535Z AUTO 28015G21KT 2 1/2SM 05/05 A2950 RMK AO2 SKY OBSCURED T00490045,M
OOA,2026-01-09 05:55,40.50,40.00,98.08,280.00,16.00,0.00,29.52,M,3.00,M,M,M,M,M,M,M,M,M,M,M,M,M,M,M,M,31.50,KOOA 090555Z AUTO 28016KT 3SM 05/05 A2952 RMK AO2 SKY OBSCURED T00470045 10155 20047 401550041,M
OOA,2026-01-09 06:15,40.50,40.00,98.08,280.00,18.00,0.00,29.53,M,3.00,M,M,M,M,M,M,M,M,M,M,M,M,M,M,M,M,30.94,KOOA 090615Z AUTO 28018KT 3SM 05/05 A2953 RMK AO2 SKY OBSCURED T00470045,M
OOA,2026-01-09 06:35,40.50,40.30,99.23,290.00,20.00,0.00,29.56,M,5.00,23.00,CLR,M,M,M,M,M,M,M,M,M,M,M,M,M,M,30.43,KOOA 090635Z AUTO 29020G23KT 5SM CLR 05/05 A2956 RMK AO2 T00470046,M
OOA,2026-01-09 06:55,40.30,40.00,98.84,290.00,22.00,0.00,29.57,M,5.00,25.00,CLR,M,M,M,M,M,M,M,M,M,M,M,M,M,M,29.69,KOOA 090655Z AUTO 29022G25KT 5SM CLR 05/05 A2957 RMK AO2 T00460045,M
OOA,2026-01-09 07:15,39.40,39.20,99.22,290.00,22.00,0.00,29.60,M,4.00,M,CLR,M,M,M,M,M,M,M,M,M,M,M,M,M,M,28.49,KOOA 090715Z AUTO 29022KT 4SM CLR 04/04 A2960 RMK AO2 T00410040,M
OOA,2026-01-09 07:35,39.40,39.20,99.22,300.00,20.00,0.00,29.61,M,2.50,25.00,M,M,M,M,M,M,M,M,M,M,M,M,M,M,M,28.97,KOOA 090735Z AUTO 30020G25KT 2 1/2SM 04/04 A2961 RMK AO2 SKY OBSCURED T00410040,M
OOA,2026-01-09 07:55,39.40,39.20,99.22,300.00,22.00,0.01,29.64,M,4.00,25.00,CLR,M,M,M,M,M,M,M,M,M,M,M,M,M,M,28.49,KOOA 090755Z AUTO 30022G25KT 4SM CLR 04/04 A2964 RMK AO2 P0001 T00410040,M
OOA,2026-01-09 08:15,39.40,39.20,99.22,290.00,20.00,0.00,29.66,M,5.00,27.00,CLR,M,M,M,M,M,M,M,M,M,M,M,M,M,M,28.97,KOOA 090815Z AUTO 29020G27KT 5SM CLR 04/04 A2966 RMK AO2 T00410040,M
OOA,2026-01-09 08:35,39.60,39.40,99.22,300.00,21.00,0.01,29.68,M,4.00,28.00,CLR,M,M,M,M,M,M,M,M,M,M,M,M,M,M,28.99,KOOA 090835Z AUTO 30021G28KT 4SM CLR 04/04 A2968 RMK AO2 P0001 T00420041,M
OOA,2026-01-09 08:55,39.60,39.40,99.22,300.00,24.00,0.01,29.70,M,4.00,29.00,CLR,M,M,M,M,M,M,M,M,M,M,M,M,M,M,28.31,KOOA 090855Z AUTO 30024G29KT 4SM CLR 04/04 A2970 RMK AO2 P0001 60002 T00420041,M
OOA,2026-01-09 09:15,39.20,39.20,100.00,300.00,20.00,0.00,29.73,M,5.00,30.00,CLR,M,M,M,M,M,M,M,M,M,M,M,M,M,M,28.70,KOOA 090915Z AUTO 30020G30KT 5SM CLR 04/04 A2973 RMK AO2 T00400040,M
OOA,2026-01-09 09:35,39.00,38.70,98.83,300.00,21.00,0.00,29.76,M,4.00,27.00,CLR,M,M,M,M,M,M,M,M,M,M,M,M,M,M,28.19,KOOA 090935Z AUTO 30021G27KT 4SM CLR 04/04 A2976 RMK AO2 T00380037,M
OOA,2026-01-09 09:55,38.70,38.50,99.22,300.00,23.00,0.00,29.79,M,10.00,28.00,CLR,M,M,M,M,M,M,M,M,M,M,M,M,M,M,27.32,KOOA 090955Z AUTO 30023G28KT 10SM CLR 04/04 A2979 RMK AO2 T00370036,M
OOA,2026-01-09 10:15,38.50,37.40,95.77,300.00,21.00,0.00,29.80,M,7.00,29.00,CLR,M,M,M,M,M,M,M,M,M,M,M,M,M,M,27.52,KOOA 091015Z AUTO 30021G29KT 7SM CLR 04/03 A2980 RMK AO2 T00360030,M
OOA,2026-01-09 10:35,38.50,37.00,94.28,300.00,19.00,0.00,29.82,M,10.00,24.00,CLR,M,M,M,M,M,M,M,M,M,M,M,M,M,M,28.03,KOOA 091035Z AUTO 30019G24KT 10SM CLR 04/03 A2982 RMK AO2 T00360027,M
OOA,2026-01-09 10:55,38.30,36.00,91.33,300.00,18.00,0.00,29.84,M,10.00,24.00,CLR,M,M,M,M,M,M,M,M,M,M,M,M,M,M,28.04,KOOA 091055Z AUTO 30018G24KT 10SM CLR 04/02 A2984 RMK AO2 T00350022,M
OOA,2026-01-09 11:15,37.80,35.60,91.68,300.00,16.00,0.00,29.85,M,10.00,21.00,CLR,M,M,M,M,M,M,M,M,M,M,M,M,M,M,27.98,KOOA 091115Z AUTO 30016G21KT 10SM CLR 03/02 A2985 RMK AO2 T00320020,M
OOA,2026-01-09 11:35,37.40,35.00,90.94,300.00,14.00,0.00,29.86,M,10.00,19.00,CLR,M,M,M,M,M,M,M,M,M,M,M,M,M,M,28.12,KOOA 091135Z AUTO 30014G19KT 10SM CLR 03/02 A2986 RMK AO2 T00300017,M
OOA,2026-01-09 11:55,37.20,34.70,90.57,310.00,15.00,0.00,29.88,M,10.00,M,CLR,M,M,M,M,M,M,M,M,M,M,M,M,M,M,27.52,KOOA 091155Z AUTO 31015KT 10SM CLR 03/02 A2988 RMK AO2 60002 70069 T00290015 10048 20029,M
OOA,2026-01-09 12:15,37.00,34.30,89.84,300.00,15.00,0.00,29.90,M,10.00,M,CLR,M,M,M,M,M,M,M,M,M,M,M,M,M,M,27.26,KOOA 091215Z AUTO 30015KT 10SM CLR 03/01 A2990 RMK AO2 T00270013,M
OOA,2026-01-09 12:35,36.70,34.00,89.83,300.00,12.00,0.00,29.92,M,10.00,M,CLR,M,M,M,M,M,M,M,M,M,M,M,M,M,M,27.98,KOOA 091235Z AUTO 30012KT 10SM CLR 03/01 A2992 RMK AO2 T00260011,M
OOA,2026-01-09 12:55,36.30,33.80,90.53,310.00,13.00,0.00,29.94,M,10.00,M,CLR,M,M,M,M,M,M,M,M,M,M,M,M,M,M,27.08,KOOA 091255Z AUTO 31013KT 10SM CLR 02/01 A2994 RMK AO2 T00240010,M
OOA,2026-01-09 13:15,36.00,33.30,89.80,300.00,13.00,0.00,29.96,M,10.00,M,CLR,M,M,M,M,M,M,M,M,M,M,M,M,M,M,26.69,KOOA 091315Z AUTO 30013KT 10SM CLR 02/01 A2996 RMK AO2 T00220007,M
OOA,2026-01-09 13:35,35.60,33.00,90.14,310.00,10.00,0.00,29.97,M,10.00,M,CLR,M,M,M,M,M,M,M,M,M,M,M,M,M,M,27.48,KOOA 091335Z AUTO 31010KT 10SM CLR 02/01 A2997 RMK AO2 T00200005,M
OOA,2026-01-09 13:55,35.00,32.50,90.48,310.00,10.00,0.00,29.99,M,10.00,M,CLR,M,M,M,M,M,M,M,M,M,M,M,M,M,M,26.73,KOOA 091355Z AUTO 31010KT 10SM CLR 02/00 A2999 RMK AO2 T00170003,M
OOA,2026-01-09 14:15,35.60,33.00,90.14,300.00,10.00,0.00,30.00,M,10.00,M,CLR,M,M,M,M,M,M,M,M,M,M,M,M,M,M,27.48,KOOA 091415Z AUTO 30010KT 10SM CLR 02/01 A3000 RMK AO2 T00200005,M
OOA,2026-01-09 14:35,36.00,33.30,89.80,310.00,10.00,0.00,30.02,M,10.00,M,CLR,M,M,M,M,M,M,M,M,M,M,M,M,M,M,27.98,KOOA 091435Z AUTO 31010KT 10SM CLR 02/01 A3002 RMK AO2 T00230007,M
OOA,2026-01-09 14:55,37.00,33.30,86.32,310.00,12.00,0.00,30.03,M,10.00,M,CLR,M,M,M,M,M,M,M,M,M,M,M,M,M,M,28.37,KOOA 091455Z AUTO 31012KT 10SM CLR 03/01 A3003 RMK AO2 T00270007,M
OOA,2026-01-09 15:15,37.40,34.00,87.38,320.00,12.00,0.00,30.04,M,10.00,M,CLR,M,M,M,M,M,M,M,M,M,M,M,M,M,M,28.87,KOOA 091515Z AUTO 32012KT 10SM CLR 03/01 A3004 RMK AO2 T00300011,M
OOA,2026-01-09 15:35,38.00,34.00,85.35,330.00,14.00,0.00,30.04,M,10.00,18.00,CLR,M,M,M,M,M,M,M,M,M,M,M,M,M,M,28.90,KOOA 091535Z AUTO 33014G18KT 10SM CLR 03/01 A3004 RMK AO2 T00330011,M
OOA,2026-01-09 15:55,38.50,34.30,84.70,330.00,13.00,0.00,30.05,M,10.00,M,CLR,M,M,M,M,M,M,M,M,M,M,M,M,M,M,29.90,KOOA 091555Z AUTO 33013KT 10SM CLR 04/01 A3005 RMK AO2 T00360013,M
OOA,2026-01-09 16:15,39.00,33.60,80.76,330.00,13.00,0.00,30.07,M,10.00,M,CLR,M,M,M,M,M,M,M,M,M,M,M,M,M,M,30.54,KOOA 091615Z AUTO 33013KT 10SM CLR 04/01 A3007 RMK AO2 T00380009,M
OOA,2026-01-09 16:35,39.60,34.30,81.13,330.00,12.00,0.00,30.07,M,10.00,16.00,CLR,M,M,M,M,M,M,M,M,M,M,M,M,M,M,31.67,KOOA 091635Z AUTO 33012G16KT 10SM CLR 04/01 A3007 RMK AO2 T00420013,M
OOA,2026-01-09 16:55,40.50,35.40,81.85,330.00,10.00,0.00,30.08,M,10.00,M,CLR,M,M,M,M,M,M,M,M,M,M,M,M,M,M,33.63,KOOA 091655Z AUTO 33010KT 10SM CLR 05/02 A3008 RMK AO2 T00470019,M
OOA,2026-01-09 17:15,41.00,35.20,79.64,330.00,7.00,0.00,30.08,M,10.00,M,CLR,M,M,M,M,M,M,M,M,M,M,M,M,M,M,35.75,KOOA 091715Z AUTO 33007KT 10SM CLR 05/02 A3008 RMK AO2 T00500018,M
OOA,2026-01-09 17:35,41.50,35.80,80.00,320.00,7.00,0.00,30.09,M,10.00,M,CLR,M,M,M,M,M,M,M,M,M,M,M,M,M,M,36.36,KOOA 091735Z AUTO 32007KT 10SM CLR 05/02 A3009 RMK AO2 T00530021,M
OOA,2026-01-09 17:55,42.00,35.80,78.47,310.00,6.00,0.00,30.10,M,10.00,M,CLR,M,M,M,M,M,M,M,M,M,M,M,M,M,M,37.57,KOOA 091755Z AUTO 31006KT 10SM CLR 06/02 A3010 RMK AO2 T00560021 10056 20017,M
OOA,2026-01-09 18:15,43.00,36.30,77.02,320.00,7.00,0.00,30.10,M,10.00,M,CLR,M,M,M,M,M,M,M,M,M,M,M,M,M,M,38.19,KOOA 091815Z AUTO 32007KT 290V350 10SM CLR 06/02 A3010 RMK AO2 T00610024,M
OOA,2026-01-09 18:35,43.30,35.60,74.06,340.00,5.00,0.00,30.10,M,10.00,M,CLR,M,M,M,M,M,M,M,M,M,M,M,M,M,M,39.82,KOOA 091835Z AUTO 34005KT 10SM CLR 06/02 A3010 RMK AO2 T00630020,M
OOA,2026-01-09 18:55,43.70,35.60,72.93,290.00,6.00,0.00,30.11,M,10.00,M,CLR,M,M,M,M,M,M,M,M,M,M,M,M,M,M,39.62,KOOA 091855Z AUTO 29006KT 10SM CLR 07/02 A3011 RMK AO2 T00650020,M
OOA,2026-01-09 19:15,44.00,36.30,74.13,290.00,3.00,0.00,30.11,M,10.00,M,CLR,M,M,M,M,M,M,M,M,M,M,M,M,M,M,42.41,KOOA 091915Z AUTO 29003KT 10SM CLR 07/02 A3011 RMK AO2 T00660024,M
OOA,2026-01-09 19:35,44.00,36.00,73.25,290.00,4.00,0.00,30.11,M,10.00,M,CLR,M,M,M,M,M,M,M,M,M,M,M,M,M,M,41.43,KOOA 091935Z AUTO 29004KT 10SM CLR 07/02 A3011 RMK AO2 T00670023,M
OOA,2026-01-09 19:55,44.60,36.30,72.45,330.00,4.00,0.00,30.11,M,10.00,M,CLR,M,M,M,M,M,M,M,M,M,M,M,M,M,M,42.13,KOOA 091955Z AUTO 33004KT 10SM CLR 07/02 A3011 RMK AO2 T00700024,M
OOA,2026-01-09 20:15,44.80,36.00,71.05,330.00,6.00,0.00,30.11,M,10.00,M,CLR,M,M,M,M,M,M,M,M,M,M,M,M,M,M,40.95,KOOA 092015Z AUTO 33006KT 10SM CLR 07/02 A3011 RMK AO2 T00710023,M
OOA,2026-01-09 20:35,44.60,35.80,71.03,320.00,4.00,0.00,30.11,M,10.00,M,CLR,M,M,M,M,M,M,M,M,M,M,M,M,M,M,42.13,KOOA 092035Z AUTO 32004KT 10SM CLR 07/02 A3011 RMK AO2 T00700021,M
OOA,2026-01-09 20:55,44.80,36.30,71.90,310.00,5.00,0.00,30.12,M,10.00,M,CLR,M,M,M,M,M,M,M,M,M,M,M,M,M,M,41.60,KOOA 092055Z AUTO 31005KT 10SM CLR 07/02 A3012 RMK AO2 T00710024,M
OOA,2026-01-09 21:15,44.60,36.30,72.45,320.00,3.00,0.00,30.12,M,10.00,M,CLR,M,M,M,M,M,M,M,M,M,M,M,M,M,M,43.09,KOOA 092115Z AUTO 32003KT 10SM CLR 07/02 A3012 RMK AO2 T00700024,M
OOA,2026-01-09 21:35,44.60,35.20,69.36,350.00,4.00,0.00,30.12,M,10.00,M,CLR,M,M,M,M,M,M,M,M,M,M,M,M,M,M,42.13,KOOA 092135Z AUTO 35004KT 10SM CLR 07/02 A3012 RMK AO2 T00700018,M
OOA,2026-01-09 21:55,44.60,35.60,70.47,340.00,4.00,0.00,30.12,M,10.00,M,CLR,M,M,M,M,M,M,M,M,M,M,M,M,M,M,42.13,KOOA 092155Z AUTO 34004KT 10SM CLR 07/02 A3012 RMK AO2 T00700020,M
OOA,2026-01-09 22:15,44.00,35.00,70.40,330.00,3.00,0.00,30.13,M,10.00,M,CLR,M,M,M,M,M,M,M,M,M,M,M,M,M,M,42.41,KOOA 092215Z AUTO 33003KT 10SM CLR 07/02 A3013 RMK AO2 T00660017,M
OOA,2026-01-09 22:35,43.00,35.80,75.51,300.00,3.00,0.00,30.14,M,10.00,M,CLR,M,M,M,M,M,M,M,M,M,M,M,M,M,M,41.26,KOOA 092235Z AUTO 30003KT 10SM CLR 06/02 A3014 RMK AO2 T00620021,M
OOA,2026-01-09 22:55,41.40,36.00,80.95,300.00,3.00,0.00,30.15,M,10.00,M,CLR,M,M,M,M,M,M,M,M,M,M,M,M,M,M,39.43,KOOA 092255Z AUTO 30003KT 10SM CLR 05/02 A3015 RMK AO2 T00520022,M
OOA,2026-01-09 23:15,40.00,35.60,84.12,330.00,5.00,0.00,30.15,M,10.00,M,CLR,M,M,M,M,M,M,M,M,M,M,M,M,M,M,35.90,KOOA 092315Z AUTO 33005KT 10SM CLR 05/02 A3015 RMK AO2 T00450020,M
OOA,2026-01-09 23:35,38.30,34.00,84.35,330.00,5.00,0.00,30.15,M,10.00,M,CLR,M,M,M,M,M,M,M,M,M,M,M,M,M,M,33.88,KOOA 092335Z AUTO 33005KT 10SM CLR 04/01 A3015 RMK AO2 T00350012,M
OOA,2026-01-09 23:55,38.30,33.80,83.67,330.00,5.00,0.00,30.15,M,10.00,M,CLR,M,M,M,M,M,M,M,M,M,M,M,M,M,M,33.88,KOOA 092355Z AUTO 33005KT 10SM CLR 04/01 A3015 RMK AO2 T00350010 10072 20033,M
OOA,2026-01-10 00:15,37.40,33.30,84.97,350.00,3.00,0.00,30.15,M,10.00,M,CLR,M,M,M,M,M,M,M,M,M,M,M,M,M,M,34.86,KOOA 100015Z AUTO 35003KT 10SM CLR 03/01 A3015 RMK AO2 T00300007,M
OOA,2026-01-10 00:35,38.30,33.00,81.03,10.00,4.00,0.00,30.15,M,10.00,M,CLR,M,M,M,M,M,M,M,M,M,M,M,M,M,M,34.78,KOOA 100035Z AUTO 01004KT 10SM CLR 04/01 A3015 RMK AO2 T00350006,M
OOA,2026-01-10 00:55,36.30,33.00,87.67,40.00,4.00,0.00,30.15,M,10.00,M,CLR,M,M,M,M,M,M,M,M,M,M,M,M,M,M,32.44,KOOA 100055Z AUTO 04004KT 10SM CLR 02/01 A3015 RMK AO2 T00240005,M
OOA,2026-01-10 01:15,36.00,33.00,88.72,30.00,3.00,0.00,30.15,M,10.00,M,CLR,M,M,M,M,M,M,M,M,M,M,M,M,M,M,33.26,KOOA 100115Z AUTO 03003KT 10SM CLR 02/01 A3015 RMK AO2 T00230005,M
OOA,2026-01-10 01:35,36.70,33.40,87.70,0.00,0.00,0.00,30.16,M,10.00,M,CLR,M,M,M,M,M,M,M,M,M,M,M,M,M,M,36.70,KOOA 100135Z AUTO 00000KT 10SM CLR 03/01 A3016 RMK AO2 T00260008,M
OOA,2026-01-10 01:55,35.20,32.00,87.97,0.00,0.00,0.00,30.17,M,10.00,M,CLR,M,M,M,M,M,M,M,M,M,M,M,M,M,M,35.20,KOOA 100155Z AUTO 00000KT 10SM CLR 02/00 A3017 RMK AO2 T00180001,M
OOA,2026-01-10 02:15,33.30,32.00,94.90,0.00,0.00,0.00,30.17,M,10.00,M,CLR,M,M,M,M,M,M,M,M,M,M,M,M,M,M,33.30,KOOA 100215Z AUTO 00000KT 10SM CLR 01/00 A3017 RMK AO2 T00070000,M
OOA,2026-01-10 02:35,33.80,32.50,94.92,340.00,4.00,0.00,30.17,M,10.00,M,CLR,M,M,M,M,M,M,M,M,M,M,M,M,M,M,29.52,KOOA 100235Z AUTO 34004KT 10SM CLR 01/00 A3017 RMK AO2 T00100003,M
OOA,2026-01-10 02:55,34.00,33.00,96.07,360.00,6.00,0.00,30.15,M,10.00,M,CLR,M,M,M,M,M,M,M,M,M,M,M,M,M,M,27.94,KOOA 100255Z AUTO 36006KT 10SM CLR 01/01 A3015 RMK AO2 T00120005,M
OOA,2026-01-10 03:15,35.00,33.30,93.43,350.00,4.00,0.00,30.17,M,10.00,M,SCT,M,M,M,9500.00,M,M,M,M,M,M,M,M,M,M,30.92,KOOA 100315Z AUTO 35004KT 10SM SCT095 02/01 A3017 RMK AO2 T00160007,M
OOA,2026-01-10 03:35,35.00,33.00,92.32,360.00,4.00,0.00,30.16,M,10.00,M,BKN,M,M,M,9500.00,M,M,M,M,M,M,M,M,M,M,30.92,KOOA 100335Z AUTO 36004KT 10SM BKN095 02/01 A3016 RMK AO2 T00170006,M
OOA,2026-01-10 03:55,35.40,33.00,90.86,10.00,6.00,0.00,30.15,M,10.00,M,BKN,M,M,M,9500.00,M,M,M,M,M,M,M,M,M,M,29.63,KOOA 100355Z AUTO 01006KT 10SM BKN095 02/01 A3015 RMK AO2 T00190006,M
OOA,2026-01-10 04:15,35.00,33.00,92.32,330.00,4.00,0.00,30.17,M,10.00,M,SCT,M,M,M,9500.00,M,M,M,M,M,M,M,M,M,M,30.92,KOOA 100415Z AUTO 33004KT 10SM SCT095 02/01 A3017 RMK AO2 T00160006,M
OOA,2026-01-10 04:35,35.00,33.00,92.32,340.00,6.00,0.00,30.16,M,10.00,M,SCT,M,M,M,8500.00,M,M,M,M,M,M,M,M,M,M,29.14,KOOA 100435Z AUTO 34006KT 10SM SCT085 02/01 A3016 RMK AO2 T00160005,M
OOA,2026-01-10 04:55,35.00,33.00,92.32,340.00,4.00,0.00,30.15,M,10.00,M,SCT,SCT,SCT,M,6500.00,8000.00,10000.00,M,M,M,M,M,M,M,M,30.92,KOOA 100455Z AUTO 34004KT 10SM SCT065 SCT080 SCT100 02/01 A3015 RMK AO2 T00160005,M
OOA,2026-01-10 05:15,35.00,33.00,92.32,280.00,4.00,0.00,30.19,M,10.00,M,SCT,BKN,M,M,6500.00,9000.00,M,M,M,M,M,M,M,M,M,30.92,KOOA 100515Z AUTO 28004KT 10SM SCT065 BKN090 02/01 A3019 RMK AO2 T00160006,M
OOA,2026-01-10 05:35,35.00,33.30,93.43,280.00,5.00,0.00,30.18,M,10.00,M,SCT,SCT,BKN,M,6000.00,7000.00,9000.00,M,M,M,M,M,M,M,M,29.96,KOOA 100535Z AUTO 28005KT 10SM SCT060 SCT070 BKN090 02/01 A3018 RMK AO2 T00160007,M
OOA,2026-01-10 05:55,35.00,33.30,93.43,0.00,0.00,0.00,30.17,M,10.00,M,SCT,SCT,M,M,9500.00,11000.00,M,M,M,M,M,M,M,M,M,35.00,KOOA 100555Z AUTO 00000KT 10SM SCT095 SCT110 02/01 A3017 RMK AO2 T00160007 10035 20006 400720006,M
OOA,2026-01-10 06:15,34.70,33.40,94.94,320.00,8.00,0.00,30.14,M,10.00,M,SCT,M,M,M,9500.00,M,M,M,M,M,M,M,M,M,M,27.44,KOOA 100615Z AUTO 32008KT 10SM SCT095 02/01 A3014 RMK AO2 T00150008,M
OOA,2026-01-10 06:35,35.00,33.00,92.32,330.00,16.00,0.00,30.12,M,10.00,M,SCT,M,M,M,8500.00,M,M,M,M,M,M,M,M,M,M,24.33,KOOA 100635Z AUTO 33016KT 10SM SCT085 02/01 A3012 RMK AO2 T00160005,M
OOA,2026-01-10 06:55,35.40,32.00,87.27,330.00,13.00,0.00,30.12,M,10.00,M,SCT,M,M,M,8500.00,M,M,M,M,M,M,M,M,M,M,25.92,KOOA 100655Z AUTO 33013KT 10SM SCT085 02/00 A3012 RMK AO2 T00190001,M
OOA,2026-01-10 07:15,35.00,32.50,90.48,320.00,8.00,0.00,30.13,M,10.00,M,SCT,BKN,M,M,7500.00,9500.00,M,M,M,M,M,M,M,M,M,27.81,KOOA 100715Z AUTO 32008KT 10SM SCT075 BKN095 02/00 A3013 RMK AO2 T00160003,M
OOA,2026-01-10 07:35,35.00,32.40,90.11,320.00,7.00,0.00,30.13,M,10.00,M,BKN,BKN,M,M,7500.00,8500.00,M,M,M,M,M,M,M,M,M,28.44,KOOA 100735Z AUTO 32007KT 10SM BKN075 BKN085 02/00 A3013 RMK AO2 T00160002,M
OOA,2026-01-10 07:55,35.20,32.00,87.97,330.00,7.00,0.00,30.13,M,10.00,M,BKN,BKN,M,M,7500.00,8000.00,M,M,M,M,M,M,M,M,M,28.68,KOOA 100755Z AUTO 33007KT 10SM BKN075 BKN080 02/00 A3013 RMK AO2 T00180001,M
OOA,2026-01-10 08:15,35.00,32.40,90.11,320.00,5.00,0.00,30.13,M,10.00,M,SCT,M,M,M,7000.00,M,M,M,M,M,M,M,M,M,M,29.96,KOOA 100815Z AUTO 32005KT 10SM SCT070 02/00 A3013 RMK AO2 T00160002,M
OOA,2026-01-10 08:35,35.00,32.40,90.11,300.00,5.00,0.00,30.14,M,10.00,M,SCT,SCT,M,M,7000.00,9000.00,M,M,M,M,M,M,M,M,M,29.96,KOOA 100835Z AUTO 30005KT 10SM SCT070 SCT090 02/00 A3014 RMK AO2 T00160002,M
OOA,2026-01-10 08:55,35.60,31.50,84.85,310.00,12.00,0.00,30.15,M,10.00,15.00,SCT,SCT,M,M,7500.00,9000.00,M,M,M,M,M,M,M,M,M,26.58,KOOA 100855Z AUTO 31012G15KT 10SM SCT075 SCT090 02/00 A3015 RMK AO2 T00201003,M
OOA,2026-01-10 09:15,35.20,32.00,87.97,300.00,12.00,0.00,30.15,M,10.00,M,SCT,BKN,M,M,8000.00,9000.00,M,M,M,M,M,M,M,M,M,26.07,KOOA 100915Z AUTO 30012KT 10SM SCT080 BKN090 02/00 A3015 RMK AO2 T00180000,M
OOA,2026-01-10 09:35,35.00,32.00,88.67,310.00,8.00,0.00,30.13,M,10.00,M,BKN,BKN,M,M,8000.00,9000.00,M,M,M,M,M,M,M,M,M,27.81,KOOA 100935Z AUTO 31008KT 10SM BKN080 BKN090 02/00 A3013 RMK AO2 T00170000,M
OOA,2026-01-10 09:55,35.00,32.00,88.67,310.00,10.00,0.00,30.14,M,4.00,17.00,SCT,SCT,SCT,M,5000.00,6500.00,7500.00,M,M,M,M,M,M,M,M,26.73,KOOA 100955Z AUTO 31010G17KT 4SM SCT050 SCT065 SCT075 02/00 A3014 RMK AO2 T00160000,M
OOA,2026-01-10 10:15,34.70,33.00,93.42,310.00,6.00,0.00,30.13,M,5.00,M,CLR,M,M,M,M,M,M,M,M,M,M,M,M,M,M,28.78,KOOA 101015Z AUTO 31006KT 5SM CLR 02/01 A3013 RMK AO2 T00150006,M
OOA,2026-01-10 10:35,34.00,33.30,97.24,310.00,5.00,0.00,30.13,M,2.50,M,M,M,M,M,M,M,M,M,M,M,M,M,M,M,M,28.77,KOOA 101035Z AUTO 31005KT 2 1/2SM 01/01 A3013 RMK AO2 SKY OBSCURED T00120007,M
OOA,2026-01-10 10:55,34.00,33.60,98.41,300.00,7.00,0.00,30.13,M,7.00,M,CLR,M,M,M,M,M,M,M,M,M,M,M,M,M,M,27.22,KOOA 101055Z AUTO 30007KT 7SM CLR 01/01 A3013 RMK AO2 T00110009,M
OOA,2026-01-10 11:15,34.00,33.40,97.63,290.00,6.00,0.00,30.13,M,7.00,M,CLR,M,M,M,M,M,M,M,M,M,M,M,M,M,M,27.94,KOOA 101115Z AUTO 29006KT 7SM CLR 01/01 A3013 RMK AO2 T00110008,M
OOA,2026-01-10 11:35,34.00,33.40,97.63,290.00,6.00,0.00,30.12,M,7.00,M,SCT,M,M,M,9000.00,M,M,M,M,M,M,M,M,M,M,27.94,KOOA 101135Z AUTO 29006KT 7SM SCT090 01/01 A3012 RMK AO2 T00110008,M
OOA,2026-01-10 11:55,34.00,33.30,97.24,280.00,6.00,0.00,30.12,M,7.00,M,CLR,M,M,M,M,M,M,M,M,M,M,M,M,M,M,27.94,KOOA 101155Z AUTO 28006KT 7SM CLR 01/01 A3012 RMK AO2 T00120007 10020 20010,M
OOA,2026-01-10 12:15,34.00,33.00,96.07,290.00,7.00,0.00,30.12,M,10.00,M,SCT,M,M,M,10000.00,M,M,M,M,M,M,M,M,M,M,27.22,KOOA 101215Z AUTO 29007KT 10SM SCT100 01/01 A3012 RMK AO2 T00110005,M
OOA,2026-01-10 12:35,34.00,33.00,96.07,290.00,8.00,0.00,30.12,M,10.00,M,SCT,M,M,M,11000.00,M,M,M,M,M,M,M,M,M,M,26.58,KOOA 101235Z AUTO 29008KT 10SM SCT110 01/01 A3012 RMK AO2 T00110005,M
OOA,2026-01-10 12:55,34.70,33.00,93.42,300.00,10.00,0.00,30.13,M,10.00,M,SCT,M,M,M,11000.00,M,M,M,M,M,M,M,M,M,M,26.35,KOOA 101255Z AUTO 30010KT 10SM SCT110 02/01 A3013 RMK AO2 T00150005,M
OOA,2026-01-10 13:15,35.00,33.00,92.32,310.00,9.00,0.00,30.13,M,10.00,M,CLR,M,M,M,M,M,M,M,M,M,M,M,M,M,M,27.24,KOOA 101315Z AUTO 31009KT 10SM CLR 02/01 A3013 RMK AO2 T00160005,M
OOA,2026-01-10 13:35,35.00,32.40,90.11,320.00,10.00,0.00,30.13,M,10.00,M,CLR,M,M,M,M,M,M,M,M,M,M,M,M,M,M,26.73,KOOA 101335Z AUTO 32010KT 10SM CLR 02/00 A3013 RMK AO2 T00160002,M
OOA,2026-01-10 13:55,35.00,32.50,90.48,320.00,8.00,0.00,30.12,M,10.00,M,CLR,M,M,M,M,M,M,M,M,M,M,M,M,M,M,27.81,KOOA 101355Z AUTO 32008KT 10SM CLR 02/00 A3012 RMK AO2 T00160003,M
OOA,2026-01-10 14:15,34.70,32.00,89.74,310.00,13.00,0.00,30.13,M,10.00,M,CLR,M,M,M,M,M,M,M,M,M,M,M,M,M,M,25.03,KOOA 101415Z AUTO 31013KT 10SM CLR 02/00 A3013 RMK AO2 T00150000,M
OOA,2026-01-10 14:35,35.00,32.00,88.67,300.00,8.00,0.00,30.13,M,10.00,M,CLR,M,M,M,M,M,M,M,M,M,M,M,M,M,M,27.81,KOOA 101435Z AUTO 30008KT 10SM CLR 02/00 A3013 RMK AO2 T00160000,M
OOA,2026-01-10 14:55,35.00,32.00,88.67,300.00,10.00,0.00,30.13,M,10.00,M,CLR,M,M,M,M,M,M,M,M,M,M,M,M,M,M,26.73,KOOA 101455Z AUTO 30010KT 10SM CLR 02/00 A3013 RMK AO2 T00160000,M
OOA,2026-01-10 15:15,34.70,32.00,89.74,310.00,12.00,0.00,30.13,M,10.00,M,CLR,M,M,M,M,M,M,M,M,M,M,M,M,M,M,25.44,KOOA 101515Z AUTO 31012KT 10SM CLR 02/00 A3013 RMK AO2 T00150000,M
OOA,2026-01-10 15:35,34.30,32.00,91.18,310.00,9.00,0.00,30.13,M,10.00,M,CLR,M,M,M,M,M,M,M,M,M,M,M,M,M,M,26.37,KOOA 101535Z AUTO 31009KT 10SM CLR 01/00 A3013 RMK AO2 T00131001,M
OOA,2026-01-10 15:55,34.50,31.60,89.01,310.00,9.00,0.00,30.12,M,10.00,M,CLR,M,M,M,M,M,M,M,M,M,M,M,M,M,M,26.62,KOOA 101555Z AUTO 31009KT 10SM CLR 01/00 A3012 RMK AO2 T00141002,M
OOA,2026-01-10 16:15,34.70,32.00,89.74,300.00,12.00,0.00,30.12,M,10.00,M,CLR,M,M,M,M,M,M,M,M,M,M,M,M,M,M,25.44,KOOA 101615Z AUTO 30012KT 10SM CLR 02/00 A3012 RMK AO2 T00151001,M
OOA,2026-01-10 16:35,34.30,31.00,87.57,320.00,11.00,0.00,30.13,M,10.00,M,CLR,M,M,M,M,M,M,M,M,M,M,M,M,M,M,25.37,KOOA 101635Z AUTO 32011KT 10SM CLR 01/00 A3013 RMK AO2 T00131005,M
OOA,2026-01-10 16:55,34.70,31.30,87.24,310.00,10.00,0.00,30.12,M,10.00,16.00,CLR,M,M,M,M,M,M,M,M,M,M,M,M,M,M,26.35,KOOA 101655Z AUTO 31010G16KT 10SM CLR 02/00 A3012 RMK AO2 T00151004,M
OOA,2026-01-10 17:15,35.80,32.40,87.30,270.00,11.00,0.00,30.10,M,10.00,M,CLR,M,M,M,M,M,M,M,M,M,M,M,M,M,M,27.27,KOOA 101715Z AUTO 27011KT 10SM CLR 02/00 A3010 RMK AO2 T00210002,M
OOA,2026-01-10 17:35,37.80,32.40,80.67,290.00,8.00,0.00,30.09,M,10.00,M,CLR,M,M,M,M,M,M,M,M,M,M,M,M,M,M,31.26,KOOA 101735Z AUTO 29008KT 10SM CLR 03/00 A3009 RMK AO2 T00320002,M
OOA,2026-01-10 17:55,37.80,31.60,78.11,280.00,10.00,0.00,30.08,M,10.00,M,CLR,M,M,M,M,M,M,M,M,M,M,M,M,M,M,30.24,KOOA 101755Z AUTO 28010KT 10SM CLR 03/00 A3008 RMK AO2 T00321002 10032 20011,M
OOA,2026-01-10 18:15,38.30,31.60,76.59,260.00,9.00,0.00,30.07,M,10.00,M,CLR,M,M,M,M,M,M,M,M,M,M,M,M,M,M,31.35,KOOA 101815Z AUTO 26009KT 10SM CLR 04/00 A3007 RMK AO2 T00351002,M
OOA,2026-01-10 18:35,38.00,31.60,77.50,290.00,9.00,0.00,30.06,M,10.00,M,CLR,M,M,M,M,M,M,M,M,M,M,M,M,M,M,30.97,KOOA 101835Z AUTO 29009KT 10SM CLR 03/00 A3006 RMK AO2 T00341002,M
OOA,2026-01-10 18:55,38.30,30.40,72.95,300.00,11.00,0.00,30.05,M,10.00,M,CLR,M,M,M,M,M,M,M,M,M,M,M,M,M,M,30.43,KOOA 101855Z AUTO 30011KT 10SM CLR 04/M01 A3005 RMK AO2 T00351009,M
OOA,2026-01-10 19:15,38.00,30.40,73.82,300.00,12.00,0.00,30.05,M,10.00,M,CLR,M,M,M,M,M,M,M,M,M,M,M,M,M,M,29.64,KOOA 101915Z AUTO 30012KT 10SM CLR 03/M01 A3005 RMK AO2 T00331009,M
OOA,2026-01-10 19:35,34.70,31.60,88.30,310.00,12.00,0.00,30.07,M,0.75,17.00,VV ,M,M,M,500.00,M,M,M,M,M,M,M,M,M,M,25.44,KOOA 101935Z AUTO 31012G17KT 3/4SM VV005 02/00 A3007 RMK AO2 T00151002,M
OOA,2026-01-10 19:55,33.80,32.50,94.92,310.00,12.00,0.00,30.07,M,0.75,M,VV ,M,M,M,500.00,M,M,M,M,M,M,M,M,M,M,24.29,KOOA 101955Z AUTO 31012KT 3/4SM VV005 01/00 A3007 RMK AO2 T00100003,M
OOA,2026-01-10 20:15,33.60,32.50,95.68,310.00,11.00,0.00,30.07,M,0.75,M,VV ,M,M,M,500.00,M,M,M,M,M,M,M,M,M,M,24.49,KOOA 102015Z AUTO 31011KT 3/4SM VV005 01/00 A3007 RMK AO2 T00090003,M
OOA,2026-01-10 20:35,33.30,32.00,94.90,320.00,12.00,0.00,30.08,M,2.00,M,M,M,M,M,M,M,M,M,M,M,M,M,M,M,M,23.66,KOOA 102035Z AUTO 32012KT 2SM 01/00 A3008 RMK AO2 SKY OBSCURED T00070000,M
OOA,2026-01-10 20:55,32.50,31.30,95.27,320.00,14.00,0.00,30.10,M,7.00,20.00,CLR,M,M,M,M,M,M,M,M,M,M,M,M,M,M,21.81,KOOA 102055Z AUTO 32014G20KT 7SM CLR 00/00 A3010 RMK AO2 T00031004,M
OOA,2026-01-10 21:15,33.00,30.00,88.57,310.00,17.00,0.00,30.10,M,10.00,22.00,CLR,M,M,M,M,M,M,M,M,M,M,M,M,M,M,21.39,KOOA 102115Z AUTO 31017G22KT 10SM CLR 01/M01 A3010 RMK AO2 T00051011,M
OOA,2026-01-10 21:35,33.00,29.30,86.08,310.00,19.00,0.00,30.11,M,5.00,22.00,CLR,M,M,M,M,M,M,M,M,M,M,M,M,M,M,20.76,KOOA 102135Z AUTO 31019G22KT 5SM CLR 01/M01 A3011 RMK AO2 T00051015,M
OOA,2026-01-10 21:55,33.00,27.70,80.62,310.00,21.00,0.00,30.12,M,10.00,27.00,CLR,M,M,M,M,M,M,M,M,M,M,M,M,M,M,20.19,KOOA 102155Z AUTO 31021G27KT 10SM CLR 01/M02 A3012 RMK AO2 T00061024,M
OOA,2026-01-10 22:15,33.00,27.70,80.62,310.00,19.00,0.00,30.13,M,10.00,25.00,CLR,M,M,M,M,M,M,M,M,M,M,M,M,M,M,20.76,KOOA 102215Z AUTO 31019G25KT 10SM CLR 01/M02 A3013 RMK AO2 T00051024,M
OOA,2026-01-10 22:35,32.50,27.70,82.25,300.00,19.00,0.00,30.14,M,10.00,23.00,CLR,M,M,M,M,M,M,M,M,M,M,M,M,M,M,20.10,KOOA 102235Z AUTO 30019G23KT 10SM CLR 00/M02 A3014 RMK AO2 T00031024,M
OOA,2026-01-10 22:55,32.40,27.50,81.91,300.00,17.00,0.00,30.14,M,10.00,23.00,SCT,M,M,M,4700.00,M,M,M,M,M,M,M,M,M,M,20.60,KOOA 102255Z AUTO 30017G23KT 10SM SCT047 00/M02 A3014 RMK AO2 T00021025,M
OOA,2026-01-10 23:15,32.00,28.00,84.97,300.00,16.00,0.00,30.15,M,10.00,M,SCT,SCT,M,M,3800.00,5000.00,M,M,M,M,M,M,M,M,M,20.42,KOOA 102315Z AUTO 30016KT 10SM SCT038 SCT050 00/M02 A3015 RMK AO2 T00001023,M
OOA,2026-01-10 23:35,32.00,25.70,77.27,290.00,15.00,0.00,30.15,M,10.00,20.00,CLR,M,M,M,M,M,M,M,M,M,M,M,M,M,M,20.78,KOOA 102335Z AUTO 29015G20KT 10SM CLR 00/M03 A3015 RMK AO2 T00001035,M
OOA,2026-01-10 23:55,31.60,24.00,73.15,300.00,16.00,0.00,30.17,M,10.00,23.00,CLR,M,M,M,M,M,M,M,M,M,M,M,M,M,M,19.90,KOOA 102355Z AUTO 30016G23KT 10SM CLR 00/M04 A3017 RMK AO2 T10021045 10035 21002,M
OOA,2026-01-11 00:15,31.30,23.70,73.12,290.00,14.00,0.00,30.17,M,10.00,20.00,CLR,M,M,M,M,M,M,M,M,M,M,M,M,M,M,20.26,KOOA 110015Z AUTO 29014G20KT 10SM CLR 00/M05 A3017 RMK AO2 T10041046,M
OOA,2026-01-11 00:35,31.00,23.50,73.39,290.00,12.00,0.00,30.17,M,10.00,M,CLR,M,M,M,M,M,M,M,M,M,M,M,M,M,M,20.73,KOOA 110035Z AUTO 29012KT 10SM CLR M01/M05 A3017 RMK AO2 T10061047,M
OOA,2026-01-11 00:55,31.00,22.60,70.67,290.00,15.00,0.00,30.18,M,10.00,M,CLR,M,M,M,M,M,M,M,M,M,M,M,M,M,M,19.48,KOOA 110055Z AUTO 29015KT 10SM CLR M01/M05 A3018 RMK AO2 T10061052,M
OOA,2026-01-11 01:15,31.00,21.40,67.17,300.00,18.00,0.00,30.19,M,10.00,22.00,CLR,M,M,M,M,M,M,M,M,M,M,M,M,M,M,18.43,KOOA 110115Z AUTO 30018G22KT 10SM CLR 00/M06 A3019 RMK AO2 T10051059,M
OOA,2026-01-11 01:35,30.70,20.30,64.89,300.00,17.00,0.00,30.19,M,10.00,25.00,CLR,M,M,M,M,M,M,M,M,M,M,M,M,M,M,18.37,KOOA 110135Z AUTO 30017G25KT 10SM CLR M01/M06 A3019 RMK AO2 T10071065,M
OOA,2026-01-11 01:55,30.20,19.00,62.64,300.00,22.00,0.00,30.19,M,10.00,27.00,CLR,M,M,M,M,M,M,M,M,M,M,M,M,M,M,16.17,KOOA 110155Z AUTO 30022G27KT 10SM CLR M01/M07 A3019 RMK AO2 T10101072,M
OOA,2026-01-11 02:15,29.50,19.60,66.13,310.00,21.00,0.00,30.20,M,10.00,25.00,CLR,M,M,M,M,M,M,M,M,M,M,M,M,M,M,15.52,KOOA 110215Z AUTO 31021G25KT 10SM CLR M01/M07 A3020 RMK AO2 T10141069,M
OOA,2026-01-11 02:35,29.00,20.00,68.66,300.00,16.00,0.00,30.21,M,10.00,M,CLR,M,M,M,M,M,M,M,M,M,M,M,M,M,M,16.51,KOOA 110235Z AUTO 30016KT 10SM CLR M02/M07 A3021 RMK AO2 T10161067,M
OOA,2026-01-11 02:55,28.60,20.50,71.30,310.00,15.00,0.00,30.21,M,10.00,20.00,CLR,M,M,M,M,M,M,M,M,M,M,M,M,M,M,16.37,KOOA 110255Z AUTO 31015G20KT 10SM CLR M02/M06 A3021 RMK AO2 T10191064,M
OOA,2026-01-11 03:15,29.30,21.60,72.60,300.00,18.00,0.00,30.21,M,10.00,23.00,SCT,BKN,M,M,7000.00,9000.00,M,M,M,M,M,M,M,M,M,16.19,KOOA 110315Z AUTO 30018G23KT 10SM SCT070 BKN090 M01/M06 A3021 RMK AO2 T10151058,M
OOA,2026-01-11 03:35,29.30,21.60,72.60,310.00,17.00,0.00,30.22,M,10.00,25.00,SCT,SCT,BKN,M,2900.00,6000.00,7000.00,M,M,M,M,M,M,M,M,16.54,KOOA 110335Z AUTO 31017G25KT 10SM SCT029 SCT060 BKN070 M01/M06 A3022 RMK AO2 T10151058,M
OOA,2026-01-11 03:55,29.00,22.00,74.75,310.00,16.00,0.00,30.22,M,10.00,23.00,SCT,SCT,BKN,M,2700.00,5000.00,7000.00,M,M,M,M,M,M,M,M,16.51,KOOA 110355Z AUTO 31016G23KT 10SM SCT027 SCT050 BKN070 M02/M06 A3022 RMK AO2 T10161056,M
OOA,2026-01-11 04:15,29.00,22.50,76.34,310.00,15.00,0.00,30.22,M,10.00,21.00,SCT,SCT,BKN,M,2700.00,5000.00,9000.00,M,M,M,M,M,M,M,M,16.89,KOOA 110415Z AUTO 31015G21KT 10SM SCT027 SCT050 BKN090 M02/M05 A3022 RMK AO2 T10171053,M
OOA,2026-01-11 04:35,29.30,21.60,72.60,320.00,21.00,0.00,30.24,M,10.00,25.00,SCT,BKN,BKN,M,6000.00,7500.00,9000.00,M,M,M,M,M,M,M,M,15.25,KOOA 110435Z AUTO 32021G25KT 10SM SCT060 BKN075 BKN090 M01/M06 A3024 RMK AO2 T10151058,M
OOA,2026-01-11 04:55,28.00,22.00,77.88,330.00,16.00,0.00,30.25,M,10.00,25.00,SCT,SCT,SCT,M,6000.00,8000.00,10000.00,M,M,M,M,M,M,M,M,15.20,KOOA 110455Z AUTO 33016G25KT 10SM SCT060 SCT080 SCT100 M02/M06 A3025 RMK AO2 T10231056,M
OOA,2026-01-11 05:15,27.50,20.50,74.59,330.00,21.00,0.00,30.26,M,10.00,27.00,SCT,SCT,BKN,M,6000.00,7000.00,9000.00,M,M,M,M,M,M,M,M,12.85,KOOA 110515Z AUTO 33021G27KT 10SM SCT060 SCT070 BKN090 M02/M06 A3026 RMK AO2 T10251064,M
OOA,2026-01-11 05:35,27.00,19.80,73.91,330.00,20.00,0.00,30.27,M,10.00,27.00,SCT,SCT,BKN,M,5500.00,7000.00,9000.00,M,M,M,M,M,M,M,M,12.50,KOOA 110535Z AUTO 33020G27KT 10SM SCT055 SCT070 BKN090 M03/M07 A3027 RMK AO2 T10281068,M
OOA,2026-01-11 05:55,26.60,19.80,75.14,320.00,22.00,0.00,30.28,M,10.00,28.00,SCT,SCT,BKN,M,6500.00,8000.00,9000.00,M,M,M,M,M,M,M,M,11.35,KOOA 110555Z AUTO 32022G28KT 10SM SCT065 SCT080 BKN090 M03/M07 A3028 RMK AO2 T10301068 11002 21030 400351030,M
OOA,2026-01-11 06:15,27.00,19.60,73.28,310.00,22.00,0.00,30.28,M,10.00,31.00,SCT,M,M,M,8500.00,M,M,M,M,M,M,M,M,M,M,11.88,KOOA 110615Z AUTO 31022G31KT 10SM SCT085 M03/M07 A3028 RMK AO2 T10281069,M
OOA,2026-01-11 06:35,27.00,20.00,74.54,320.00,21.00,0.00,30.30,M,10.00,26.00,SCT,SCT,BKN,M,6000.00,7000.00,8000.00,M,M,M,M,M,M,M,M,12.18,KOOA 110635Z AUTO 32021G26KT 10SM SCT060 SCT070 BKN080 M03/M07 A3030 RMK AO2 T10281066,M
OOA,2026-01-11 06:55,26.40,20.70,78.73,330.00,21.00,0.00,30.30,M,7.00,30.00,SCT,SCT,SCT,M,6000.00,7000.00,8000.00,M,M,M,M,M,M,M,M,11.38,KOOA 110655Z AUTO 33021G30KT 7SM SCT060 SCT070 SCT080 M03/M06 A3030 RMK AO2 T10311063,M
OOA,2026-01-11 07:15,26.60,20.00,75.79,330.00,19.00,0.00,30.30,M,10.00,26.00,SCT,SCT,BKN,M,7000.00,7500.00,9000.00,M,M,M,M,M,M,M,M,12.30,KOOA 110715Z AUTO 33019G26KT 10SM SCT070 SCT075 BKN090 M03/M07 A3030 RMK AO2 T10301066,M
OOA,2026-01-11 07:35,26.60,20.00,75.79,320.00,19.00,0.00,30.31,M,10.00,24.00,SCT,BKN,M,M,6500.00,8000.00,M,M,M,M,M,M,M,M,M,12.30,KOOA 110735Z AUTO 32019G24KT 10SM SCT065 BKN080 M03/M07 A3031 RMK AO2 T10301067,M
OOA,2026-01-11 07:55,26.40,19.20,73.85,330.00,21.00,0.00,30.32,M,10.00,26.00,SCT,BKN,BKN,M,7000.00,8000.00,12000.00,M,M,M,M,M,M,M,M,11.38,KOOA 110755Z AUTO 33021G26KT 10SM SCT070 BKN080 BKN120 M03/M07 A3032 RMK AO2 T10311071,M
OOA,2026-01-11 08:15,26.00,20.30,78.69,340.00,15.00,0.00,30.34,M,10.00,22.00,SCT,BKN,BKN,M,7000.00,8500.00,11000.00,M,M,M,M,M,M,M,M,13.00,KOOA 110815Z AUTO 34015G22KT 10SM SCT070 BKN085 BKN110 M03/M06 A3034 RMK AO2 T10331065,M
OOA,2026-01-11 08:35,26.00,20.00,77.69,340.00,14.00,0.00,30.35,M,10.00,20.00,SCT,BKN,BKN,M,6000.00,7500.00,9500.00,M,M,M,M,M,M,M,M,13.43,KOOA 110835Z AUTO 34014G20KT 10SM SCT060 BKN075 BKN095 M03/M07 A3035 RMK AO2 T10331066,M
OOA,2026-01-11 08:55,26.20,20.30,78.04,330.00,14.00,0.00,30.35,M,10.00,21.00,SCT,BKN,OVC,M,6500.00,7500.00,8500.00,M,M,M,M,M,M,M,M,13.69,KOOA 110855Z AUTO 33014G21KT 10SM SCT065 BKN075 OVC085 M03/M06 A3035 RMK AO2 T10321065,M
OOA,2026-01-11 09:15,26.20,20.00,77.05,320.00,19.00,0.00,30.36,M,10.00,23.00,SCT,BKN,BKN,M,6500.00,7500.00,8500.00,M,M,M,M,M,M,M,M,11.77,KOOA 110915Z AUTO 32019G23KT 10SM SCT065 BKN075 BKN085 M03/M07 A3036 RMK AO2 T10321066,M
OOA,2026-01-11 09:35,26.00,19.60,76.38,320.00,17.00,0.00,30.37,M,10.00,22.00,SCT,SCT,BKN,M,6500.00,8500.00,9500.00,M,M,M,M,M,M,M,M,12.21,KOOA 110935Z AUTO 32017G22KT 10SM SCT065 SCT085 BKN095 M03/M07 A3037 RMK AO2 T10341069,M
OOA,2026-01-11 09:55,25.70,19.60,77.34,320.00,18.00,0.00,30.38,M,10.00,23.00,SCT,SCT,BKN,M,6500.00,7500.00,9000.00,M,M,M,M,M,M,M,M,11.46,KOOA 110955Z AUTO 32018G23KT 10SM SCT065 SCT075 BKN090 M03/M07 A3038 RMK AO2 T10351069,M
OOA,2026-01-11 10:15,25.70,19.40,76.68,320.00,16.00,0.00,30.39,M,10.00,M,SCT,BKN,M,M,6500.00,8500.00,M,M,M,M,M,M,M,M,M,12.21,KOOA 111015Z AUTO 32016KT 10SM SCT065 BKN085 M03/M07 A3039 RMK AO2 T10351070,M
OOA,2026-01-11 10:35,25.70,19.60,77.34,330.00,20.00,0.00,30.40,M,10.00,23.00,SCT,SCT,BKN,M,2000.00,6000.00,9500.00,M,M,M,M,M,M,M,M,10.77,KOOA 111035Z AUTO 33020G23KT 10SM SCT020 SCT060 BKN095 M03/M07 A3040 RMK AO2 T10351069,M
OOA,2026-01-11 10:55,25.50,19.40,77.32,320.00,16.00,0.00,30.40,M,10.00,22.00,SCT,SCT,BKN,M,2000.00,6000.00,8000.00,M,M,M,M,M,M,M,M,11.95,KOOA 111055Z AUTO 32016G22KT 10SM SCT020 SCT060 BKN080 M04/M07 A3040 RMK AO2 T10361070,M
OOA,2026-01-11 11:15,25.00,19.00,77.60,320.00,17.00,0.00,30.41,M,10.00,20.00,SCT,BKN,M,M,2000.00,8500.00,M,M,M,M,M,M,M,M,M,10.90,KOOA 111115Z AUTO 32017G20KT 10SM SCT020 BKN085 M04/M07 A3041 RMK AO2 T10381072,M
OOA,2026-01-11 11:35,25.00,19.20,78.27,320.00,14.00,0.00,30.41,M,10.00,M,SCT,BKN,BKN,M,2000.00,8000.00,10000.00,M,M,M,M,M,M,M,M,12.14,KOOA 111135Z AUTO 32014KT 10SM SCT020 BKN080 BKN100 M04/M07 A3041 RMK AO2 T10381071,M
OOA,2026-01-11 11:55,25.00,19.20,78.27,340.00,17.00,0.00,30.42,M,10.00,M,SCT,BKN,M,M,1800.00,8000.00,M,M,M,M,M,M,M,M,M,10.90,KOOA 111155Z AUTO 34017KT 10SM SCT018 BKN080 M04/M07 A3042 RMK AO2 T10381071 11028 21040,M
OOA,2026-01-11 12:15,24.60,18.70,77.90,320.00,14.00,0.00,30.43,M,10.00,M,SCT,SCT,BKN,M,1800.00,7500.00,9000.00,M,M,M,M,M,M,M,M,11.62,KOOA 111215Z AUTO 32014KT 10SM SCT018 SCT075 BKN090 M04/M07 A3043 RMK AO2 T10411074,M
OOA,2026-01-11 12:35,24.60,19.00,78.91,340.00,11.00,0.00,30.43,M,10.00,M,SCT,SCT,BKN,M,1800.00,7500.00,9000.00,M,M,M,M,M,M,M,M,13.11,KOOA 111235Z AUTO 34011KT 10SM SCT018 SCT075 BKN090 M04/M07 A3043 RMK AO2 T10411072,M
OOA,2026-01-11 12:55,24.80,19.20,78.93,320.00,11.00,0.00,30.44,M,10.00,M,SCT,SCT,SCT,M,1800.00,7500.00,9000.00,M,M,M,M,M,M,M,M,13.37,KOOA 111255Z AUTO 32011KT 10SM SCT018 SCT075 SCT090 M04/M07 A3044 RMK AO2 T10401071,M
OOA,2026-01-11 13:15,24.80,19.40,79.60,320.00,13.00,0.00,30.44,M,10.00,M,SCT,SCT,M,M,1800.00,8000.00,M,M,M,M,M,M,M,M,M,12.34,KOOA 111315Z AUTO 32013KT 10SM SCT018 SCT080 M04/M07 A3044 RMK AO2 T10401070,M
OOA,2026-01-11 13:35,24.40,19.00,79.57,340.00,10.00,0.00,30.45,M,10.00,M,CLR,M,M,M,M,M,M,M,M,M,M,M,M,M,M,13.44,KOOA 111335Z AUTO 34010KT 10SM CLR M04/M07 A3045 RMK AO2 T10421072,M
OOA,2026-01-11 13:55,24.40,19.40,80.94,340.00,10.00,0.00,30.45,M,10.00,M,CLR,M,M,M,M,M,M,M,M,M,M,M,M,M,M,13.44,KOOA 111355Z AUTO 34010KT 10SM CLR M04/M07 A3045 RMK AO2 T10421070,M
OOA,2026-01-11 14:15,24.60,19.40,80.27,330.00,11.00,0.00,30.45,M,10.00,M,CLR,M,M,M,M,M,M,M,M,M,M,M,M,M,M,13.11,KOOA 111415Z AUTO 33011KT 10SM CLR M04/M07 A3045 RMK AO2 T10411070,M
OOA,2026-01-11 14:35,24.60,19.20,79.59,340.00,10.00,0.00,30.46,M,10.00,M,CLR,M,M,M,M,M,M,M,M,M,M,M,M,M,M,13.69,KOOA 111435Z AUTO 34010KT 10SM CLR M04/M07 A3046 RMK AO2 T10411071,M
OOA,2026-01-11 14:55,24.80,19.20,78.93,330.00,9.00,0.00,30.47,M,10.00,M,CLR,M,M,M,M,M,M,M,M,M,M,M,M,M,M,14.56,KOOA 111455Z AUTO 33009KT 10SM CLR M04/M07 A3047 RMK AO2 T10401071,M
OOA,2026-01-11 15:15,25.30,19.60,78.63,320.00,7.00,0.00,30.47,M,10.00,M,CLR,M,M,M,M,M,M,M,M,M,M,M,M,M,M,16.61,KOOA 111515Z AUTO 32007KT 10SM CLR M04/M07 A3047 RMK AO2 T10371069,M
OOA,2026-01-11 15:35,26.00,20.00,77.69,340.00,7.00,0.00,30.48,M,10.00,M,CLR,M,M,M,M,M,M,M,M,M,M,M,M,M,M,17.47,KOOA 111535Z AUTO 34007KT 10SM CLR M03/M07 A3048 RMK AO2 T10341067,M
OOA,2026-01-11 15:55,26.40,20.50,78.06,310.00,6.00,0.00,30.49,M,10.00,M,CLR,M,M,M,M,M,M,M,M,M,M,M,M,M,M,18.79,KOOA 111555Z AUTO 31006KT 10SM CLR M03/M06 A3049 RMK AO2 T10311064,M
OOA,2026-01-11 16:15,27.00,21.00,77.78,290.00,7.00,0.00,30.50,M,10.00,M,CLR,M,M,M,M,M,M,M,M,M,M,M,M,M,M,18.68,KOOA 111615Z AUTO 29007KT 10SM CLR M03/M06 A3050 RMK AO2 T10281061,M
OOA,2026-01-11 16:35,27.30,21.20,77.48,300.00,10.00,0.00,30.50,M,10.00,M,CLR,M,M,M,M,M,M,M,M,M,M,M,M,M,M,17.07,KOOA 111635Z AUTO 30010KT 10SM CLR M03/M06 A3050 RMK AO2 T10261060,M
OOA,2026-01-11 16:55,28.00,21.20,75.28,290.00,7.00,0.00,30.50,M,10.00,M,CLR,M,M,M,M,M,M,M,M,M,M,M,M,M,M,19.90,KOOA 111655Z AUTO 29007KT 10SM CLR M02/M06 A3050 RMK AO2 T10231060,M
OOA,2026-01-11 17:15,27.70,21.20,76.22,300.00,7.00,0.00,30.50,M,10.00,M,CLR,M,M,M,M,M,M,M,M,M,M,M,M,M,M,19.54,KOOA 111715Z AUTO 30007KT 10SM CLR M02/M06 A3050 RMK AO2 T10241060,M
OOA,2026-01-11 17:35,29.00,22.00,74.75,280.00,8.00,0.00,30.50,M,10.00,M,CLR,M,M,M,M,M,M,M,M,M,M,M,M,M,M,20.42,KOOA 111735Z AUTO 28008KT 10SM CLR M02/M06 A3050 RMK AO2 T10171056,M
OOA,2026-01-11 17:55,30.00,22.60,73.60,280.00,9.00,0.00,30.49,M,10.00,M,CLR,M,M,M,M,M,M,M,M,M,M,M,M,M,M,21.03,KOOA 111755Z AUTO 28009KT 10SM CLR M01/M05 A3049 RMK AO2 T10111052 11011 21043,M
OOA,2026-01-11 18:15,30.70,23.00,72.75,250.00,8.00,0.00,30.48,M,10.00,M,CLR,M,M,M,M,M,M,M,M,M,M,M,M,M,M,22.51,KOOA 111815Z AUTO 25008KT 10SM CLR M01/M05 A3048 RMK AO2 T10071050,M
OOA,2026-01-11 18:35,31.00,23.00,71.87,250.00,7.00,0.00,30.48,M,10.00,M,CLR,M,M,M,M,M,M,M,M,M,M,M,M,M,M,23.56,KOOA 111835Z AUTO 25007KT 10SM CLR 00/M05 A3048 RMK AO2 T10051051,M
OOA,2026-01-11 18:55,32.00,23.00,69.02,260.00,6.00,0.00,30.46,M,10.00,M,CLR,M,M,M,M,M,M,M,M,M,M,M,M,M,M,25.53,KOOA 111855Z AUTO 26006KT 10SM CLR 00/M05 A3046 RMK AO2 T00001050,M
OOA,2026-01-11 19:15,32.00,23.70,71.08,260.00,8.00,0.00,30.46,M,10.00,M,CLR,M,M,M,M,M,M,M,M,M,M,M,M,M,M,24.11,KOOA 111915Z AUTO 26008KT 10SM CLR 00/M05 A3046 RMK AO2 T00011046,M
OOA,2026-01-11 19:35,32.00,23.70,71.08,260.00,8.00,0.00,30.46,M,10.00,M,CLR,M,M,M,M,M,M,M,M,M,M,M,M,M,M,24.11,KOOA 111935Z AUTO 26008KT 10SM CLR 00/M05 A3046 RMK AO2 T00011046,M
OOA,2026-01-11 19:55,33.00,24.00,69.14,270.00,8.00,0.00,30.45,M,10.00,M,CLR,M,M,M,M,M,M,M,M,M,M,M,M,M,M,25.34,KOOA 111955Z AUTO 27008KT 10SM CLR 01/M04 A3045 RMK AO2 T00061044,M
OOA,2026-01-11 20:15,34.00,24.40,67.54,250.00,8.00,0.00,30.44,M,10.00,M,CLR,M,M,M,M,M,M,M,M,M,M,M,M,M,M,26.58,KOOA 112015Z AUTO 25008KT 10SM CLR 01/M04 A3044 RMK AO2 T00111042,M
OOA,2026-01-11 20:35,34.70,23.70,63.79,250.00,8.00,0.00,30.44,M,10.00,M,CLR,M,M,M,M,M,M,M,M,M,M,M,M,M,M,27.44,KOOA 112035Z AUTO 25008KT 10SM CLR 02/M05 A3044 RMK AO2 T00151046,M
OOA,2026-01-11 20:55,34.70,24.00,64.59,250.00,9.00,0.00,30.44,M,10.00,M,CLR,M,M,M,M,M,M,M,M,M,M,M,M,M,M,26.87,KOOA 112055Z AUTO 25009KT 10SM CLR 02/M04 A3044 RMK AO2 T00151045,M
OOA,2026-01-11 21:15,34.70,24.30,65.41,250.00,8.00,0.00,30.44,M,10.00,M,CLR,M,M,M,M,M,M,M,M,M,M,M,M,M,M,27.44,KOOA 112115Z AUTO 25008KT 10SM CLR 02/M04 A3044 RMK AO2 T00151043,M
OOA,2026-01-11 21:35,35.00,24.00,63.82,240.00,10.00,0.00,30.43,M,10.00,M,CLR,M,M,M,M,M,M,M,M,M,M,M,M,M,M,26.73,KOOA 112135Z AUTO 24010KT 10SM CLR 02/M04 A3043 RMK AO2 T00171044,M
OOA,2026-01-11 21:55,35.00,24.00,63.82,230.00,13.00,0.00,30.43,M,10.00,M,CLR,M,M,M,M,M,M,M,M,M,M,M,M,M,M,25.41,KOOA 112155Z AUTO 23013KT 10SM CLR 02/M04 A3043 RMK AO2 T00161045,M
OOA,2026-01-11 22:15,34.00,24.00,66.42,230.00,12.00,0.00,30.42,M,10.00,M,CLR,M,M,M,M,M,M,M,M,M,M,M,M,M,M,24.55,KOOA 112215Z AUTO 23012KT 10SM CLR 01/M04 A3042 RMK AO2 T00111044,M
OOA,2026-01-11 22:35,33.80,24.00,66.96,210.00,10.00,0.00,30.39,M,10.00,M,CLR,M,M,M,M,M,M,M,M,M,M,M,M,M,M,25.23,KOOA 112235Z AUTO 21010KT 10SM CLR 01/M04 A3039 RMK AO2 T00101045,M
OOA,2026-01-11 22:55,33.00,25.30,72.99,210.00,8.00,0.00,30.39,M,10.00,M,CLR,M,M,M,M,M,M,M,M,M,M,M,M,M,M,25.34,KOOA 112255Z AUTO 21008KT 10SM CLR 01/M04 A3039 RMK AO2 T00061037,M
OOA,2026-01-11 23:15,33.00,25.00,72.09,220.00,10.00,0.00,30.39,M,10.00,M,CLR,M,M,M,M,M,M,M,M,M,M,M,M,M,M,24.22,KOOA 112315Z AUTO 22010KT 10SM CLR 01/M04 A3039 RMK AO2 T00051039,M
OOA,2026-01-11 23:35,32.70,24.30,70.86,220.00,10.00,0.00,30.39,M,10.00,M,CLR,M,M,M,M,M,M,M,M,M,M,M,M,M,M,23.85,KOOA 112335Z AUTO 22010KT 10SM CLR 00/M04 A3039 RMK AO2 T00041043,M
OOA,2026-01-11 23:55,32.00,24.60,73.81,210.00,9.00,0.00,30.38,M,10.00,M,CLR,M,M,M,M,M,M,M,M,M,M,M,M,M,M,23.51,KOOA 112355Z AUTO 21009KT 10SM CLR 00/M04 A3038 RMK AO2 T00001041 10018 21010,M
OOA,2026-01-12 00:15,31.60,24.60,75.01,220.00,7.00,0.00,30.38,M,10.00,M,CLR,M,M,M,M,M,M,M,M,M,M,M,M,M,M,24.29,KOOA 120015Z AUTO 22007KT 10SM CLR 00/M04 A3038 RMK AO2 T10021041,M
OOA,2026-01-12 00:35,31.00,24.80,77.50,220.00,6.00,0.00,30.38,M,10.00,M,CLR,M,M,M,M,M,M,M,M,M,M,M,M,M,M,24.33,KOOA 120035Z AUTO 22006KT 10SM CLR M01/M04 A3038 RMK AO2 T10061040,M
OOA,2026-01-12 00:55,30.20,24.40,78.73,210.00,7.00,0.00,30.36,M,10.00,M,CLR,M,M,M,M,M,M,M,M,M,M,M,M,M,M,22.59,KOOA 120055Z AUTO 21007KT 10SM CLR M01/M04 A3036 RMK AO2 T10101042,M
OOA,2026-01-12 01:15,30.00,24.00,78.06,220.00,6.00,0.00,30.36,M,10.00,M,CLR,M,M,M,M,M,M,M,M,M,M,M,M,M,M,23.12,KOOA 120115Z AUTO 22006KT 10SM CLR M01/M04 A3036 RMK AO2 T10121045,M
OOA,2026-01-12 01:35,30.20,24.00,77.42,220.00,9.00,0.00,30.36,M,10.00,M,CLR,M,M,M,M,M,M,M,M,M,M,M,M,M,M,21.28,KOOA 120135Z AUTO 22009KT 10SM CLR M01/M04 A3036 RMK AO2 T10101045,M
OOA,2026-01-12 01:55,30.40,23.70,75.84,220.00,8.00,0.00,30.35,M,10.00,M,CLR,M,M,M,M,M,M,M,M,M,M,M,M,M,M,22.14,KOOA 120155Z AUTO 22008KT 10SM CLR M01/M05 A3035 RMK AO2 T10091046,M
OOA,2026-01-12 02:15,30.00,23.70,77.08,200.00,7.00,0.00,30.34,M,10.00,M,CLR,M,M,M,M,M,M,M,M,M,M,M,M,M,M,22.34,KOOA 120215Z AUTO 20007KT 10SM CLR M01/M05 A3034 RMK AO2 T10121046,M
OOA,2026-01-12 02:35,30.00,23.40,76.12,210.00,8.00,0.00,30.33,M,10.00,M,CLR,M,M,M,M,M,M,M,M,M,M,M,M,M,M,21.65,KOOA 120235Z AUTO 21008KT 10SM CLR M01/M05 A3033 RMK AO2 T10121048,M
OOA,2026-01-12 02:55,30.00,23.00,74.85,210.00,7.00,0.00,30.33,M,10.00,M,CLR,M,M,M,M,M,M,M,M,M,M,M,M,M,M,22.34,KOOA 120255Z AUTO 21007KT 10SM CLR M01/M05 A3033 RMK AO2 T10111050,M
OOA,2026-01-12 03:15,29.00,23.00,77.97,210.00,8.00,0.00,30.32,M,10.00,M,CLR,M,M,M,M,M,M,M,M,M,M,M,M,M,M,20.42,KOOA 120315Z AUTO 21008KT 10SM CLR M02/M05 A3032 RMK AO2 T10171050,M
OOA,2026-01-12 03:35,29.30,22.60,75.73,220.00,9.00,0.00,30.31,M,10.00,M,CLR,M,M,M,M,M,M,M,M,M,M,M,M,M,M,20.16,KOOA 120335Z AUTO 22009KT 10SM CLR M01/M05 A3031 RMK AO2 T10151052,M
OOA,2026-01-12 03:55,30.00,22.00,71.76,220.00,9.00,0.00,30.30,M,10.00,M,CLR,M,M,M,M,M,M,M,M,M,M,M,M,M,M,21.03,KOOA 120355Z AUTO 22009KT 10SM CLR M01/M05 A3030 RMK AO2 T10121055,M
OOA,2026-01-12 04:15,30.00,21.70,70.85,220.00,11.00,0.00,30.29,M,10.00,M,CLR,M,M,M,M,M,M,M,M,M,M,M,M,M,M,19.94,KOOA 120415Z AUTO 22011KT 10SM CLR M01/M06 A3029 RMK AO2 T10111057,M
OOA,2026-01-12 04:35,30.00,21.20,69.37,220.00,9.00,0.00,30.29,M,10.00,M,CLR,M,M,M,M,M,M,M,M,M,M,M,M,M,M,21.03,KOOA 120435Z AUTO 22009KT 10SM CLR M01/M06 A3029 RMK AO2 T10111060,M
OOA,2026-01-12 04:55,30.70,20.50,65.45,230.00,11.00,0.00,30.27,M,10.00,M,CLR,M,M,M,M,M,M,M,M,M,M,M,M,M,M,20.82,KOOA 120455Z AUTO 23011KT 10SM CLR M01/M06 A3027 RMK AO2 T10071064,M
OOA,2026-01-12 05:15,31.00,20.00,63.29,220.00,11.00,0.00,30.26,M,10.00,M,CLR,M,M,M,M,M,M,M,M,M,M,M,M,M,M,21.20,KOOA 120515Z AUTO 22011KT 10SM CLR 00/M07 A3026 RMK AO2 T10051066,M
OOA,2026-01-12 05:35,31.50,20.00,62.02,220.00,9.00,0.00,30.25,M,10.00,M,CLR,M,M,M,M,M,M,M,M,M,M,M,M,M,M,22.89,KOOA 120535Z AUTO 22009KT 10SM CLR 00/M07 A3025 RMK AO2 T10031067,M
OOA,2026-01-12 05:55,31.50,20.00,62.02,220.00,10.00,0.00,30.24,M,10.00,M,CLR,M,M,M,M,M,M,M,M,M,M,M,M,M,M,22.34,KOOA 120555Z AUTO 22010KT 10SM CLR 00/M07 A3024 RMK AO2 T10031066 10000 21017 400181043,M
OOA,2026-01-12 06:15,31.50,20.30,62.82,230.00,9.00,0.00,30.23,M,10.00,M,CLR,M,M,M,M,M,M,M,M,M,M,M,M,M,M,22.89,KOOA 120615Z AUTO 23009KT 10SM CLR 00/M06 A3023 RMK AO2 T10031065,M
OOA,2026-01-12 06:35,31.00,21.00,66.04,230.00,11.00,0.00,30.23,M,10.00,M,CLR,M,M,M,M,M,M,M,M,M,M,M,M,M,M,21.20,KOOA 120635Z AUTO 23011KT 10SM CLR 00/M06 A3023 RMK AO2 T10051061,M
OOA,2026-01-12 06:55,31.00,21.20,66.61,240.00,12.00,0.00,30.22,M,10.00,M,CLR,M,M,M,M,M,M,M,M,M,M,M,M,M,M,20.73,KOOA 120655Z AUTO 24012KT 10SM CLR M01/M06 A3022 RMK AO2 T10061060,M
OOA,2026-01-12 07:15,31.00,21.20,66.61,240.00,10.00,0.00,30.21,M,10.00,M,CLR,M,M,M,M,M,M,M,M,M,M,M,M,M,M,21.71,KOOA 120715Z AUTO 24010KT 10SM CLR 00/M06 A3021 RMK AO2 T10051060,M
OOA,2026-01-12 07:35,31.50,21.70,66.67,240.00,9.00,0.00,30.21,M,10.00,M,CLR,M,M,M,M,M,M,M,M,M,M,M,M,M,M,22.89,KOOA 120735Z AUTO 24009KT 10SM CLR 00/M06 A3021 RMK AO2 T10031057,M
OOA,2026-01-12 07:55,31.60,22.00,67.25,240.00,11.00,0.00,30.21,M,10.00,M,CLR,M,M,M,M,M,M,M,M,M,M,M,M,M,M,21.96,KOOA 120755Z AUTO 24011KT 10SM CLR 00/M05 A3021 RMK AO2 T10021055,M
OOA,2026-01-12 08:15,32.00,22.50,67.58,240.00,10.00,0.00,30.21,M,10.00,M,CLR,M,M,M,M,M,M,M,M,M,M,M,M,M,M,22.97,KOOA 120815Z AUTO 24010KT 10SM CLR 00/M05 A3021 RMK AO2 T00001053,M
OOA,2026-01-12 08:35,32.00,23.00,69.02,240.00,12.00,0.00,30.20,M,10.00,M,CLR,M,M,M,M,M,M,M,M,M,M,M,M,M,M,22.00,KOOA 120835Z AUTO 24012KT 10SM CLR 00/M05 A3020 RMK AO2 T00001049,M
OOA,2026-01-12 08:55,32.00,23.50,70.48,240.00,13.00,0.00,30.19,M,10.00,M,CLR,M,M,M,M,M,M,M,M,M,M,M,M,M,M,21.57,KOOA 120855Z AUTO 24013KT 10SM CLR 00/M05 A3019 RMK AO2 T00011047,M
OOA,2026-01-12 09:15,32.50,23.70,69.66,250.00,11.00,0.00,30.19,M,10.00,M,CLR,M,M,M,M,M,M,M,M,M,M,M,M,M,M,23.10,KOOA 120915Z AUTO 25011KT 10SM CLR 00/M05 A3019 RMK AO2 T00031046,M
OOA,2026-01-12 09:35,32.00,24.00,71.98,250.00,10.00,0.00,30.19,M,10.00,M,CLR,M,M,M,M,M,M,M,M,M,M,M,M,M,M,22.97,KOOA 120935Z AUTO 25010KT 10SM CLR 00/M04 A3019 RMK AO2 T00001045,M
OOA,2026-01-12 09:55,32.00,24.30,72.89,240.00,8.00,0.00,30.19,M,10.00,M,CLR,M,M,M,M,M,M,M,M,M,M,M,M,M,M,24.11,KOOA 120955Z AUTO 24008KT 10SM CLR 00/M04 A3019 RMK AO2 T10011043,M
OOA,2026-01-12 10:15,32.00,24.60,73.81,240.00,7.00,0.00,30.18,M,10.00,M,CLR,M,M,M,M,M,M,M,M,M,M,M,M,M,M,24.78,KOOA 121015Z AUTO 24007KT 10SM CLR 00/M04 A3018 RMK AO2 T00001041,M
OOA,2026-01-12 10:35,32.00,24.60,73.81,250.00,9.00,0.00,30.18,M,10.00,M,CLR,M,M,M,M,M,M,M,M,M,M,M,M,M,M,23.51,KOOA 121035Z AUTO 25009KT 10SM CLR 00/M04 A3018 RMK AO2 T00001041,M
OOA,2026-01-12 10:55,32.00,24.80,74.42,240.00,10.00,0.00,30.18,M,10.00,M,CLR,M,M,M,M,M,M,M,M,M,M,M,M,M,M,22.97,KOOA 121055Z AUTO 24010KT 10SM CLR 00/M04 A3018 RMK AO2 T00001040,M
OOA,2026-01-12 11:15,32.00,25.30,75.99,250.00,8.00,0.00,30.18,M,10.00,M,CLR,M,M,M,M,M,M,M,M,M,M,M,M,M,M,24.11,KOOA 121115Z AUTO 25008KT 10SM CLR 00/M04 A3018 RMK AO2 T00001037,M
OOA,2026-01-12 11:35,32.40,25.70,76.03,240.00,9.00,0.00,30.18,M,10.00,M,CLR,M,M,M,M,M,M,M,M,M,M,M,M,M,M,24.01,KOOA 121135Z AUTO 24009KT 10SM CLR 00/M03 A3018 RMK AO2 T00021035,M
OOA,2026-01-12 11:55,32.50,26.00,76.67,250.00,9.00,0.00,30.17,M,10.00,M,CLR,M,M,M,M,M,M,M,M,M,M,M,M,M,M,24.14,KOOA 121155Z AUTO 25009KT 10SM CLR 00/M03 A3017 RMK AO2 T00031033 10004 21007,M
OOA,2026-01-12 12:15,33.00,26.40,76.40,250.00,7.00,0.00,30.18,M,10.00,M,CLR,M,M,M,M,M,M,M,M,M,M,M,M,M,M,26.00,KOOA 121215Z AUTO 25007KT 10SM CLR 01/M03 A3018 RMK AO2 T00051031,M
OOA,2026-01-12 12:35,32.40,26.40,78.27,250.00,6.00,0.00,30.18,M,10.00,M,CLR,M,M,M,M,M,M,M,M,M,M,M,M,M,M,26.01,KOOA 121235Z AUTO 25006KT 10SM CLR 00/M03 A3018 RMK AO2 T00021031,M
OOA,2026-01-12 12:55,32.00,26.60,80.20,240.00,8.00,0.00,30.18,M,10.00,M,CLR,M,M,M,M,M,M,M,M,M,M,M,M,M,M,24.11,KOOA 121255Z AUTO 24008KT 10SM CLR 00/M03 A3018 RMK AO2 T00011030,M
OOA,2026-01-12 13:15,32.00,26.60,80.20,230.00,8.00,0.00,30.17,M,10.00,M,CLR,M,M,M,M,M,M,M,M,M,M,M,M,M,M,24.11,KOOA 121315Z AUTO 23008KT 10SM CLR 00/M03 A3017 RMK AO2 T00001030,M
OOA,2026-01-12 13:35,32.00,27.00,81.54,250.00,7.00,0.00,30.18,M,10.00,M,CLR,M,M,M,M,M,M,M,M,M,M,M,M,M,M,24.78,KOOA 121335Z AUTO 25007KT 10SM CLR 00/M03 A3018 RMK AO2 T00001027,M
OOA,2026-01-12 13:55,32.00,27.30,82.56,240.00,7.00,0.00,30.18,M,10.00,M,CLR,M,M,M,M,M,M,M,M,M,M,M,M,M,M,24.78,KOOA 121355Z AUTO 24007KT 10SM CLR 00/M03 A3018 RMK AO2 T00001026,M
OOA,2026-01-12 14:15,32.70,27.50,80.92,240.00,7.00,0.00,30.18,M,10.00,M,CLR,M,M,M,M,M,M,M,M,M,M,M,M,M,M,25.63,KOOA 121415Z AUTO 24007KT 10SM CLR 00/M02 A3018 RMK AO2 T00041025,M
OOA,2026-01-12 14:35,33.30,28.00,80.64,240.00,6.00,0.00,30.18,M,10.00,M,CLR,M,M,M,M,M,M,M,M,M,M,M,M,M,M,27.10,KOOA 121435Z AUTO 24006KT 10SM CLR 01/M02 A3018 RMK AO2 T00071023,M
OOA,2026-01-12 14:55,33.30,28.80,83.33,240.00,5.00,0.00,30.18,M,10.00,M,CLR,M,M,M,M,M,M,M,M,M,M,M,M,M,M,27.94,KOOA 121455Z AUTO 24005KT 10SM CLR 01/M02 A3018 RMK AO2 T00071018,M
OOA,2026-01-12 15:15,35.00,28.60,77.22,250.00,9.00,0.00,30.18,M,10.00,M,CLR,M,M,M,M,M,M,M,M,M,M,M,M,M,M,27.24,KOOA 121515Z AUTO 25009KT 10SM CLR 02/M02 A3018 RMK AO2 T00161019,M
OOA,2026-01-12 15:35,36.50,29.30,74.88,250.00,8.00,0.00,30.18,M,10.00,M,CLR,M,M,M,M,M,M,M,M,M,M,M,M,M,M,29.66,KOOA 121535Z AUTO 25008KT 10SM CLR 03/M01 A3018 RMK AO2 T00251015,M
OOA,2026-01-12 15:55,37.00,29.70,74.62,250.00,8.00,0.00,30.19,M,10.00,M,CLR,M,M,M,M,M,M,M,M,M,M,M,M,M,M,30.27,KOOA 121555Z AUTO 25008KT 10SM CLR 03/M01 A3019 RMK AO2 T00281013,M
OOA,2026-01-12 16:15,37.60,30.00,73.78,260.00,7.00,0.00,30.19,M,10.00,M,CLR,M,M,M,M,M,M,M,M,M,M,M,M,M,M,31.61,KOOA 121615Z AUTO 26007KT 10SM CLR 03/M01 A3019 RMK AO2 T00311012,M
OOA,2026-01-12 16:35,38.50,30.20,71.80,260.00,8.00,0.00,30.19,M,10.00,M,CLR,M,M,M,M,M,M,M,M,M,M,M,M,M,M,32.12,KOOA 121635Z AUTO 26008KT 10SM CLR 04/M01 A3019 RMK AO2 T00361010,M
OOA,2026-01-12 16:55,39.60,31.00,71.05,250.00,7.00,0.00,30.17,M,10.00,M,CLR,M,M,M,M,M,M,M,M,M,M,M,M,M,M,34.04,KOOA 121655Z AUTO 25007KT 10SM CLR 04/M01 A3017 RMK AO2 T00421006,M
OOA,2026-01-12 17:15,41.00,31.50,68.66,240.00,7.00,0.00,30.17,M,10.00,M,CLR,M,M,M,M,M,M,M,M,M,M,M,M,M,M,35.75,KOOA 121715Z AUTO 24007KT 10SM CLR 05/00 A3017 RMK AO2 T00501003,M
OOA,2026-01-12 17:35,43.70,32.00,63.15,240.00,7.00,0.00,30.15,M,10.00,M,CLR,M,M,M,M,M,M,M,M,M,M,M,M,M,M,39.04,KOOA 121735Z AUTO 24007KT 10SM CLR 07/00 A3015 RMK AO2 T00650000,M
OOA,2026-01-12 17:55,45.00,32.00,60.09,250.00,7.00,0.00,30.14,M,10.00,M,CLR,M,M,M,M,M,M,M,M,M,M,M,M,M,M,40.63,KOOA 121755Z AUTO 25007KT 10SM CLR 07/00 A3014 RMK AO2 T00730001 10073 20000,M
OOA,2026-01-12 18:15,46.20,32.00,57.42,250.00,7.00,0.00,30.13,M,10.00,M,CLR,M,M,M,M,M,M,M,M,M,M,M,M,M,M,42.09,KOOA 121815Z AUTO 25007KT 10SM CLR 08/00 A3013 RMK AO2 T00790001,M
OOA,2026-01-12 18:35,48.00,32.40,54.53,250.00,7.00,0.00,30.12,M,10.00,M,CLR,M,M,M,M,M,M,M,M,M,M,M,M,M,M,44.28,KOOA 121835Z AUTO 25007KT 10SM CLR 09/00 A3012 RMK AO2 T00880002,M
OOA,2026-01-12 18:55,49.30,32.70,52.57,250.00,8.00,0.00,30.11,M,10.00,M,CLR,M,M,M,M,M,M,M,M,M,M,M,M,M,M,45.42,KOOA 121855Z AUTO 25008KT 10SM CLR 10/00 A3011 RMK AO2 T00960004,M
OOA,2026-01-12 19:15,48.40,33.00,55.03,260.00,4.00,0.00,30.11,M,10.00,M,CLR,M,M,M,M,M,M,M,M,M,M,M,M,M,M,46.57,KOOA 121915Z AUTO 26004KT 10SM CLR 09/01 A3011 RMK AO2 T00910005,M
OOA,2026-01-12 19:35,49.60,34.70,56.32,260.00,6.00,0.00,30.11,M,10.00,M,CLR,M,M,M,M,M,M,M,M,M,M,M,M,M,M,46.73,KOOA 121935Z AUTO 26006KT 10SM CLR 10/02 A3011 RMK AO2 T00980015,M
OOA,2026-01-12 19:55,50.70,34.00,52.57,250.00,6.00,0.00,30.10,M,10.00,M,CLR,M,M,M,M,M,M,M,M,M,M,M,M,M,M,50.70,KOOA 121955Z AUTO 25006KT 10SM CLR 10/01 A3010 RMK AO2 T01040012,M
OOA,2026-01-12 20:15,50.00,34.00,53.95,230.00,7.00,0.00,30.09,M,10.00,M,CLR,M,M,M,M,M,M,M,M,M,M,M,M,M,M,50.00,KOOA 122015Z AUTO 23007KT 10SM CLR 10/01 A3009 RMK AO2 T01010012,M
OOA,2026-01-12 20:35,51.60,35.20,53.34,230.00,5.00,0.00,30.09,M,10.00,M,CLR,M,M,M,M,M,M,M,M,M,M,M,M,M,M,51.60,KOOA 122035Z AUTO 23005KT 10SM CLR 11/02 A3009 RMK AO2 T01090018,M
OOA,2026-01-12 20:55,50.70,35.80,56.48,230.00,6.00,0.00,30.08,M,10.00,M,CLR,M,M,M,M,M,M,M,M,M,M,M,M,M,M,50.70,KOOA 122055Z AUTO 23006KT 10SM CLR 10/02 A3008 RMK AO2 T01040021,M
OOA,2026-01-12 21:15,49.00,36.00,60.64,200.00,6.00,0.00,30.09,M,10.00,M,CLR,M,M,M,M,M,M,M,M,M,M,M,M,M,M,46.00,KOOA 122115Z AUTO 20006KT 10SM CLR 10/02 A3009 RMK AO2 T00950023,M
OOA,2026-01-12 21:35,50.70,34.70,54.06,210.00,5.00,0.00,30.09,M,10.00,M,CLR,M,M,M,M,M,M,M,M,M,M,M,M,M,M,50.70,KOOA 122135Z AUTO 21005KT 10SM CLR 10/02 A3009 RMK AO2 T01040015,M
OOA,2026-01-12 21:55,50.50,35.80,56.90,210.00,5.00,0.00,30.09,M,10.00,M,CLR,M,M,M,M,M,M,M,M,M,M,M,M,M,M,50.50,KOOA 122155Z AUTO 21005KT 10SM CLR 10/02 A3009 RMK AO2 T01030021,M
OOA,2026-01-12 22:15,49.30,35.80,59.50,200.00,5.00,0.00,30.08,M,10.00,M,CLR,M,M,M,M,M,M,M,M,M,M,M,M,M,M,46.94,KOOA 122215Z AUTO 20005KT 10SM CLR 10/02 A3008 RMK AO2 T00960021,M
OOA,2026-01-12 22:35,46.60,35.60,65.32,180.00,6.00,0.00,30.08,M,10.00,M,CLR,M,M,M,M,M,M,M,M,M,M,M,M,M,M,43.11,KOOA 122235Z AUTO 18006KT 10SM CLR 08/02 A3008 RMK AO2 T00810020,M
OOA,2026-01-12 22:55,44.40,34.00,66.62,190.00,6.00,0.00,30.07,M,10.00,M,CLR,M,M,M,M,M,M,M,M,M,M,M,M,M,M,40.46,KOOA 122255Z AUTO 19006KT 10SM CLR 07/01 A3007 RMK AO2 T00690012,M
OOA,2026-01-12 23:15,41.50,33.00,71.54,200.00,6.00,0.00,30.07,M,10.00,M,CLR,M,M,M,M,M,M,M,M,M,M,M,M,M,M,36.97,KOOA 122315Z AUTO 20006KT 10SM CLR 05/01 A3007 RMK AO2 T00530006,M
OOA,2026-01-12 23:35,41.00,32.40,71.20,200.00,6.00,0.00,30.07,M,10.00,M,CLR,M,M,M,M,M,M,M,M,M,M,M,M,M,M,36.37,KOOA 122335Z AUTO 20006KT 10SM CLR 05/00 A3007 RMK AO2 T00500002,M
OOA,2026-01-12 23:55,40.00,32.00,72.84,210.00,8.00,0.00,30.07,M,10.00,M,CLR,M,M,M,M,M,M,M,M,M,M,M,M,M,M,33.97,KOOA 122355Z AUTO 21008KT 10SM CLR 05/00 A3007 RMK AO2 T00450000 10113 20045,M
OOA,2026-01-13 00:15,39.60,32.00,73.98,220.00,9.00,0.00,30.07,M,10.00,M,CLR,M,M,M,M,M,M,M,M,M,M,M,M,M,M,32.96,KOOA 130015Z AUTO 22009KT 10SM CLR 04/00 A3007 RMK AO2 T00420000,M
OOA,2026-01-13 00:35,40.00,32.00,72.84,220.00,8.00,0.00,30.06,M,10.00,M,CLR,M,M,M,M,M,M,M,M,M,M,M,M,M,M,33.97,KOOA 130035Z AUTO 22008KT 10SM CLR 04/00 A3006 RMK AO2 T00440000,M
OOA,2026-01-13 00:55,40.00,32.00,72.84,220.00,8.00,0.00,30.05,M,10.00,M,CLR,M,M,M,M,M,M,M,M,M,M,M,M,M,M,33.97,KOOA 130055Z AUTO 22008KT 10SM CLR 04/00 A3005 RMK AO2 T00440001,M
OOA,2026-01-13 01:15,39.00,32.00,75.73,220.00,7.00,0.00,30.05,M,10.00,M,CLR,M,M,M,M,M,M,M,M,M,M,M,M,M,M,33.31,KOOA 130115Z AUTO 22007KT 10SM CLR 04/00 A3005 RMK AO2 T00380000,M
OOA,2026-01-13 01:35,37.40,31.50,79.03,210.00,7.00,0.00,30.05,M,10.00,M,CLR,M,M,M,M,M,M,M,M,M,M,M,M,M,M,31.36,KOOA 130135Z AUTO 21007KT 10SM CLR 03/00 A3005 RMK AO2 T00301003,M
OOA,2026-01-13 01:55,37.60,32.00,80.01,210.00,9.00,0.00,30.04,M,10.00,M,CLR,M,M,M,M,M,M,M,M,M,M,M,M,M,M,30.48,KOOA 130155Z AUTO 21009KT 10SM CLR 03/00 A3004 RMK AO2 T00311001,M
OOA,2026-01-13 02:15,37.80,32.00,79.38,200.00,8.00,0.00,30.02,M,10.00,M,CLR,M,M,M,M,M,M,M,M,M,M,M,M,M,M,31.26,KOOA 130215Z AUTO 20008KT 10SM CLR 03/00 A3002 RMK AO2 T00320000,M
OOA,2026-01-13 02:35,37.00,32.00,81.92,200.00,8.00,0.00,30.02,M,10.00,M,CLR,M,M,M,M,M,M,M,M,M,M,M,M,M,M,30.27,KOOA 130235Z AUTO 20008KT 10SM CLR 03/00 A3002 RMK AO2 T00270000,M
OOA,2026-01-13 02:55,37.20,32.00,81.28,200.00,7.00,0.00,30.01,M,10.00,M,CLR,M,M,M,M,M,M,M,M,M,M,M,M,M,M,31.12,KOOA 130255Z AUTO 20007KT 10SM CLR 03/00 A3001 RMK AO2 T00290000,M
OOA,2026-01-13 03:15,37.40,32.00,80.64,220.00,8.00,0.00,30.02,M,10.00,M,CLR,M,M,M,M,M,M,M,M,M,M,M,M,M,M,30.76,KOOA 130315Z AUTO 22008KT 10SM CLR 03/00 A3002 RMK AO2 T00300000,M
OOA,2026-01-13 03:35,37.60,32.00,80.01,210.00,9.00,0.00,30.00,M,10.00,M,CLR,M,M,M,M,M,M,M,M,M,M,M,M,M,M,30.48,KOOA 130335Z AUTO 21009KT 10SM CLR 03/00 A3000 RMK AO2 T00310000,M
OOA,2026-01-13 03:55,37.40,32.00,80.64,210.00,9.00,0.00,29.99,M,10.00,M,CLR,M,M,M,M,M,M,M,M,M,M,M,M,M,M,30.23,KOOA 130355Z AUTO 21009KT 10SM CLR 03/00 A2999 RMK AO2 T00300000,M
OOA,2026-01-13 04:15,36.70,32.00,82.89,220.00,8.00,0.00,29.99,M,10.00,M,CLR,M,M,M,M,M,M,M,M,M,M,M,M,M,M,29.90,KOOA 130415Z AUTO 22008KT 10SM CLR 03/00 A2999 RMK AO2 T00260000,M
OOA,2026-01-13 04:35,37.40,32.00,80.64,220.00,8.00,0.00,29.98,M,10.00,M,CLR,M,M,M,M,M,M,M,M,M,M,M,M,M,M,30.76,KOOA 130435Z AUTO 22008KT 10SM CLR 03/00 A2998 RMK AO2 T00300000,M
OOA,2026-01-13 04:55,37.40,32.00,80.64,220.00,8.00,0.00,29.97,M,10.00,M,CLR,M,M,M,M,M,M,M,M,M,M,M,M,M,M,30.76,KOOA 130455Z AUTO 22008KT 10SM CLR 03/00 A2997 RMK AO2 T00300000,M
OOA,2026-01-13 05:15,37.40,32.00,80.64,220.00,8.00,0.00,29.97,M,10.00,M,CLR,M,M,M,M,M,M,M,M,M,M,M,M,M,M,30.76,KOOA 130515Z AUTO 22008KT 10SM CLR 03/00 A2997 RMK AO2 T00300000,M
OOA,2026-01-13 05:35,37.00,32.00,81.92,220.00,8.00,0.00,29.95,M,10.00,M,CLR,M,M,M,M,M,M,M,M,M,M,M,M,M,M,30.27,KOOA 130535Z AUTO 22008KT 10SM CLR 03/00 A2995 RMK AO2 T00280000,M
OOA,2026-01-13 05:55,36.50,32.00,83.55,210.00,9.00,0.00,29.92,M,10.00,M,CLR,M,M,M,M,M,M,M,M,M,M,M,M,M,M,29.11,KOOA 130555Z AUTO 21009KT 10SM CLR 03/00 A2992 RMK AO2 T00250000 10046 20023 401131007,M
OOA,2026-01-13 06:15,37.00,32.00,81.92,220.00,8.00,0.00,29.91,M,10.00,M,CLR,M,M,M,M,M,M,M,M,M,M,M,M,M,M,30.27,KOOA 130615Z AUTO 22008KT 10SM CLR 03/00 A2991 RMK AO2 T00270000,M
OOA,2026-01-13 06:35,37.40,32.00,80.64,220.00,9.00,0.00,29.90,M,10.00,M,CLR,M,M,M,M,M,M,M,M,M,M,M,M,M,M,30.23,KOOA 130635Z AUTO 22009KT 10SM CLR 03/00 A2990 RMK AO2 T00300000,M
OOA,2026-01-13 06:55,38.30,32.40,79.10,220.00,9.00,0.00,29.89,M,10.00,M,CLR,M,M,M,M,M,M,M,M,M,M,M,M,M,M,31.35,KOOA 130655Z AUTO 22009KT 10SM CLR 04/00 A2989 RMK AO2 T00350002,M
OOA,2026-01-13 07:15,38.00,32.50,80.36,220.00,9.00,0.00,29.88,M,10.00,M,CLR,M,M,M,M,M,M,M,M,M,M,M,M,M,M,30.97,KOOA 130715Z AUTO 22009KT 10SM CLR 03/00 A2988 RMK AO2 T00340003,M
OOA,2026-01-13 07:35,37.40,32.40,81.95,240.00,10.00,0.00,29.87,M,10.00,M,CLR,M,M,M,M,M,M,M,M,M,M,M,M,M,M,29.74,KOOA 130735Z AUTO 24010KT 10SM CLR 03/00 A2987 RMK AO2 T00300002,M
OOA,2026-01-13 07:55,37.60,32.40,81.31,230.00,10.00,0.00,29.87,M,10.00,M,CLR,M,M,M,M,M,M,M,M,M,M,M,M,M,M,29.99,KOOA 130755Z AUTO 23010KT 10SM CLR 03/00 A2987 RMK AO2 T00310002,M
OOA,2026-01-13 08:15,37.00,32.00,81.92,230.00,8.00,0.00,29.86,M,10.00,M,CLR,M,M,M,M,M,M,M,M,M,M,M,M,M,M,30.27,KOOA 130815Z AUTO 23008KT 10SM CLR 03/00 A2986 RMK AO2 T00270000,M
OOA,2026-01-13 08:35,37.00,32.00,81.92,230.00,7.00,0.00,29.85,M,10.00,M,CLR,M,M,M,M,M,M,M,M,M,M,M,M,M,M,30.87,KOOA 130835Z AUTO 23007KT 10SM CLR 03/00 A2985 RMK AO2 T00270000,M
OOA,2026-01-13 08:55,37.60,32.00,80.01,230.00,10.00,0.00,29.84,M,10.00,M,CLR,M,M,M,M,M,M,M,M,M,M,M,M,M,M,29.99,KOOA 130855Z AUTO 23010KT 10SM CLR 03/00 A2984 RMK AO2 T00310001,M
OOA,2026-01-13 09:15,37.40,32.00,80.64,230.00,10.00,0.00,29.82,M,10.00,M,CLR,M,M,M,M,M,M,M,M,M,M,M,M,M,M,29.74,KOOA 130915Z AUTO 23010KT 10SM CLR 03/00 A2982 RMK AO2 T00300001,M
OOA,2026-01-13 09:35,38.00,32.00,78.76,230.00,11.00,0.00,29.82,M,10.00,M,CLR,M,M,M,M,M,M,M,M,M,M,M,M,M,M,30.05,KOOA 130935Z AUTO 23011KT 10SM CLR 03/00 A2982 RMK AO2 T00330001,M
OOA,2026-01-13 09:55,38.50,32.00,77.23,230.00,12.00,0.00,29.80,M,10.00,M,CLR,M,M,M,M,M,M,M,M,M,M,M,M,M,M,30.27,KOOA 130955Z AUTO 23012KT 10SM CLR 04/00 A2980 RMK AO2 T00360001,M
OOA,2026-01-13 10:15,39.60,32.00,73.98,240.00,11.00,0.00,29.80,M,10.00,M,CLR,M,M,M,M,M,M,M,M,M,M,M,M,M,M,32.07,KOOA 131015Z AUTO 24011KT 10SM CLR 04/00 A2980 RMK AO2 T00420001,M
OOA,2026-01-13 10:35,39.20,32.00,75.14,220.00,9.00,0.00,29.78,M,10.00,M,CLR,M,M,M,M,M,M,M,M,M,M,M,M,M,M,32.47,KOOA 131035Z AUTO 22009KT 10SM CLR 04/00 A2978 RMK AO2 T00400001,M
OOA,2026-01-13 10:55,39.60,32.00,73.98,230.00,8.00,0.00,29.77,M,10.00,M,CLR,M,M,M,M,M,M,M,M,M,M,M,M,M,M,33.48,KOOA 131055Z AUTO 23008KT 10SM CLR 04/00 A2977 RMK AO2 T00420001,M
OOA,2026-01-13 11:15,40.30,32.00,71.99,230.00,10.00,0.00,29.74,M,10.00,M,CLR,M,M,M,M,M,M,M,M,M,M,M,M,M,M,33.38,KOOA 131115Z AUTO 23010KT 10SM CLR 05/00 A2974 RMK AO2 T00460001,M
OOA,2026-01-13 11:35,41.00,32.40,71.20,230.00,13.00,0.00,29.73,M,10.00,M,CLR,M,M,M,M,M,M,M,M,M,M,M,M,M,M,33.10,KOOA 131135Z AUTO 23013KT 10SM CLR 05/00 A2973 RMK AO2 T00500002,M
OOA,2026-01-13 11:55,41.00,32.50,71.49,230.00,10.00,0.00,29.73,M,10.00,M,CLR,M,M,M,M,M,M,M,M,M,M,M,M,M,M,34.25,KOOA 131155Z AUTO 23010KT 10SM CLR 05/00 A2973 RMK AO2 T00500003 10051 20025,M
OOA,2026-01-13 12:15,42.40,32.40,67.46,250.00,10.00,0.00,29.74,M,10.00,M,CLR,M,M,M,M,M,M,M,M,M,M,M,M,M,M,36.01,KOOA 131215Z AUTO 25010KT 10SM CLR 06/00 A2974 RMK AO2 T00580002,M
OOA,2026-01-13 12:35,41.50,32.40,69.84,260.00,6.00,0.00,29.74,M,10.00,M,CLR,M,M,M,M,M,M,M,M,M,M,M,M,M,M,36.97,KOOA 131235Z AUTO 26006KT 10SM CLR 05/00 A2974 RMK AO2 T00530002,M
OOA,2026-01-13 12:55,40.00,32.50,74.32,290.00,8.00,0.00,29.76,M,10.00,M,CLR,M,M,M,M,M,M,M,M,M,M,M,M,M,M,33.97,KOOA 131255Z AUTO 29008KT 10SM CLR 04/00 A2976 RMK AO2 T00440003,M
OOA,2026-01-13 13:15,39.20,32.00,75.14,270.00,9.00,0.00,29.76,M,10.00,M,CLR,M,M,M,M,M,M,M,M,M,M,M,M,M,M,32.47,KOOA 131315Z AUTO 27009KT 10SM CLR 04/00 A2976 RMK AO2 T00400001,M
OOA,2026-01-13 13:35,40.60,32.40,72.31,260.00,12.00,0.00,29.76,M,10.00,M,CLR,M,M,M,M,M,M,M,M,M,M,M,M,M,M,32.95,KOOA 131335Z AUTO 26012KT 10SM CLR 05/00 A2976 RMK AO2 T00480002,M
OOA,2026-01-13 13:55,40.60,32.50,72.61,280.00,12.00,0.00,29.77,M,10.00,M,CLR,M,M,M,M,M,M,M,M,M,M,M,M,M,M,32.95,KOOA 131355Z AUTO 28012KT 10SM CLR 05/00 A2977 RMK AO2 T00480003,M
OOA,2026-01-13 14:15,40.00,33.00,75.83,280.00,9.00,0.00,29.78,M,10.00,M,CLR,M,M,M,M,M,M,M,M,M,M,M,M,M,M,33.46,KOOA 131415Z AUTO 28009KT 10SM CLR 05/01 A2978 RMK AO2 T00450005,M
OOA,2026-01-13 14:35,41.50,33.00,71.54,290.00,9.00,0.00,29.78,M,10.00,M,CLR,M,M,M,M,M,M,M,M,M,M,M,M,M,M,35.33,KOOA 131435Z AUTO 29009KT 10SM CLR 05/01 A2978 RMK AO2 T00530006,M
OOA,2026-01-13 14:55,41.00,33.30,73.83,280.00,10.00,0.00,29.78,M,10.00,M,CLR,M,M,M,M,M,M,M,M,M,M,M,M,M,M,34.25,KOOA 131455Z AUTO 28010KT 10SM CLR 05/01 A2978 RMK AO2 T00500007,M
OOA,2026-01-13 15:15,42.00,33.80,72.46,280.00,9.00,0.00,29.78,M,10.00,M,CLR,M,M,M,M,M,M,M,M,M,M,M,M,M,M,35.95,KOOA 131515Z AUTO 28009KT 10SM CLR 06/01 A2978 RMK AO2 T00550010,M
OOA,2026-01-13 15:35,42.00,34.00,73.05,270.00,9.00,0.00,29.78,M,10.00,M,CLR,M,M,M,M,M,M,M,M,M,M,M,M,M,M,35.95,KOOA 131535Z AUTO 27009KT 10SM CLR 06/01 A2978 RMK AO2 T00550012,M
OOA,2026-01-13 15:55,43.50,35.00,71.76,270.00,11.00,0.00,29.78,M,10.00,M,CLR,M,M,M,M,M,M,M,M,M,M,M,M,M,M,37.00,KOOA 131555Z AUTO 27011KT 10SM CLR 06/02 A2978 RMK AO2 T00640016,M
OOA,2026-01-13 16:15,44.60,35.60,70.47,270.00,10.00,0.00,29.79,M,10.00,M,CLR,M,M,M,M,M,M,M,M,M,M,M,M,M,M,38.77,KOOA 131615Z AUTO 27010KT 10SM CLR 07/02 A2979 RMK AO2 T00700020,M
OOA,2026-01-13 16:35,46.00,36.00,67.89,270.00,10.00,0.00,29.78,M,10.00,M,CLR,M,M,M,M,M,M,M,M,M,M,M,M,M,M,40.52,KOOA 131635Z AUTO 27010KT 10SM CLR 08/02 A2978 RMK AO2 T00780022,M
OOA,2026-01-13 16:55,47.00,36.50,66.68,280.00,11.00,0.00,29.78,M,10.00,M,CLR,M,M,M,M,M,M,M,M,M,M,M,M,M,M,41.42,KOOA 131655Z AUTO 28011KT 10SM CLR 08/03 A2978 RMK AO2 T00840025,M
OOA,2026-01-13 17:15,47.30,36.50,65.93,280.00,12.00,0.00,29.77,M,10.00,M,CLR,M,M,M,M,M,M,M,M,M,M,M,M,M,M,41.47,KOOA 131715Z AUTO 28012KT 10SM CLR 09/03 A2977 RMK AO2 T00850025,M
OOA,2026-01-13 17:35,47.30,36.50,65.93,280.00,14.00,0.00,29.76,M,10.00,M,CLR,M,M,M,M,M,M,M,M,M,M,M,M,M,M,40.88,KOOA 131735Z AUTO 28014KT 10SM CLR 09/03 A2976 RMK AO2 T00850025,M
OOA,2026-01-13 17:55,48.00,37.00,65.50,280.00,12.00,0.00,29.74,M,10.00,M,CLR,M,M,M,M,M,M,M,M,M,M,M,M,M,M,42.37,KOOA 131755Z AUTO 28012KT 10SM CLR 09/03 A2974 RMK AO2 T00880027 10088 20036,M
OOA,2026-01-13 18:15,48.60,37.40,65.06,280.00,11.00,0.00,29.74,M,10.00,M,CLR,M,M,M,M,M,M,M,M,M,M,M,M,M,M,43.44,KOOA 131815Z AUTO 28011KT 10SM CLR 09/03 A2974 RMK AO2 T00920030,M
OOA,2026-01-13 18:35,49.00,38.00,65.62,260.00,11.00,0.00,29.73,M,10.00,M,CLR,M,M,M,M,M,M,M,M,M,M,M,M,M,M,43.95,KOOA 131835Z AUTO 26011KT 10SM CLR 09/03 A2973 RMK AO2 T00940033,M
OOA,2026-01-13 18:55,50.00,38.30,63.97,270.00,15.00,0.00,29.71,M,10.00,M,CLR,M,M,M,M,M,M,M,M,M,M,M,M,M,M,50.00,KOOA 131855Z AUTO 27015KT 10SM CLR 10/04 A2971 RMK AO2 T01010035,M
OOA,2026-01-13 19:15,51.30,38.50,61.44,270.00,15.00,0.00,29.71,M,10.00,20.00,CLR,M,M,M,M,M,M,M,M,M,M,M,M,M,M,51.30,KOOA 131915Z AUTO 27015G20KT 10SM CLR 11/04 A2971 RMK AO2 T01070036,M
OOA,2026-01-13 19:35,51.40,38.70,61.69,270.00,14.00,0.00,29.71,M,10.00,M,CLR,M,M,M,M,M,M,M,M,M,M,M,M,M,M,51.40,KOOA 131935Z AUTO 27014KT 10SM CLR 11/04 A2971 RMK AO2 T01080037,M
OOA,2026-01-13 19:55,52.00,38.50,59.87,280.00,17.00,0.00,29.71,M,10.00,20.00,CLR,M,M,M,M,M,M,M,M,M,M,M,M,M,M,52.00,KOOA 131955Z AUTO 28017G20KT 10SM CLR 11/04 A2971 RMK AO2 T01110036,M
OOA,2026-01-13 20:15,52.50,38.50,58.78,280.00,19.00,0.00,29.71,M,10.00,22.00,CLR,M,M,M,M,M,M,M,M,M,M,M,M,M,M,52.50,KOOA 132015Z AUTO 28019G22KT 10SM CLR 11/04 A2971 RMK AO2 T01140036,M
OOA,2026-01-13 20:35,52.00,38.50,59.87,280.00,17.00,0.00,29.71,M,10.00,22.00,CLR,M,M,M,M,M,M,M,M,M,M,M,M,M,M,52.00,KOOA 132035Z AUTO 28017G22KT 10SM CLR 11/04 A2971 RMK AO2 T01120036,M
OOA,2026-01-13 20:55,51.80,38.30,59.84,290.00,16.00,0.00,29.72,M,10.00,M,CLR,M,M,M,M,M,M,M,M,M,M,M,M,M,M,51.80,KOOA 132055Z AUTO 29016KT 10SM CLR 11/04 A2972 RMK AO2 T01100035,M
OOA,2026-01-13 21:15,51.40,38.50,61.21,280.00,13.00,0.00,29.71,M,10.00,M,CLR,M,M,M,M,M,M,M,M,M,M,M,M,M,M,51.40,KOOA 132115Z AUTO 28013KT 10SM CLR 11/04 A2971 RMK AO2 T01080036,M
OOA,2026-01-13 21:35,51.00,38.70,62.61,280.00,13.00,0.00,29.71,M,10.00,M,CLR,M,M,M,M,M,M,M,M,M,M,M,M,M,M,51.00,KOOA 132135Z AUTO 28013KT 10SM CLR 11/04 A2971 RMK AO2 T01050037,M
OOA,2026-01-13 21:55,50.40,38.50,63.52,280.00,14.00,0.00,29.72,M,10.00,M,CLR,M,M,M,M,M,M,M,M,M,M,M,M,M,M,50.40,KOOA 132155Z AUTO 28014KT 10SM CLR 10/04 A2972 RMK AO2 T01020036,M
OOA,2026-01-13 22:15,50.00,38.30,63.97,280.00,14.00,0.00,29.72,M,10.00,M,CLR,M,M,M,M,M,M,M,M,M,M,M,M,M,M,50.00,KOOA 132215Z AUTO 28014KT 10SM CLR 10/04 A2972 RMK AO2 T01010035,M
OOA,2026-01-13 22:35,48.60,38.30,67.40,280.00,11.00,0.00,29.72,M,10.00,M,CLR,M,M,M,M,M,M,M,M,M,M,M,M,M,M,43.44,KOOA 132235Z AUTO 28011KT 10SM CLR 09/04 A2972 RMK AO2 T00920035,M
OOA,2026-01-13 22:55,47.30,37.80,69.39,290.00,11.00,0.00,29.72,M,10.00,M,CLR,M,M,M,M,M,M,M,M,M,M,M,M,M,M,41.80,KOOA 132255Z AUTO 29011KT 10SM CLR 09/03 A2972 RMK AO2 T00850032,M
OOA,2026-01-13 23:15,47.30,37.40,68.31,290.00,13.00,0.00,29.73,M,10.00,M,CLR,M,M,M,M,M,M,M,M,M,M,M,M,M,M,41.17,KOOA 132315Z AUTO 29013KT 10SM CLR 09/03 A2973 RMK AO2 T00850030,M
OOA,2026-01-13 23:35,47.30,36.70,66.45,290.00,15.00,0.00,29.73,M,10.00,M,CLR,M,M,M,M,M,M,M,M,M,M,M,M,M,M,40.61,KOOA 132335Z AUTO 29015KT 10SM CLR 09/03 A2973 RMK AO2 T00850026,M
OOA,2026-01-13 23:55,46.80,36.50,67.18,300.00,14.00,0.00,29.73,M,10.00,M,CLR,M,M,M,M,M,M,M,M,M,M,M,M,M,M,40.24,KOOA 132355Z AUTO 30014KT 10SM CLR 08/03 A2973 RMK AO2 T00820025 10115 20082,M
OOA,2026-01-14 00:15,46.60,36.50,67.69,300.00,12.00,0.00,29.73,M,10.00,M,CLR,M,M,M,M,M,M,M,M,M,M,M,M,M,M,40.58,KOOA 140015Z AUTO 30012KT 10SM CLR 08/03 A2973 RMK AO2 T00810025,M
OOA,2026-01-14 00:35,46.40,36.50,68.20,290.00,11.00,0.00,29.73,M,10.00,M,CLR,M,M,M,M,M,M,M,M,M,M,M,M,M,M,40.66,KOOA 140035Z AUTO 29011KT 10SM CLR 08/03 A2973 RMK AO2 T00800025,M
OOA,2026-01-14 00:55,45.30,36.00,69.71,290.00,11.00,0.00,29.74,M,10.00,M,CLR,M,M,M,M,M,M,M,M,M,M,M,M,M,M,39.27,KOOA 140055Z AUTO 29011KT 10SM CLR 07/02 A2974 RMK AO2 T00740023,M
OOA,2026-01-14 01:15,45.50,36.00,69.19,290.00,13.00,0.00,29.74,M,10.00,M,CLR,M,M,M,M,M,M,M,M,M,M,M,M,M,M,38.86,KOOA 140115Z AUTO 29013KT 10SM CLR 08/02 A2974 RMK AO2 T00750022,M
OOA,2026-01-14 01:35,46.80,35.80,65.35,310.00,14.00,0.00,29.74,M,10.00,20.00,CLR,M,M,M,M,M,M,M,M,M,M,M,M,M,M,40.24,KOOA 140135Z AUTO 31014G20KT 10SM CLR 08/02 A2974 RMK AO2 T00820021,M
OOA,2026-01-14 01:55,44.80,36.00,71.05,310.00,12.00,0.00,29.75,M,10.00,M,CLR,M,M,M,M,M,M,M,M,M,M,M,M,M,M,38.29,KOOA 140155Z AUTO 31012KT 10SM CLR 07/02 A2975 RMK AO2 T00710022,M
OOA,2026-01-14 02:15,45.70,35.80,68.12,310.00,15.00,0.00,29.76,M,10.00,M,CLR,M,M,M,M,M,M,M,M,M,M,M,M,M,M,38.54,KOOA 140215Z AUTO 31015KT 10SM CLR 08/02 A2976 RMK AO2 T00760021,M
OOA,2026-01-14 02:35,44.80,35.80,70.49,300.00,12.00,0.00,29.77,M,10.00,M,CLR,M,M,M,M,M,M,M,M,M,M,M,M,M,M,38.29,KOOA 140235Z AUTO 30012KT 10SM CLR 07/02 A2977 RMK AO2 T00710021,M
OOA,2026-01-14 02:55,44.00,35.60,72.10,300.00,13.00,0.00,29.77,M,10.00,M,CLR,M,M,M,M,M,M,M,M,M,M,M,M,M,M,36.94,KOOA 140255Z AUTO 30013KT 10SM CLR 07/02 A2977 RMK AO2 T00670020,M
OOA,2026-01-14 03:15,43.00,35.60,74.92,300.00,12.00,0.00,29.77,M,10.00,M,CLR,M,M,M,M,M,M,M,M,M,M,M,M,M,M,36.00,KOOA 140315Z AUTO 30012KT 10SM CLR 06/02 A2977 RMK AO2 T00620020,M
OOA,2026-01-14 03:35,42.80,35.60,75.49,310.00,12.00,0.00,29.77,M,10.00,M,CLR,M,M,M,M,M,M,M,M,M,M,M,M,M,M,35.75,KOOA 140335Z AUTO 31012KT 10SM CLR 06/02 A2977 RMK AO2 T00600020,M
OOA,2026-01-14 03:55,43.30,35.60,74.06,320.00,10.00,0.00,29.78,M,10.00,M,CLR,M,M,M,M,M,M,M,M,M,M,M,M,M,M,37.14,KOOA 140355Z AUTO 32010KT 10SM CLR 06/02 A2978 RMK AO2 T00630020,M
OOA,2026-01-14 04:15,41.40,35.20,78.42,340.00,15.00,0.00,29.78,M,10.00,18.00,CLR,M,M,M,M,M,M,M,M,M,M,M,M,M,M,32.97,KOOA 140415Z AUTO 34015G18KT 10SM CLR 05/02 A2978 RMK AO2 T00520018,M
OOA,2026-01-14 04:35,41.00,35.40,80.28,320.00,10.00,0.00,29.78,M,10.00,M,CLR,M,M,M,M,M,M,M,M,M,M,M,M,M,M,34.25,KOOA 140435Z AUTO 32010KT 10SM CLR 05/02 A2978 RMK AO2 T00490019,M
OOA,2026-01-14 04:55,41.00,34.00,75.92,320.00,13.00,0.00,29.79,M,10.00,21.00,CLR,M,M,M,M,M,M,M,M,M,M,M,M,M,M,33.10,KOOA 140455Z AUTO 32013G21KT 10SM CLR 05/01 A2979 RMK AO2 T00490012,M
OOA,2026-01-14 05:15,40.00,33.80,78.30,320.00,13.00,0.00,29.79,M,10.00,M,CLR,M,M,M,M,M,M,M,M,M,M,M,M,M,M,31.82,KOOA 140515Z AUTO 32013KT 10SM CLR 04/01 A2979 RMK AO2 T00440010,M
OOA,2026-01-14 05:35,39.40,33.60,79.51,310.00,15.00,0.00,29.79,M,10.00,19.00,CLR,M,M,M,M,M,M,M,M,M,M,M,M,M,M,30.37,KOOA 140535Z AUTO 31015G19KT 10SM CLR 04/01 A2979 RMK AO2 T00410009,M
OOA,2026-01-14 05:55,39.00,33.30,79.80,300.00,13.00,0.00,29.79,M,10.00,M,CLR,M,M,M,M,M,M,M,M,M,M,M,M,M,M,30.54,KOOA 140555Z AUTO 30013KT 10SM CLR 04/01 A2979 RMK AO2 T00380007 10085 20038 401150025,M
OOA,2026-01-14 06:15,38.70,33.00,79.77,310.00,12.00,0.00,29.79,M,10.00,18.00,CLR,M,M,M,M,M,M,M,M,M,M,M,M,M,M,30.53,KOOA 140615Z AUTO 31012G18KT 10SM CLR 04/01 A2979 RMK AO2 T00370005,M
OOA,2026-01-14 06:35,38.30,32.70,80.06,320.00,14.00,0.00,29.79,M,10.00,18.00,CLR,M,M,M,M,M,M,M,M,M,M,M,M,M,M,29.28,KOOA 140635Z AUTO 32014G18KT 10SM CLR 04/00 A2979 RMK AO2 T00350004,M
OOA,2026-01-14 06:55,37.00,32.40,83.25,320.00,10.00,0.00,29.80,M,10.00,M,CLR,M,M,M,M,M,M,M,M,M,M,M,M,M,M,29.24,KOOA 140655Z AUTO 32010KT 10SM CLR 03/00 A2980 RMK AO2 T00280002,M
OOA,2026-01-14 07:15,37.40,32.70,82.94,320.00,13.00,0.00,29.80,M,10.00,18.00,CLR,M,M,M,M,M,M,M,M,M,M,M,M,M,M,28.49,KOOA 140715Z AUTO 32013G18KT 10SM CLR 03/00 A2980 RMK AO2 T00300004,M
OOA,2026-01-14 07:35,37.00,32.00,81.92,320.00,13.00,0.00,29.81,M,10.00,M,CLR,M,M,M,M,M,M,M,M,M,M,M,M,M,M,27.97,KOOA 140735Z AUTO 32013KT 10SM CLR 03/00 A2981 RMK AO2 T00270000,M
OOA,2026-01-14 07:55,36.00,32.00,85.22,320.00,15.00,0.00,29.82,M,10.00,18.00,CLR,M,M,M,M,M,M,M,M,M,M,M,M,M,M,25.97,KOOA 140755Z AUTO 32015G18KT 10SM CLR 02/00 A2982 RMK AO2 T00230000,M
OOA,2026-01-14 08:15,36.00,32.00,85.22,320.00,13.00,0.00,29.82,M,10.00,M,CLR,M,M,M,M,M,M,M,M,M,M,M,M,M,M,26.69,KOOA 140815Z AUTO 32013KT 10SM CLR 02/00 A2982 RMK AO2 T00220000,M
OOA,2026-01-14 08:35,35.60,32.00,86.58,320.00,16.00,0.00,29.83,M,10.00,20.00,CLR,M,M,M,M,M,M,M,M,M,M,M,M,M,M,25.11,KOOA 140835Z AUTO 32016G20KT 10SM CLR 02/00 A2983 RMK AO2 T00201001,M
OOA,2026-01-14 08:55,35.60,31.50,84.85,330.00,15.00,0.00,29.84,M,10.00,M,CLR,M,M,M,M,M,M,M,M,M,M,M,M,M,M,25.45,KOOA 140855Z AUTO 33015KT 10SM CLR 02/00 A2984 RMK AO2 T00201003,M
OOA,2026-01-14 09:15,35.20,31.00,84.48,320.00,16.00,0.00,29.85,M,10.00,M,CLR,M,M,M,M,M,M,M,M,M,M,M,M,M,M,24.59,KOOA 140915Z AUTO 32016KT 10SM CLR 02/00 A2985 RMK AO2 T00181005,M
OOA,2026-01-14 09:35,35.20,30.70,83.46,320.00,16.00,0.00,29.86,M,10.00,M,CLR,M,M,M,M,M,M,M,M,M,M,M,M,M,M,24.59,KOOA 140935Z AUTO 32016KT 10SM CLR 02/M01 A2986 RMK AO2 T00181007,M
OOA,2026-01-14 09:55,35.00,30.20,82.44,330.00,17.00,0.00,29.87,M,10.00,21.00,CLR,M,M,M,M,M,M,M,M,M,M,M,M,M,M,24.01,KOOA 140955Z AUTO 33017G21KT 10SM CLR 02/M01 A2987 RMK AO2 T00161010,M
OOA,2026-01-14 10:15,34.70,29.70,81.75,330.00,18.00,0.00,29.87,M,10.00,M,CLR,M,M,M,M,M,M,M,M,M,M,M,M,M,M,23.30,KOOA 141015Z AUTO 33018KT 10SM CLR 02/M01 A2987 RMK AO2 T00151013,M
OOA,2026-01-14 10:35,34.00,29.00,81.69,330.00,17.00,0.00,29.88,M,10.00,23.00,CLR,M,M,M,M,M,M,M,M,M,M,M,M,M,M,22.70,KOOA 141035Z AUTO 33017G23KT 10SM CLR 01/M02 A2988 RMK AO2 T00121016,M
OOA,2026-01-14 10:55,33.80,29.00,82.35,320.00,18.00,0.00,29.89,M,10.00,23.00,CLR,M,M,M,M,M,M,M,M,M,M,M,M,M,M,22.12,KOOA 141055Z AUTO 32018G23KT 10SM CLR 01/M02 A2989 RMK AO2 T00101017,M
OOA,2026-01-14 11:15,33.80,28.00,79.04,330.00,19.00,0.00,29.90,M,10.00,25.00,CLR,M,M,M,M,M,M,M,M,M,M,M,M,M,M,21.82,KOOA 141115Z AUTO 33019G25KT 10SM CLR 01/M02 A2990 RMK AO2 T00101022,M
OOA,2026-01-14 11:35,33.30,27.50,79.00,320.00,17.00,0.00,29.91,M,10.00,22.00,CLR,M,M,M,M,M,M,M,M,M,M,M,M,M,M,21.78,KOOA 141135Z AUTO 32017G22KT 10SM CLR 01/M02 A2991 RMK AO2 T00071025,M
OOA,2026-01-14 11:55,33.00,26.20,75.77,330.00,20.00,0.00,29.92,M,10.00,25.00,CLR,M,M,M,M,M,M,M,M,M,M,M,M,M,M,20.47,KOOA 141155Z AUTO 33020G25KT 10SM CLR 01/M03 A2992 RMK AO2 T00061032 10038 20006,M
OOA,2026-01-14 12:15,33.00,25.70,74.22,330.00,20.00,0.00,29.94,M,10.00,24.00,CLR,M,M,M,M,M,M,M,M,M,M,M,M,M,M,20.47,KOOA 141215Z AUTO 33020G24KT 10SM CLR 01/M03 A2994 RMK AO2 T00051035,M
OOA,2026-01-14 12:35,32.70,25.50,74.50,330.00,21.00,0.00,29.95,M,10.00,25.00,CLR,M,M,M,M,M,M,M,M,M,M,M,M,M,M,19.79,KOOA 141235Z AUTO 33021G25KT 10SM CLR 00/M04 A2995 RMK AO2 T00041036,M
OOA,2026-01-14 12:55,32.00,23.00,69.02,340.00,24.00,0.00,29.96,M,10.00,31.00,CLR,M,M,M,M,M,M,M,M,M,M,M,M,M,M,18.06,KOOA 141255Z AUTO 34024G31KT 10SM CLR 00/M05 A2996 RMK AO2 T00001051,M
OOA,2026-01-14 13:15,32.00,23.00,69.02,330.00,19.00,0.00,29.97,M,10.00,28.00,CLR,M,M,M,M,M,M,M,M,M,M,M,M,M,M,19.44,KOOA 141315Z AUTO 33019G28KT 10SM CLR 00/M05 A2997 RMK AO2 T00001051,M
OOA,2026-01-14 13:35,31.00,21.00,66.04,340.00,23.00,0.00,29.98,M,10.00,33.00,CLR,M,M,M,M,M,M,M,M,M,M,M,M,M,M,16.97,KOOA 141335Z AUTO 34023G33KT 10SM CLR 00/M06 A2998 RMK AO2 T10051061,M
OOA,2026-01-14 13:55,30.40,19.60,63.75,350.00,27.00,0.00,30.00,M,10.00,36.00,CLR,M,M,M,M,M,M,M,M,M,M,M,M,M,M,15.16,KOOA 141355Z AUTO 35027G36KT 10SM CLR M01/M07 A3000 RMK AO2 T10091069,M
OOA,2026-01-14 14:15,28.80,19.20,66.90,340.00,23.00,0.00,30.02,M,10.00,32.00,CLR,M,M,M,M,M,M,M,M,M,M,M,M,M,M,14.01,KOOA 141415Z AUTO 34023G32KT 10SM CLR M02/M07 A3002 RMK AO2 T10181071,M
OOA,2026-01-14 14:35,28.40,18.50,65.99,340.00,28.00,0.00,30.03,M,10.00,32.00,CLR,M,M,M,M,M,M,M,M,M,M,M,M,M,M,12.20,KOOA 141435Z AUTO 34028G32KT 10SM CLR M02/M07 A3003 RMK AO2 T10201075,M
OOA,2026-01-14 14:55,27.50,17.40,65.31,350.00,25.00,0.00,30.04,M,10.00,35.00,CLR,M,M,M,M,M,M,M,M,M,M,M,M,M,M,11.72,KOOA 141455Z AUTO 35025G35KT 10SM CLR M02/M08 A3004 RMK AO2 T10251081,M
OOA,2026-01-14 15:15,28.00,17.60,64.54,340.00,27.00,0.00,30.06,M,10.00,33.00,CLR,M,M,M,M,M,M,M,M,M,M,M,M,M,M,11.89,KOOA 141515Z AUTO 34027G33KT 10SM CLR M02/M08 A3006 RMK AO2 T10221080,M
OOA,2026-01-14 15:35,27.30,17.00,64.72,340.00,26.00,0.00,30.08,M,10.00,33.00,CLR,M,M,M,M,M,M,M,M,M,M,M,M,M,M,11.19,KOOA 141535Z AUTO 34026G33KT 10SM CLR M03/M08 A3008 RMK AO2 T10261084,M
OOA,2026-01-14 15:55,28.40,17.40,62.94,350.00,29.00,0.00,30.09,M,10.00,36.00,CLR,M,M,M,M,M,M,M,M,M,M,M,M,M,M,11.97,KOOA 141555Z AUTO 35029G36KT 10SM CLR M02/M08 A3009 RMK AO2 T10201081,M
OOA,2026-01-14 16:15,28.80,18.00,63.54,350.00,21.00,0.00,30.10,M,10.00,30.00,CLR,M,M,M,M,M,M,M,M,M,M,M,M,M,M,14.59,KOOA 141615Z AUTO 35021G30KT 10SM CLR M02/M08 A3010 RMK AO2 T10181077,M
OOA,2026-01-14 16:35,29.00,18.30,63.84,340.00,25.00,0.00,30.11,M,10.00,30.00,CLR,M,M,M,M,M,M,M,M,M,M,M,M,M,M,13.75,KOOA 141635Z AUTO 34025G30KT 10SM CLR M02/M08 A3011 RMK AO2 T10161076,M
OOA,2026-01-14 16:55,29.00,15.80,57.30,350.00,26.00,0.00,30.11,M,10.00,33.00,CLR,M,M,M,M,M,M,M,M,M,M,M,M,M,M,13.50,KOOA 141655Z AUTO 35026G33KT 10SM CLR M02/M09 A3011 RMK AO2 T10171090,M
OOA,2026-01-14 17:15,29.50,14.50,53.04,350.00,24.00,0.00,30.11,M,10.00,30.00,CLR,M,M,M,M,M,M,M,M,M,M,M,M,M,M,14.69,KOOA 141715Z AUTO 35024G30KT 10SM CLR M01/M10 A3011 RMK AO2 T10141097,M
OOA,2026-01-14 17:35,30.40,17.60,58.51,330.00,23.00,0.00,30.12,M,10.00,26.00,CLR,M,M,M,M,M,M,M,M,M,M,M,M,M,M,16.16,KOOA 141735Z AUTO 33023G26KT 10SM CLR M01/M08 A3012 RMK AO2 T10091080,M
OOA,2026-01-14 17:55,30.00,18.30,61.29,340.00,22.00,0.00,30.12,M,10.00,28.00,CLR,M,M,M,M,M,M,M,M,M,M,M,M,M,M,15.90,KOOA 141755Z AUTO 34022G28KT 10SM CLR M01/M08 A3012 RMK AO2 T10121076 10007 21026,M
OOA,2026-01-14 18:15,30.20,16.00,55.04,340.00,21.00,0.00,30.12,M,10.00,28.00,CLR,M,M,M,M,M,M,M,M,M,M,M,M,M,M,16.45,KOOA 141815Z AUTO 34021G28KT 10SM CLR M01/M09 A3012 RMK AO2 T10101088,M
OOA,2026-01-14 18:35,30.20,16.50,56.24,330.00,20.00,0.00,30.13,M,10.00,29.00,CLR,M,M,M,M,M,M,M,M,M,M,M,M,M,M,16.75,KOOA 141835Z AUTO 33020G29KT 10SM CLR M01/M09 A3013 RMK AO2 T10101086,M
OOA,2026-01-14 18:55,31.00,15.00,51.01,340.00,20.00,0.00,30.13,M,10.00,30.00,CLR,M,M,M,M,M,M,M,M,M,M,M,M,M,M,17.81,KOOA 141855Z AUTO 34020G30KT 10SM CLR M01/M09 A3013 RMK AO2 T10061094,M
OOA,2026-01-14 19:15,31.00,16.00,53.28,340.00,23.00,0.00,30.13,M,10.00,27.00,CLR,M,M,M,M,M,M,M,M,M,M,M,M,M,M,16.97,KOOA 141915Z AUTO 34023G27KT 10SM CLR 00/M09 A3013 RMK AO2 T10051088,M
OOA,2026-01-14 19:35,31.00,15.00,51.01,340.00,19.00,0.00,30.12,M,10.00,27.00,CLR,M,M,M,M,M,M,M,M,M,M,M,M,M,M,18.11,KOOA 141935Z AUTO 34019G27KT 10SM CLR M01/M09 A3012 RMK AO2 T10061095,M
OOA,2026-01-14 19:55,31.00,13.50,47.76,350.00,22.00,0.00,30.13,M,10.00,30.00,CLR,M,M,M,M,M,M,M,M,M,M,M,M,M,M,17.24,KOOA 141955Z AUTO 35022G30KT 10SM CLR M01/M10 A3013 RMK AO2 T10061103,M
OOA,2026-01-14 20:15,31.00,14.40,49.68,340.00,20.00,0.00,30.14,M,10.00,27.00,CLR,M,M,M,M,M,M,M,M,M,M,M,M,M,M,17.81,KOOA 142015Z AUTO 34020G27KT 10SM CLR 00/M10 A3014 RMK AO2 T10051098,M
OOA,2026-01-14 20:35,31.00,12.20,45.10,350.00,21.00,0.00,30.14,M,10.00,28.00,CLR,M,M,M,M,M,M,M,M,M,M,M,M,M,M,17.52,KOOA 142035Z AUTO 35021G28KT 10SM CLR 00/M11 A3014 RMK AO2 T10051110,M
OOA,2026-01-14 20:55,31.00,11.50,43.72,350.00,23.00,0.00,30.15,M,10.00,29.00,CLR,M,M,M,M,M,M,M,M,M,M,M,M,M,M,16.97,KOOA 142055Z AUTO 35023G29KT 10SM CLR 00/M11 A3015 RMK AO2 T10051114,M
OOA,2026-01-14 21:15,31.00,14.50,49.90,330.00,22.00,0.00,30.15,M,10.00,27.00,CLR,M,M,M,M,M,M,M,M,M,M,M,M,M,M,17.24,KOOA 142115Z AUTO 33022G27KT 10SM CLR 00/M10 A3015 RMK AO2 T10051097,M
OOA,2026-01-14 21:35,30.70,12.70,46.67,340.00,21.00,0.00,30.15,M,10.00,24.00,CLR,M,M,M,M,M,M,M,M,M,M,M,M,M,M,17.12,KOOA 142135Z AUTO 34021G24KT 10SM CLR M01/M11 A3015 RMK AO2 T10071107,M
OOA,2026-01-14 21:55,30.20,11.50,45.16,350.00,17.00,0.00,30.15,M,10.00,22.00,CLR,M,M,M,M,M,M,M,M,M,M,M,M,M,M,17.72,KOOA 142155Z AUTO 35017G22KT 10SM CLR M01/M11 A3015 RMK AO2 T10101114,M
OOA,2026-01-14 22:15,30.00,12.70,48.02,340.00,18.00,0.00,30.17,M,10.00,24.00,CLR,M,M,M,M,M,M,M,M,M,M,M,M,M,M,17.12,KOOA 142215Z AUTO 34018G24KT 10SM CLR M01/M11 A3017 RMK AO2 T10121107,M
OOA,2026-01-14 22:35,29.00,12.70,50.02,330.00,17.00,0.00,30.17,M,10.00,22.00,CLR,M,M,M,M,M,M,M,M,M,M,M,M,M,M,16.15,KOOA 142235Z AUTO 33017G22KT 10SM CLR M02/M11 A3017 RMK AO2 T10161107,M
OOA,2026-01-14 22:55,28.00,12.70,52.11,340.00,11.00,0.00,30.17,M,10.00,M,CLR,M,M,M,M,M,M,M,M,M,M,M,M,M,M,17.41,KOOA 142255Z AUTO 34011KT 10SM CLR M02/M11 A3017 RMK AO2 T10221107,M
OOA,2026-01-14 23:15,27.00,13.00,55.03,340.00,10.00,0.00,30.19,M,10.00,M,CLR,M,M,M,M,M,M,M,M,M,M,M,M,M,M,16.70,KOOA 142315Z AUTO 34010KT 10SM CLR M03/M11 A3019 RMK AO2 T10271106,M
OOA,2026-01-14 23:35,26.60,13.50,57.19,330.00,14.00,0.00,30.19,M,10.00,M,CLR,M,M,M,M,M,M,M,M,M,M,M,M,M,M,14.20,KOOA 142335Z AUTO 33014KT 10SM CLR M03/M10 A3019 RMK AO2 T10301103,M
OOA,2026-01-14 23:55,26.00,13.00,57.35,330.00,16.00,0.00,30.20,M,10.00,20.00,CLR,M,M,M,M,M,M,M,M,M,M,M,M,M,M,12.60,KOOA 142355Z AUTO 33016G20KT 10SM CLR M03/M11 A3020 RMK AO2 T10341106 11003 21034,M
OOA,2026-01-15 00:15,25.00,13.60,61.39,330.00,15.00,0.00,30.19,M,10.00,19.00,CLR,M,M,M,M,M,M,M,M,M,M,M,M,M,M,11.71,KOOA 150015Z AUTO 33015G19KT 10SM CLR M04/M10 A3019 RMK AO2 T10381102,M
OOA,2026-01-15 00:35,24.80,13.00,60.29,330.00,14.00,0.00,30.19,M,10.00,M,CLR,M,M,M,M,M,M,M,M,M,M,M,M,M,M,11.88,KOOA 150035Z AUTO 33014KT 10SM CLR M04/M10 A3019 RMK AO2 T10401105,M
OOA,2026-01-15 00:55,24.40,13.30,62.12,330.00,13.00,0.00,30.19,M,10.00,19.00,CLR,M,M,M,M,M,M,M,M,M,M,M,M,M,M,11.83,KOOA 150055Z AUTO 33013G19KT 10SM CLR M04/M10 A3019 RMK AO2 T10421104,M
OOA,2026-01-15 01:15,24.30,12.60,60.48,340.00,15.00,0.00,30.20,M,10.00,M,CLR,M,M,M,M,M,M,M,M,M,M,M,M,M,M,10.80,KOOA 150115Z AUTO 34015KT 10SM CLR M04/M11 A3020 RMK AO2 T10431108,M
OOA,2026-01-15 01:35,24.00,12.40,60.71,340.00,15.00,0.00,30.21,M,10.00,22.00,CLR,M,M,M,M,M,M,M,M,M,M,M,M,M,M,10.41,KOOA 150135Z AUTO 34015G22KT 10SM CLR M04/M11 A3021 RMK AO2 T10451109,M
OOA,2026-01-15 01:55,23.00,13.00,65.01,330.00,12.00,0.00,30.20,M,10.00,M,CLR,M,M,M,M,M,M,M,M,M,M,M,M,M,M,10.55,KOOA 150155Z AUTO 33012KT 10SM CLR M05/M11 A3020 RMK AO2 T10501106,M
OOA,2026-01-15 02:15,23.00,13.00,65.01,330.00,13.00,0.00,30.21,M,10.00,19.00,CLR,M,M,M,M,M,M,M,M,M,M,M,M,M,M,10.04,KOOA 150215Z AUTO 33013G19KT 10SM CLR M05/M11 A3021 RMK AO2 T10501106,M
OOA,2026-01-15 02:35,22.50,12.70,65.52,330.00,13.00,0.00,30.21,M,10.00,18.00,CLR,M,M,M,M,M,M,M,M,M,M,M,M,M,M,9.40,KOOA 150235Z AUTO 33013G18KT 10SM CLR M05/M11 A3021 RMK AO2 T10531107,M
OOA,2026-01-15 02:55,22.00,12.40,66.03,340.00,14.00,0.00,30.21,M,10.00,19.00,CLR,M,M,M,M,M,M,M,M,M,M,M,M,M,M,8.27,KOOA 150255Z AUTO 34014G19KT 10SM CLR M05/M11 A3021 RMK AO2 T10551109,M
OOA,2026-01-15 03:15,21.60,12.60,67.76,340.00,11.00,0.00,30.20,M,10.00,M,CLR,M,M,M,M,M,M,M,M,M,M,M,M,M,M,9.32,KOOA 150315Z AUTO 34011KT 10SM CLR M06/M11 A3020 RMK AO2 T10581108,M
OOA,2026-01-15 03:35,21.20,12.60,68.92,340.00,12.00,0.00,30.20,M,10.00,M,CLR,M,M,M,M,M,M,M,M,M,M,M,M,M,M,8.26,KOOA 150335Z AUTO 34012KT 10SM CLR M06/M11 A3020 RMK AO2 T10601108,M
OOA,2026-01-15 03:55,21.00,12.20,68.28,340.00,11.00,0.00,30.20,M,10.00,16.00,CLR,M,M,M,M,M,M,M,M,M,M,M,M,M,M,8.57,KOOA 150355Z AUTO 34011G16KT 10SM CLR M06/M11 A3020 RMK AO2 T10621110,M
OOA,2026-01-15 04:15,20.30,12.00,69.73,340.00,10.00,0.00,30.20,M,10.00,17.00,CLR,M,M,M,M,M,M,M,M,M,M,M,M,M,M,8.30,KOOA 150415Z AUTO 34010G17KT 10SM CLR M06/M11 A3020 RMK AO2 T10651111,M
OOA,2026-01-15 04:35,19.80,12.20,71.86,330.00,10.00,0.00,30.19,M,10.00,M,CLR,M,M,M,M,M,M,M,M,M,M,M,M,M,M,7.67,KOOA 150435Z AUTO 33010KT 10SM CLR M07/M11 A3019 RMK AO2 T10681110,M
OOA,2026-01-15 04:55,19.40,12.00,72.46,340.00,9.00,0.00,30.19,M,10.00,M,CLR,M,M,M,M,M,M,M,M,M,M,M,M,M,M,7.85,KOOA 150455Z AUTO 34009KT 10SM CLR M07/M11 A3019 RMK AO2 T10701111,M
OOA,2026-01-15 05:15,19.00,12.20,74.37,330.00,9.00,0.00,30.19,M,10.00,M,CLR,M,M,M,M,M,M,M,M,M,M,M,M,M,M,7.35,KOOA 150515Z AUTO 33009KT 10SM CLR M07/M11 A3019 RMK AO2 T10731110,M
OOA,2026-01-15 05:35,18.70,12.00,74.67,340.00,8.00,0.00,30.19,M,10.00,M,CLR,M,M,M,M,M,M,M,M,M,M,M,M,M,M,7.73,KOOA 150535Z AUTO 34008KT 10SM CLR M07/M11 A3019 RMK AO2 T10741112,M
OOA,2026-01-15 05:55,18.30,12.00,75.96,340.00,8.00,0.00,30.19,M,10.00,M,CLR,M,M,M,M,M,M,M,M,M,M,M,M,M,M,7.24,KOOA 150555Z AUTO 34008KT 10SM CLR M08/M11 A3019 RMK AO2 T10761112 11035 21076 400381076,M
OOA,2026-01-15 06:15,18.00,12.00,76.95,330.00,7.00,0.00,30.19,M,10.00,M,CLR,M,M,M,M,M,M,M,M,M,M,M,M,M,M,7.71,KOOA 150615Z AUTO 33007KT 10SM CLR M08/M11 A3019 RMK AO2 T10771112,M
OOA,2026-01-15 06:35,17.60,11.50,76.57,340.00,8.00,0.00,30.18,M,10.00,M,CLR,M,M,M,M,M,M,M,M,M,M,M,M,M,M,6.37,KOOA 150635Z AUTO 34008KT 10SM CLR M08/M11 A3018 RMK AO2 T10801114,M
OOA,2026-01-15 06:55,17.20,11.70,78.60,330.00,8.00,0.00,30.18,M,10.00,M,CLR,M,M,M,M,M,M,M,M,M,M,M,M,M,M,5.88,KOOA 150655Z AUTO 33008KT 10SM CLR M08/M11 A3018 RMK AO2 T10821113,M
OOA,2026-01-15 07:15,17.00,11.70,79.28,340.00,8.00,0.00,30.17,M,10.00,M,CLR,M,M,M,M,M,M,M,M,M,M,M,M,M,M,5.64,KOOA 150715Z AUTO 34008KT 10SM CLR M08/M11 A3017 RMK AO2 T10831113,M
OOA,2026-01-15 07:35,16.70,11.30,78.90,330.00,7.00,0.00,30.17,M,10.00,M,CLR,M,M,M,M,M,M,M,M,M,M,M,M,M,M,6.13,KOOA 150735Z AUTO 33007KT 10SM CLR M08/M11 A3017 RMK AO2 T10851115,M
OOA,2026-01-15 07:55,15.80,11.30,82.05,330.00,6.00,0.00,30.16,M,10.00,M,CLR,M,M,M,M,M,M,M,M,M,M,M,M,M,M,6.02,KOOA 150755Z AUTO 33006KT 10SM CLR M09/M11 A3016 RMK AO2 T10901115,M
OOA,2026-01-15 08:15,16.70,11.30,78.90,340.00,9.00,0.00,30.15,M,10.00,M,CLR,M,M,M,M,M,M,M,M,M,M,M,M,M,M,4.49,KOOA 150815Z AUTO 34009KT 10SM CLR M08/M11 A3015 RMK AO2 T10851115,M
OOA,2026-01-15 08:35,16.00,11.30,81.33,330.00,8.00,0.00,30.16,M,10.00,M,CLR,M,M,M,M,M,M,M,M,M,M,M,M,M,M,4.40,KOOA 150835Z AUTO 33008KT 10SM CLR M09/M11 A3016 RMK AO2 T10881115,M
OOA,2026-01-15 08:55,16.30,11.00,79.22,340.00,8.00,0.00,30.15,M,10.00,M,CLR,M,M,M,M,M,M,M,M,M,M,M,M,M,M,4.77,KOOA 150855Z AUTO 34008KT 10SM CLR M09/M12 A3015 RMK AO2 T10871116,M
OOA,2026-01-15 09:15,15.60,10.80,80.94,340.00,6.00,0.00,30.14,M,10.00,M,CLR,M,M,M,M,M,M,M,M,M,M,M,M,M,M,5.78,KOOA 150915Z AUTO 34006KT 10SM CLR M09/M12 A3014 RMK AO2 T10911118,M
OOA,2026-01-15 09:35,15.00,10.40,81.62,330.00,7.00,0.00,30.15,M,10.00,M,CLR,M,M,M,M,M,M,M,M,M,M,M,M,M,M,4.06,KOOA 150935Z AUTO 33007KT 10SM CLR M09/M12 A3015 RMK AO2 T10951120,M
OOA,2026-01-15 09:55,14.00,10.20,84.51,330.00,5.00,0.00,30.14,M,10.00,M,CLR,M,M,M,M,M,M,M,M,M,M,M,M,M,M,5.02,KOOA 150955Z AUTO 33005KT 10SM CLR M10/M12 A3014 RMK AO2 T11001121,M
OOA,2026-01-15 10:15,13.60,10.00,85.24,350.00,4.00,0.00,30.13,M,10.00,M,CLR,M,M,M,M,M,M,M,M,M,M,M,M,M,M,5.93,KOOA 151015Z AUTO 35004KT 10SM CLR M10/M12 A3013 RMK AO2 T11021123,M
OOA,2026-01-15 10:35,13.60,9.50,83.36,340.00,5.00,0.00,30.13,M,10.00,M,CLR,M,M,M,M,M,M,M,M,M,M,M,M,M,M,4.54,KOOA 151035Z AUTO 34005KT 10SM CLR M10/M12 A3013 RMK AO2 T11021125,M
OOA,2026-01-15 10:55,15.00,10.00,80.17,340.00,4.00,0.00,30.13,M,10.00,M,CLR,M,M,M,M,M,M,M,M,M,M,M,M,M,M,7.57,KOOA 151055Z AUTO 34004KT 10SM CLR M09/M12 A3013 RMK AO2 T10951122,M
OOA,2026-01-15 11:15,14.40,10.00,82.30,330.00,4.00,0.00,30.14,M,10.00,M,CLR,M,M,M,M,M,M,M,M,M,M,M,M,M,M,6.87,KOOA 151115Z AUTO 33004KT 10SM CLR M10/M12 A3014 RMK AO2 T10981123,M
OOA,2026-01-15 11:35,14.00,9.50,81.91,0.00,0.00,0.00,30.13,M,10.00,M,CLR,M,M,M,M,M,M,M,M,M,M,M,M,M,M,14.00,KOOA 151135Z AUTO 00000KT 10SM CLR M10/M12 A3013 RMK AO2 T11011125,M
OOA,2026-01-15 11:55,13.60,9.50,83.36,340.00,3.00,0.00,30.12,M,10.00,M,CLR,M,M,M,M,M,M,M,M,M,M,M,M,M,M,7.65,KOOA 151155Z AUTO 34003KT 10SM CLR M10/M12 A3012 RMK AO2 T11021125 11076 21108,M
OOA,2026-01-15 12:15,13.00,8.20,80.73,0.00,0.00,0.00,30.10,M,10.00,M,CLR,M,M,M,M,M,M,M,M,M,M,M,M,M,M,13.00,KOOA 151215Z AUTO 00000KT 10SM CLR M11/M13 A3010 RMK AO2 T11061132,M
OOA,2026-01-15 12:35,13.60,9.00,81.51,0.00,0.00,0.00,30.10,M,10.00,M,CLR,M,M,M,M,M,M,M,M,M,M,M,M,M,M,13.60,KOOA 151235Z AUTO 00000KT 10SM CLR M10/M13 A3010 RMK AO2 T11021127,M
OOA,2026-01-15 12:55,11.00,7.00,83.55,0.00,0.00,0.00,30.09,M,10.00,M,CLR,M,M,M,M,M,M,M,M,M,M,M,M,M,M,11.00,KOOA 151255Z AUTO 00000KT 10SM CLR M12/M14 A3009 RMK AO2 T11161138,M
OOA,2026-01-15 13:15,10.20,7.00,86.58,240.00,4.00,0.00,30.10,M,10.00,M,CLR,M,M,M,M,M,M,M,M,M,M,M,M,M,M,1.96,KOOA 151315Z AUTO 24004KT 10SM CLR M12/M14 A3010 RMK AO2 T11211139,M
OOA,2026-01-15 13:35,12.00,8.60,85.91,250.00,5.00,0.00,30.10,M,10.00,M,CLR,M,M,M,M,M,M,M,M,M,M,M,M,M,M,2.64,KOOA 151335Z AUTO 25005KT 10SM CLR M11/M13 A3010 RMK AO2 T11121130,M
OOA,2026-01-15 13:55,12.60,9.00,85.18,240.00,4.00,0.00,30.09,M,10.00,M,CLR,M,M,M,M,M,M,M,M,M,M,M,M,M,M,4.77,KOOA 151355Z AUTO 24004KT 10SM CLR M11/M13 A3009 RMK AO2 T11081128,M
OOA,2026-01-15 14:15,12.60,9.00,85.18,240.00,4.00,0.00,30.08,M,10.00,M,CLR,M,M,M,M,M,M,M,M,M,M,M,M,M,M,4.77,KOOA 151415Z AUTO 24004KT 10SM CLR M11/M13 A3008 RMK AO2 T11081127,M
OOA,2026-01-15 14:35,15.00,11.50,85.72,210.00,3.00,0.00,30.07,M,10.00,M,CLR,M,M,M,M,M,M,M,M,M,M,M,M,M,M,9.25,KOOA 151435Z AUTO 21003KT 10SM CLR M09/M11 A3007 RMK AO2 T10941114,M
OOA,2026-01-15 14:55,17.00,12.40,81.78,190.00,5.00,0.00,30.06,M,10.00,M,CLR,M,M,M,M,M,M,M,M,M,M,M,M,M,M,8.58,KOOA 151455Z AUTO 19005KT 10SM CLR M08/M11 A3006 RMK AO2 T10841109,M
OOA,2026-01-15 15:15,18.50,12.40,76.65,220.00,6.00,0.00,30.05,M,10.00,M,CLR,M,M,M,M,M,M,M,M,M,M,M,M,M,M,9.27,KOOA 151515Z AUTO 22006KT 10SM CLR M07/M11 A3005 RMK AO2 T10751109,M
OOA,2026-01-15 15:35,19.20,10.80,69.29,210.00,6.00,0.00,30.06,M,10.00,M,CLR,M,M,M,M,M,M,M,M,M,M,M,M,M,M,10.11,KOOA 151535Z AUTO 21006KT 10SM CLR M07/M12 A3006 RMK AO2 T10711118,M
OOA,2026-01-15 15:55,20.00,11.70,69.69,210.00,6.00,0.00,30.06,M,10.00,M,CLR,M,M,M,M,M,M,M,M,M,M,M,M,M,M,11.08,KOOA 151555Z AUTO 21006KT 10SM CLR M07/M11 A3006 RMK AO2 T10661113,M
OOA,2026-01-15 16:15,21.00,12.00,67.68,200.00,6.00,0.00,30.05,M,10.00,M,CLR,M,M,M,M,M,M,M,M,M,M,M,M,M,M,12.28,KOOA 151615Z AUTO 20006KT 10SM CLR M06/M11 A3005 RMK AO2 T10611111,M
OOA,2026-01-15 16:35,22.50,11.00,60.76,200.00,7.00,0.00,30.03,M,10.00,M,CLR,M,M,M,M,M,M,M,M,M,M,M,M,M,M,13.20,KOOA 151635Z AUTO 20007KT 10SM CLR M05/M12 A3003 RMK AO2 T10531116,M
OOA,2026-01-15 16:55,23.50,11.70,60.10,200.00,6.00,0.00,30.02,M,10.00,M,CLR,M,M,M,M,M,M,M,M,M,M,M,M,M,M,15.29,KOOA 151655Z AUTO 20006KT 10SM CLR M05/M11 A3002 RMK AO2 T10471113,M
OOA,2026-01-15 17:15,24.80,11.30,55.92,190.00,8.00,0.00,29.99,M,10.00,M,CLR,M,M,M,M,M,M,M,M,M,M,M,M,M,M,15.24,KOOA 151715Z AUTO 19008KT 10SM CLR M04/M11 A2999 RMK AO2 T10401115,M
OOA,2026-01-15 17:35,26.80,12.00,53.08,200.00,10.00,0.00,29.97,M,10.00,14.00,CLR,M,M,M,M,M,M,M,M,M,M,M,M,M,M,16.45,KOOA 151735Z AUTO 20010G14KT 10SM CLR M03/M11 A2997 RMK AO2 T10291112,M
OOA,2026-01-15 17:55,27.70,12.20,51.60,200.00,10.00,0.00,29.94,M,10.00,14.00,CLR,M,M,M,M,M,M,M,M,M,M,M,M,M,M,17.58,KOOA 151755Z AUTO 20010G14KT 10SM CLR M02/M11 A2994 RMK AO2 T10241110 11024 21122,M
OOA,2026-01-15 18:15,29.00,12.40,49.36,190.00,8.00,0.00,29.93,M,10.00,M,CLR,M,M,M,M,M,M,M,M,M,M,M,M,M,M,20.42,KOOA 151815Z AUTO 19008KT 10SM CLR M02/M11 A2993 RMK AO2 T10171109,M
OOA,2026-01-15 18:35,30.20,11.70,45.57,190.00,10.00,0.00,29.90,M,10.00,M,CLR,M,M,M,M,M,M,M,M,M,M,M,M,M,M,20.71,KOOA 151835Z AUTO 19010KT 10SM CLR M01/M11 A2990 RMK AO2 T10101113,M
OOA,2026-01-15 18:55,31.60,11.30,42.29,190.00,11.00,0.00,29.88,M,10.00,17.00,CLR,M,M,M,M,M,M,M,M,M,M,M,M,M,M,21.96,KOOA 151855Z AUTO 19011G17KT 10SM CLR 00/M11 A2988 RMK AO2 T10021115,M
OOA,2026-01-15 19:15,32.00,10.60,40.34,200.00,13.00,0.00,29.86,M,10.00,M,CLR,M,M,M,M,M,M,M,M,M,M,M,M,M,M,21.57,KOOA 151915Z AUTO 20013KT 10SM CLR 00/M12 A2986 RMK AO2 T00001119,M
OOA,2026-01-15 19:35,32.70,9.70,37.67,210.00,13.00,0.00,29.85,M,10.00,M,CLR,M,M,M,M,M,M,M,M,M,M,M,M,M,M,22.47,KOOA 151935Z AUTO 21013KT 10SM CLR 00/M12 A2985 RMK AO2 T00041124,M
OOA,2026-01-15 19:55,32.00,11.00,41.06,200.00,11.00,0.00,29.84,M,10.00,14.00,CLR,M,M,M,M,M,M,M,M,M,M,M,M,M,M,22.47,KOOA 151955Z AUTO 20011G14KT 10SM CLR 00/M12 A2984 RMK AO2 T00001117,M
OOA,2026-01-15 20:15,32.00,10.60,40.34,190.00,10.00,0.00,29.84,M,10.00,M,CLR,M,M,M,M,M,M,M,M,M,M,M,M,M,M,22.97,KOOA 152015Z AUTO 19010KT 10SM CLR 00/M12 A2984 RMK AO2 T00001119,M
OOA,2026-01-15 20:35,32.40,10.60,39.69,200.00,11.00,0.00,29.84,M,10.00,M,CLR,M,M,M,M,M,M,M,M,M,M,M,M,M,M,22.97,KOOA 152035Z AUTO 20011KT 10SM CLR 00/M12 A2984 RMK AO2 T00021119,M
OOA,2026-01-15 20:55,32.50,11.30,40.78,200.00,12.00,0.00,29.83,M,10.00,M,CLR,M,M,M,M,M,M,M,M,M,M,M,M,M,M,22.64,KOOA 152055Z AUTO 20012KT 10SM CLR 00/M11 A2983 RMK AO2 T00031115,M
OOA,2026-01-15 21:15,33.00,11.70,40.69,190.00,12.00,0.00,29.81,M,10.00,M,CLR,M,M,M,M,M,M,M,M,M,M,M,M,M,M,23.27,KOOA 152115Z AUTO 19012KT 10SM CLR 01/M11 A2981 RMK AO2 T00051113,M
OOA,2026-01-15 21:35,33.00,10.00,37.72,190.00,12.00,0.00,29.80,M,10.00,16.00,CLR,M,M,M,M,M,M,M,M,M,M,M,M,M,M,23.27,KOOA 152135Z AUTO 19012G16KT 10SM CLR 01/M12 A2980 RMK AO2 T00061122,M
OOA,2026-01-15 21:55,33.00,11.00,39.44,180.00,13.00,0.00,29.77,M,10.00,M,CLR,M,M,M,M,M,M,M,M,M,M,M,M,M,M,22.85,KOOA 152155Z AUTO 18013KT 10SM CLR 01/M12 A2977 RMK AO2 T00051116,M
OOA,2026-01-15 22:15,33.00,11.00,39.44,190.00,11.00,0.00,29.77,M,10.00,M,CLR,M,M,M,M,M,M,M,M,M,M,M,M,M,M,23.73,KOOA 152215Z AUTO 19011KT 10SM CLR 01/M12 A2977 RMK AO2 T00051116,M
OOA,2026-01-15 22:35,33.00,12.00,41.23,190.00,11.00,0.00,29.74,M,10.00,16.00,CLR,M,M,M,M,M,M,M,M,M,M,M,M,M,M,23.73,KOOA 152235Z AUTO 19011G16KT 10SM CLR 01/M11 A2974 RMK AO2 T00051111,M
OOA,2026-01-15 22:55,32.50,11.30,40.78,180.00,14.00,0.00,29.73,M,10.00,M,CLR,M,M,M,M,M,M,M,M,M,M,M,M,M,M,21.81,KOOA 152255Z AUTO 18014KT 10SM CLR 00/M11 A2973 RMK AO2 T00031115,M
OOA,2026-01-15 23:15,32.40,12.20,42.62,200.00,13.00,0.00,29.72,M,10.00,M,CLR,M,M,M,M,M,M,M,M,M,M,M,M,M,M,22.08,KOOA 152315Z AUTO 20013KT 10SM CLR 00/M11 A2972 RMK AO2 T00021110,M
OOA,2026-01-15 23:35,31.00,17.00,55.64,190.00,18.00,0.00,29.71,M,7.00,21.00,CLR,M,M,M,M,M,M,M,M,M,M,M,M,M,M,18.43,KOOA 152335Z AUTO 19018G21KT 7SM CLR 00/M08 A2971 RMK AO2 T10051084,M
OOA,2026-01-15 23:55,32.00,14.50,47.92,200.00,10.00,0.00,29.72,M,10.00,16.00,CLR,M,M,M,M,M,M,M,M,M,M,M,M,M,M,22.97,KOOA 152355Z AUTO 20010G16KT 10SM CLR 00/M10 A2972 RMK AO2 T00001097 10007 21023,M
OOA,2026-01-16 00:15,32.00,13.00,44.87,220.00,13.00,0.00,29.74,M,10.00,17.00,CLR,M,M,M,M,M,M,M,M,M,M,M,M,M,M,21.57,KOOA 160015Z AUTO 22013G17KT 10SM CLR 00/M10 A2974 RMK AO2 T00011105,M
OOA,2026-01-16 00:35,32.00,14.00,46.89,230.00,11.00,0.00,29.74,M,10.00,M,CLR,M,M,M,M,M,M,M,M,M,M,M,M,M,M,22.47,KOOA 160035Z AUTO 23011KT 10SM CLR 00/M10 A2974 RMK AO2 T00011101,M
OOA,2026-01-16 00:55,32.00,14.40,47.71,220.00,13.00,0.00,29.73,M,10.00,M,CLR,M,M,M,M,M,M,M,M,M,M,M,M,M,M,21.57,KOOA 160055Z AUTO 22013KT 10SM CLR 00/M10 A2973 RMK AO2 T00001098,M
OOA,2026-01-16 01:15,32.00,15.60,50.28,230.00,14.00,0.00,29.73,M,10.00,18.00,CLR,M,M,M,M,M,M,M,M,M,M,M,M,M,M,21.16,KOOA 160115Z AUTO 23014G18KT 10SM CLR 00/M09 A2973 RMK AO2 T00011091,M
OOA,2026-01-16 01:35,32.00,17.20,53.90,230.00,14.00,0.00,29.73,M,10.00,M,CLR,M,M,M,M,M,M,M,M,M,M,M,M,M,M,21.16,KOOA 160135Z AUTO 23014KT 10SM CLR 00/M08 A2973 RMK AO2 T00001082,M
OOA,2026-01-16 01:55,32.00,17.40,54.36,220.00,12.00,0.00,29.72,M,10.00,M,CLR,M,M,M,M,M,M,M,M,M,M,M,M,M,M,22.00,KOOA 160155Z AUTO 22012KT 10SM CLR 00/M08 A2972 RMK AO2 T00001081,M
OOA,2026-01-16 02:15,32.00,17.60,54.84,220.00,11.00,0.00,29.70,M,10.00,17.00,CLR,M,M,M,M,M,M,M,M,M,M,M,M,M,M,22.47,KOOA 160215Z AUTO 22011G17KT 10SM CLR 00/M08 A2970 RMK AO2 T00001080,M
OOA,2026-01-16 02:35,32.00,17.40,54.36,220.00,12.00,0.00,29.70,M,10.00,M,CLR,M,M,M,M,M,M,M,M,M,M,M,M,M,M,22.00,KOOA 160235Z AUTO 22012KT 10SM CLR 00/M08 A2970 RMK AO2 T00001081,M
OOA,2026-01-16 02:55,32.00,17.60,54.84,220.00,12.00,0.00,29.69,M,10.00,M,CLR,M,M,M,M,M,M,M,M,M,M,M,M,M,M,22.00,KOOA 160255Z AUTO 22012KT 10SM CLR 00/M08 A2969 RMK AO2 T00001080,M
OOA,2026-01-16 03:15,32.00,17.60,54.84,230.00,10.00,0.00,29.69,M,10.00,M,CLR,M,M,M,M,M,M,M,M,M,M,M,M,M,M,22.97,KOOA 160315Z AUTO 23010KT 10SM CLR 00/M08 A2969 RMK AO2 T00001080,M
OOA,2026-01-16 03:35,32.00,17.60,54.84,220.00,11.00,0.00,29.67,M,10.00,M,CLR,M,M,M,M,M,M,M,M,M,M,M,M,M,M,22.47,KOOA 160335Z AUTO 22011KT 10SM CLR 00/M08 A2967 RMK AO2 T00001080,M
OOA,2026-01-16 03:55,31.00,17.80,57.59,220.00,9.00,0.00,29.66,M,10.00,M,CLR,M,M,M,M,M,M,M,M,M,M,M,M,M,M,22.27,KOOA 160355Z AUTO 22009KT 10SM CLR 00/M08 A2966 RMK AO2 T10051079,M
OOA,2026-01-16 04:15,30.40,18.00,59.52,210.00,8.00,0.00,29.64,M,10.00,M,CLR,M,M,M,M,M,M,M,M,M,M,M,M,M,M,22.14,KOOA 160415Z AUTO 21008KT 10SM CLR M01/M08 A2964 RMK AO2 T10091078,M
OOA,2026-01-16 04:35,29.30,18.30,63.06,210.00,8.00,0.00,29.63,M,10.00,M,CLR,M,M,M,M,M,M,M,M,M,M,M,M,M,M,20.79,KOOA 160435Z AUTO 21008KT 10SM CLR M01/M08 A2963 RMK AO2 T10151076,M
OOA,2026-01-16 04:55,30.00,18.50,61.82,230.00,9.00,0.00,29.64,M,10.00,M,CLR,M,M,M,M,M,M,M,M,M,M,M,M,M,M,21.03,KOOA 160455Z AUTO 23009KT 10SM CLR M01/M07 A2964 RMK AO2 T10111075,M
OOA,2026-01-16 05:15,29.30,19.00,64.99,220.00,7.00,0.00,29.63,M,10.00,M,CLR,M,M,M,M,M,M,M,M,M,M,M,M,M,M,21.49,KOOA 160515Z AUTO 22007KT 10SM CLR M01/M07 A2963 RMK AO2 T10151073,M
OOA,2026-01-16 05:35,29.30,19.40,66.11,210.00,9.00,0.00,29.61,M,10.00,M,CLR,M,M,M,M,M,M,M,M,M,M,M,M,M,M,20.16,KOOA 160535Z AUTO 21009KT 10SM CLR M01/M07 A2961 RMK AO2 T10151070,M
OOA,2026-01-16 05:55,29.30,19.20,65.54,240.00,12.00,0.00,29.62,M,10.00,M,CLR,M,M,M,M,M,M,M,M,M,M,M,M,M,M,18.57,KOOA 160555Z AUTO 24012KT 10SM CLR M01/M07 A2962 RMK AO2 T10151071 10001 21015 400071122,M
OOA,2026-01-16 06:15,31.00,20.00,63.29,240.00,9.00,0.00,29.62,M,10.00,M,SCT,M,M,M,11000.00,M,M,M,M,M,M,M,M,M,M,22.27,KOOA 160615Z AUTO 24009KT 10SM SCT110 M01/M07 A2962 RMK AO2 T10061067,M
OOA,2026-01-16 06:35,31.00,20.70,65.21,240.00,8.00,0.00,29.60,M,10.00,M,SCT,M,M,M,11000.00,M,M,M,M,M,M,M,M,M,M,22.88,KOOA 160635Z AUTO 24008KT 10SM SCT110 M01/M06 A2960 RMK AO2 T10061063,M
OOA,2026-01-16 06:55,31.60,21.00,64.46,240.00,11.00,0.00,29.60,M,10.00,M,CLR,M,M,M,M,M,M,M,M,M,M,M,M,M,M,21.96,KOOA 160655Z AUTO 24011KT 10SM CLR 00/M06 A2960 RMK AO2 T10021061,M
OOA,2026-01-16 07:15,32.00,21.20,63.97,250.00,10.00,0.00,29.60,M,10.00,M,CLR,M,M,M,M,M,M,M,M,M,M,M,M,M,M,22.97,KOOA 160715Z AUTO 25010KT 10SM CLR 00/M06 A2960 RMK AO2 T00001060,M
OOA,2026-01-16 07:35,32.00,22.00,66.17,250.00,10.00,0.00,29.60,M,10.00,M,CLR,M,M,M,M,M,M,M,M,M,M,M,M,M,M,22.97,KOOA 160735Z AUTO 25010KT 10SM CLR 00/M06 A2960 RMK AO2 T00001056,M
OOA,2026-01-16 07:55,32.00,22.50,67.58,270.00,8.00,0.00,29.61,M,10.00,M,CLR,M,M,M,M,M,M,M,M,M,M,M,M,M,M,24.11,KOOA 160755Z AUTO 27008KT 10SM CLR 00/M05 A2961 RMK AO2 T00001053,M
OOA,2026-01-16 08:15,32.00,23.00,69.02,260.00,8.00,0.00,29.61,M,10.00,M,CLR,M,M,M,M,M,M,M,M,M,M,M,M,M,M,24.11,KOOA 160815Z AUTO 26008KT 10SM CLR 00/M05 A2961 RMK AO2 T00001049,M
OOA,2026-01-16 08:35,32.40,24.40,72.02,280.00,8.00,0.00,29.61,M,10.00,M,CLR,M,M,M,M,M,M,M,M,M,M,M,M,M,M,24.61,KOOA 160835Z AUTO 28008KT 10SM CLR 00/M04 A2961 RMK AO2 T00021042,M
OOA,2026-01-16 08:55,33.00,26.00,75.15,280.00,9.00,0.00,29.61,M,10.00,M,CLR,M,M,M,M,M,M,M,M,M,M,M,M,M,M,24.76,KOOA 160855Z AUTO 28009KT 10SM CLR 01/M03 A2961 RMK AO2 T00061034,M
OOA,2026-01-16 09:15,33.40,26.60,75.81,270.00,9.00,0.00,29.60,M,10.00,M,CLR,M,M,M,M,M,M,M,M,M,M,M,M,M,M,25.25,KOOA 160915Z AUTO 27009KT 10SM CLR 01/M03 A2960 RMK AO2 T00081030,M
OOA,2026-01-16 09:35,33.80,26.60,74.61,280.00,11.00,0.00,29.60,M,10.00,M,CLR,M,M,M,M,M,M,M,M,M,M,M,M,M,M,24.74,KOOA 160935Z AUTO 28011KT 10SM CLR 01/M03 A2960 RMK AO2 T00101030,M
OOA,2026-01-16 09:55,35.00,28.20,75.97,290.00,15.00,0.00,29.60,M,10.00,M,CLR,M,M,M,M,M,M,M,M,M,M,M,M,M,M,24.67,KOOA 160955Z AUTO 29015KT 10SM CLR 02/M02 A2960 RMK AO2 T00171021,M
OOA,2026-01-16 10:15,37.40,32.00,80.64,310.00,21.00,0.00,29.61,M,10.00,26.00,CLR,M,M,M,M,M,M,M,M,M,M,M,M,M,M,26.06,KOOA 161015Z AUTO 31021G26KT 10SM CLR 03/00 A2961 RMK AO2 T00301001,M
OOA,2026-01-16 10:35,37.60,31.60,78.72,300.00,18.00,0.00,29.61,M,10.00,28.00,CLR,M,M,M,M,M,M,M,M,M,M,M,M,M,M,27.12,KOOA 161035Z AUTO 30018G28KT 10SM CLR 03/00 A2961 RMK AO2 T00311002,M
OOA,2026-01-16 10:55,38.00,32.00,78.76,300.00,23.00,0.00,29.61,M,10.00,27.00,CLR,M,M,M,M,M,M,M,M,M,M,M,M,M,M,26.38,KOOA 161055Z AUTO 30023G27KT 10SM CLR 03/00 A2961 RMK AO2 T00330000,M
OOA,2026-01-16 11:15,37.40,32.00,80.64,300.00,18.00,0.00,29.61,M,10.00,22.00,CLR,M,M,M,M,M,M,M,M,M,M,M,M,M,M,26.86,KOOA 161115Z AUTO 30018G22KT 10SM CLR 03/00 A2961 RMK AO2 T00301001,M
OOA,2026-01-16 11:35,37.40,31.00,77.44,300.00,21.00,0.00,29.62,M,10.00,26.00,CLR,M,M,M,M,M,M,M,M,M,M,M,M,M,M,26.06,KOOA 161135Z AUTO 30021G26KT 10SM CLR 03/00 A2962 RMK AO2 T00301005,M
OOA,2026-01-16 11:55,37.40,31.00,77.44,290.00,15.00,0.00,29.62,M,10.00,M,CLR,M,M,M,M,M,M,M,M,M,M,M,M,M,M,27.78,KOOA 161155Z AUTO 29015KT 10SM CLR 03/00 A2962 RMK AO2 T00301005 10035 21014,M
OOA,2026-01-16 12:15,35.40,30.40,81.80,280.00,12.00,0.00,29.62,M,10.00,M,CLR,M,M,M,M,M,M,M,M,M,M,M,M,M,M,26.33,KOOA 161215Z AUTO 28012KT 10SM CLR 02/M01 A2962 RMK AO2 T00191009,M
OOA,2026-01-16 12:35,34.00,30.00,85.10,280.00,12.00,0.00,29.62,M,10.00,M,CLR,M,M,M,M,M,M,M,M,M,M,M,M,M,M,24.55,KOOA 161235Z AUTO 28012KT 10SM CLR 01/M01 A2962 RMK AO2 T00111012,M
OOA,2026-01-16 12:55,33.80,30.00,85.78,280.00,15.00,0.00,29.63,M,10.00,M,CLR,M,M,M,M,M,M,M,M,M,M,M,M,M,M,23.11,KOOA 161255Z AUTO 28015KT 10SM CLR 01/M01 A2963 RMK AO2 T00101012,M
OOA,2026-01-16 13:15,33.30,29.00,84.01,280.00,12.00,0.00,29.63,M,10.00,M,CLR,M,M,M,M,M,M,M,M,M,M,M,M,M,M,23.66,KOOA 161315Z AUTO 28012KT 10SM CLR 01/M02 A2963 RMK AO2 T00071016,M
OOA,2026-01-16 13:35,33.00,29.00,85.03,280.00,12.00,0.00,29.63,M,10.00,M,CLR,M,M,M,M,M,M,M,M,M,M,M,M,M,M,23.27,KOOA 161335Z AUTO 28012KT 10SM CLR 01/M02 A2963 RMK AO2 T00061016,M
OOA,2026-01-16 13:55,35.00,29.70,80.77,280.00,14.00,0.00,29.63,M,10.00,M,CLR,M,M,M,M,M,M,M,M,M,M,M,M,M,M,25.03,KOOA 161355Z AUTO 28014KT 10SM CLR 02/M01 A2963 RMK AO2 T00161013,M
OOA,2026-01-16 14:15,35.60,30.00,79.84,280.00,14.00,0.00,29.64,M,10.00,18.00,CLR,M,M,M,M,M,M,M,M,M,M,M,M,M,M,25.80,KOOA 161415Z AUTO 28014G18KT 10SM CLR 02/M01 A2964 RMK AO2 T00201011,M
OOA,2026-01-16 14:35,36.70,30.20,77.06,290.00,16.00,0.00,29.64,M,10.00,20.00,CLR,M,M,M,M,M,M,M,M,M,M,M,M,M,M,26.54,KOOA 161435Z AUTO 29016G20KT 10SM CLR 03/M01 A2964 RMK AO2 T00261010,M
OOA,2026-01-16 14:55,37.40,30.60,76.19,280.00,17.00,0.00,29.65,M,10.00,M,CLR,M,M,M,M,M,M,M,M,M,M,M,M,M,M,27.15,KOOA 161455Z AUTO 28017KT 10SM CLR 03/M01 A2965 RMK AO2 T00301008,M
OOA,2026-01-16 15:15,38.00,30.20,73.22,290.00,18.00,0.00,29.65,M,10.00,24.00,CLR,M,M,M,M,M,M,M,M,M,M,M,M,M,M,27.65,KOOA 161515Z AUTO 29018G24KT 10SM CLR 03/M01 A2965 RMK AO2 T00331010,M
OOA,2026-01-16 15:35,38.30,30.00,71.78,290.00,19.00,0.00,29.65,M,10.00,25.00,CLR,M,M,M,M,M,M,M,M,M,M,M,M,M,M,27.77,KOOA 161535Z AUTO 29019G25KT 10SM CLR 04/M01 A2965 RMK AO2 T00351011,M
OOA,2026-01-16 15:55,39.20,29.70,68.45,290.00,21.00,0.00,29.66,M,10.00,24.00,SCT,SCT,M,M,4800.00,5500.00,M,M,M,M,M,M,M,M,M,28.46,KOOA 161555Z AUTO 29021G24KT 10SM SCT048 SCT055 04/M01 A2966 RMK AO2 T00401013,M
OOA,2026-01-16 16:15,39.40,29.70,67.92,290.00,15.00,0.00,29.66,M,10.00,24.00,CLR,M,M,M,M,M,M,M,M,M,M,M,M,M,M,30.37,KOOA 161615Z AUTO 29015G24KT 10SM CLR 04/M01 A2966 RMK AO2 T00411013,M
OOA,2026-01-16 16:35,39.60,29.30,66.30,280.00,20.00,0.00,29.66,M,10.00,23.00,CLR,M,M,M,M,M,M,M,M,M,M,M,M,M,M,29.23,KOOA 161635Z AUTO 28020G23KT 10SM CLR 04/M01 A2966 RMK AO2 T00421015,M
OOA,2026-01-16 16:55,40.00,29.00,64.48,290.00,18.00,0.00,29.66,M,10.00,M,CLR,M,M,M,M,M,M,M,M,M,M,M,M,M,M,30.28,KOOA 161655Z AUTO 29018KT 10SM CLR 05/M02 A2966 RMK AO2 T00451016,M
OOA,2026-01-16 17:15,40.00,27.50,60.63,300.00,23.00,0.00,29.66,M,10.00,30.00,CLR,M,M,M,M,M,M,M,M,M,M,M,M,M,M,29.07,KOOA 161715Z AUTO 30023G30KT 10SM CLR 05/M02 A2966 RMK AO2 T00451025,M
OOA,2026-01-16 17:35,40.30,27.00,58.70,300.00,21.00,0.00,29.66,M,10.00,28.00,SCT,M,M,M,7500.00,M,M,M,M,M,M,M,M,M,M,29.92,KOOA 161735Z AUTO 30021G28KT 10SM SCT075 05/M03 A2966 RMK AO2 T00461027,M
OOA,2026-01-16 17:55,40.60,26.00,55.67,290.00,22.00,0.00,29.66,M,10.00,30.00,SCT,M,M,M,7500.00,M,M,M,M,M,M,M,M,M,M,30.09,KOOA 161755Z AUTO 29022G30KT 10SM SCT075 05/M03 A2966 RMK AO2 T00481033 10048 20003,M
OOA,2026-01-16 18:15,41.00,21.20,44.82,320.00,20.00,0.00,29.66,M,10.00,26.00,SCT,M,M,M,7500.00,M,M,M,M,M,M,M,M,M,M,31.09,KOOA 161815Z AUTO 32020G26KT 10SM SCT075 05/M06 A2966 RMK AO2 T00491060,M
OOA,2026-01-16 18:35,39.40,18.70,42.87,310.00,24.00,0.00,29.66,M,10.00,33.00,SCT,M,M,M,7500.00,M,M,M,M,M,M,M,M,M,M,28.04,KOOA 161835Z AUTO 31024G33KT 10SM SCT075 04/M07 A2966 RMK AO2 T00411074,M
OOA,2026-01-16 18:55,38.50,18.00,43.09,310.00,27.00,0.00,29.67,M,10.00,36.00,SCT,M,M,M,8500.00,M,M,M,M,M,M,M,M,M,M,26.20,KOOA 161855Z AUTO 31027G36KT 10SM SCT085 04/M08 A2967 RMK AO2 T00361078,M
OOA,2026-01-16 19:15,37.80,19.60,47.43,310.00,16.00,0.00,29.66,M,10.00,24.00,SCT,SCT,M,M,7000.00,10000.00,M,M,M,M,M,M,M,M,M,27.98,KOOA 161915Z AUTO 31016G24KT 10SM SCT070 SCT100 03/M07 A2966 RMK AO2 T00321069,M
OOA,2026-01-16 19:35,37.40,18.00,44.99,300.00,23.00,0.00,29.67,M,10.00,30.00,SCT,SCT,M,M,8000.00,10000.00,M,M,M,M,M,M,M,M,M,25.57,KOOA 161935Z AUTO 30023G30KT 10SM SCT080 SCT100 03/M08 A2967 RMK AO2 T00301077,M
OOA,2026-01-16 19:55,37.00,19.20,48.12,300.00,21.00,0.00,29.66,M,10.00,26.00,SCT,SCT,M,M,8000.00,9000.00,M,M,M,M,M,M,M,M,M,25.52,KOOA 161955Z AUTO 30021G26KT 10SM SCT080 SCT090 03/M07 A2966 RMK AO2 T00281071,M
OOA,2026-01-16 20:15,37.40,20.00,49.01,300.00,21.00,0.00,29.67,M,10.00,27.00,SCT,M,M,M,8000.00,M,M,M,M,M,M,M,M,M,M,26.06,KOOA 162015Z AUTO 30021G27KT 10SM SCT080 03/M07 A2967 RMK AO2 T00301067,M
OOA,2026-01-16 20:35,37.00,20.00,49.79,290.00,13.00,0.00,29.67,M,10.00,20.00,CLR,M,M,M,M,M,M,M,M,M,M,M,M,M,M,27.97,KOOA 162035Z AUTO 29013G20KT 10SM CLR 03/M07 A2967 RMK AO2 T00271066,M
OOA,2026-01-16 20:55,36.00,20.00,51.80,290.00,17.00,0.00,29.68,M,10.00,25.00,CLR,M,M,M,M,M,M,M,M,M,M,M,M,M,M,25.32,KOOA 162055Z AUTO 29017G25KT 10SM CLR 02/M07 A2968 RMK AO2 T00221067,M
OOA,2026-01-16 21:15,35.80,20.00,52.21,280.00,24.00,0.00,29.68,M,10.00,29.00,CLR,M,M,M,M,M,M,M,M,M,M,M,M,M,M,23.19,KOOA 162115Z AUTO 28024G29KT 10SM CLR 02/M07 A2968 RMK AO2 T00211066,M
OOA,2026-01-16 21:35,33.60,19.00,54.61,320.00,19.00,0.00,29.70,M,10.00,23.00,CLR,M,M,M,M,M,M,M,M,M,M,M,M,M,M,21.55,KOOA 162135Z AUTO 32019G23KT 10SM CLR 01/M07 A2970 RMK AO2 T00091073,M
OOA,2026-01-16 21:55,32.40,16.70,51.90,320.00,23.00,0.00,29.71,M,10.00,29.00,CLR,M,M,M,M,M,M,M,M,M,M,M,M,M,M,18.85,KOOA 162155Z AUTO 32023G29KT 10SM CLR 00/M08 A2971 RMK AO2 T00021085,M
OOA,2026-01-16 22:15,32.00,17.60,54.84,310.00,23.00,0.00,29.72,M,10.00,30.00,CLR,M,M,M,M,M,M,M,M,M,M,M,M,M,M,18.31,KOOA 162215Z AUTO 31023G30KT 10SM CLR 00/M08 A2972 RMK AO2 T00001080,M
OOA,2026-01-16 22:35,31.00,18.30,58.85,310.00,23.00,0.00,29.73,M,10.00,27.00,CLR,M,M,M,M,M,M,M,M,M,M,M,M,M,M,16.97,KOOA 162235Z AUTO 31023G27KT 10SM CLR 00/M08 A2973 RMK AO2 T10051076,M
OOA,2026-01-16 22:55,31.00,17.00,55.64,310.00,22.00,0.00,29.74,M,10.00,28.00,CLR,M,M,M,M,M,M,M,M,M,M,M,M,M,M,17.24,KOOA 162255Z AUTO 31022G28KT 10SM CLR 00/M08 A2974 RMK AO2 T10051083,M
OOA,2026-01-16 23:15,30.20,17.20,57.97,310.00,19.00,0.00,29.76,M,10.00,30.00,CLR,M,M,M,M,M,M,M,M,M,M,M,M,M,M,17.06,KOOA 162315Z AUTO 31019G30KT 10SM CLR M01/M08 A2976 RMK AO2 T10101082,M
OOA,2026-01-16 23:35,29.30,17.80,61.72,300.00,18.00,0.00,29.77,M,10.00,25.00,CLR,M,M,M,M,M,M,M,M,M,M,M,M,M,M,16.19,KOOA 162335Z AUTO 30018G25KT 10SM CLR M01/M08 A2977 RMK AO2 T10151079,M
OOA,2026-01-16 23:55,29.00,16.50,59.07,300.00,16.00,0.00,29.78,M,10.00,24.00,CLR,M,M,M,M,M,M,M,M,M,M,M,M,M,M,16.51,KOOA 162355Z AUTO 30016G24KT 10SM CLR M02/M09 A2978 RMK AO2 T10171086 10050 21017,M
OOA,2026-01-17 00:15,28.40,17.20,62.40,310.00,18.00,0.00,29.79,M,10.00,24.00,CLR,M,M,M,M,M,M,M,M,M,M,M,M,M,M,15.01,KOOA 170015Z AUTO 31018G24KT 10SM CLR M02/M08 A2979 RMK AO2 T10201082,M
OOA,2026-01-17 00:35,27.50,15.80,60.94,310.00,23.00,0.00,29.80,M,10.00,29.00,SCT,SCT,SCT,M,4800.00,6000.00,7000.00,M,M,M,M,M,M,M,M,12.27,KOOA 170035Z AUTO 31023G29KT 10SM SCT048 SCT060 SCT070 M02/M09 A2980 RMK AO2 T10251090,M
OOA,2026-01-17 00:55,26.60,15.80,63.24,310.00,23.00,0.00,29.81,M,10.00,28.00,SCT,SCT,SCT,M,5000.00,7000.00,8500.00,M,M,M,M,M,M,M,M,11.06,KOOA 170055Z AUTO 31023G28KT 10SM SCT050 SCT070 SCT085 M03/M09 A2981 RMK AO2 T10301090,M
OOA,2026-01-17 01:15,26.20,15.80,64.30,310.00,21.00,0.00,29.82,M,10.00,27.00,SCT,SCT,BKN,M,5000.00,7000.00,9000.00,M,M,M,M,M,M,M,M,11.12,KOOA 170115Z AUTO 31021G27KT 10SM SCT050 SCT070 BKN090 M03/M09 A2982 RMK AO2 T10321090,M
OOA,2026-01-17 01:35,25.00,14.50,63.86,300.00,26.00,0.00,29.84,M,10.00,34.00,SCT,SCT,SCT,M,6000.00,7000.00,8500.00,M,M,M,M,M,M,M,M,8.07,KOOA 170135Z AUTO 30026G34KT 10SM SCT060 SCT070 SCT085 M04/M10 A2984 RMK AO2 T10381097,M
OOA,2026-01-17 01:55,24.00,12.00,59.64,310.00,19.00,0.00,29.84,M,10.00,26.00,SCT,SCT,M,M,6500.00,8500.00,M,M,M,M,M,M,M,M,M,8.86,KOOA 170155Z AUTO 31019G26KT 10SM SCT065 SCT085 M04/M11 A2984 RMK AO2 T10441111,M
OOA,2026-01-17 02:15,23.00,6.40,48.37,310.00,22.00,0.00,29.85,M,10.00,30.00,SCT,SCT,BKN,M,5000.00,6500.00,8500.00,M,M,M,M,M,M,M,M,6.53,KOOA 170215Z AUTO 31022G30KT 10SM SCT050 SCT065 BKN085 M05/M14 A2985 RMK AO2 T10501142,M
OOA,2026-01-17 02:35,22.50,6.60,49.85,310.00,19.00,0.00,29.85,M,10.00,25.00,SCT,SCT,SCT,M,5000.00,6500.00,7500.00,M,M,M,M,M,M,M,M,6.87,KOOA 170235Z AUTO 31019G25KT 10SM SCT050 SCT065 SCT075 M05/M14 A2985 RMK AO2 T10531141,M
OOA,2026-01-17 02:55,21.70,6.00,50.17,310.00,16.00,0.00,29.86,M,10.00,24.00,SCT,SCT,SCT,M,5000.00,6500.00,7500.00,M,M,M,M,M,M,M,M,6.99,KOOA 170255Z AUTO 31016G24KT 10SM SCT050 SCT065 SCT075 M06/M14 A2986 RMK AO2 T10571144,M
OOA,2026-01-17 03:15,21.60,7.70,54.43,310.00,21.00,0.00,29.87,M,10.00,M,CLR,M,M,M,M,M,M,M,M,M,M,M,M,M,M,4.98,KOOA 170315Z AUTO 31021KT 10SM CLR M06/M13 A2987 RMK AO2 T10581135,M
OOA,2026-01-17 03:35,20.50,11.30,67.02,310.00,19.00,0.00,29.87,M,7.00,26.00,CLR,M,M,M,M,M,M,M,M,M,M,M,M,M,M,4.23,KOOA 170335Z AUTO 31019G26KT 7SM CLR M06/M11 A2987 RMK AO2 T10641115,M
OOA,2026-01-17 03:55,19.20,15.00,83.39,310.00,18.00,0.00,29.88,M,1.00,23.00,VV ,M,M,M,700.00,M,M,M,M,M,M,M,M,M,M,2.90,KOOA 170355Z AUTO 31018G23KT 1SM VV007 M07/M09 A2988 RMK AO2 T10711095,M
OOA,2026-01-17 04:15,18.50,10.20,69.51,310.00,23.00,0.00,29.89,M,10.00,30.00,CLR,M,M,M,M,M,M,M,M,M,M,M,M,M,M,0.17,KOOA 170415Z AUTO 31023G30KT 10SM CLR M07/M12 A2989 RMK AO2 T10751121,M
OOA,2026-01-17 04:35,17.20,8.60,68.43,300.00,21.00,0.00,29.90,M,10.00,26.00,CLR,M,M,M,M,M,M,M,M,M,M,M,M,M,M,-0.89,KOOA 170435Z AUTO 30021G26KT 10SM CLR M08/M13 A2990 RMK AO2 T10821130,M
OOA,2026-01-17 04:55,16.70,8.20,68.67,300.00,14.00,0.00,29.90,M,10.00,22.00,CLR,M,M,M,M,M,M,M,M,M,M,M,M,M,M,1.44,KOOA 170455Z AUTO 30014G22KT 10SM CLR M08/M13 A2990 RMK AO2 T10851132,M
OOA,2026-01-17 05:15,15.60,6.00,65.20,300.00,21.00,0.00,29.92,M,10.00,27.00,CLR,M,M,M,M,M,M,M,M,M,M,M,M,M,M,-3.02,KOOA 170515Z AUTO 30021G27KT 10SM CLR M09/M14 A2992 RMK AO2 T10911145,M
OOA,2026-01-17 05:35,15.00,5.00,63.93,300.00,20.00,0.00,29.92,M,10.00,27.00,CLR,M,M,M,M,M,M,M,M,M,M,M,M,M,M,-3.44,KOOA 170535Z AUTO 30020G27KT 10SM CLR M09/M15 A2992 RMK AO2 T10951150,M
OOA,2026-01-17 05:55,14.50,3.70,61.56,300.00,16.00,0.00,29.92,M,10.00,23.00,CLR,M,M,M,M,M,M,M,M,M,M,M,M,M,M,-2.39,KOOA 170555Z AUTO 30016G23KT 10SM CLR M10/M16 A2992 RMK AO2 T10971157 11017 21097 400501097,M
OOA,2026-01-17 06:15,14.00,3.20,61.49,300.00,14.00,0.00,29.92,M,10.00,22.00,CLR,M,M,M,M,M,M,M,M,M,M,M,M,M,M,-2.04,KOOA 170615Z AUTO 30014G22KT 10SM CLR M10/M16 A2992 RMK AO2 T11001160,M
OOA,2026-01-17 06:35,13.60,3.20,62.58,300.00,15.00,0.00,29.92,M,10.00,22.00,CLR,M,M,M,M,M,M,M,M,M,M,M,M,M,M,-3.07,KOOA 170635Z AUTO 30015G22KT 10SM CLR M10/M16 A2992 RMK AO2 T11021160,M
OOA,2026-01-17 06:55,13.00,3.40,64.85,300.00,12.00,0.00,29.92,M,10.00,M,CLR,M,M,M,M,M,M,M,M,M,M,M,M,M,M,-2.18,KOOA 170655Z AUTO 30012KT 10SM CLR M10/M16 A2992 RMK AO2 T11051159,M
OOA,2026-01-17 07:15,13.00,3.20,64.25,300.00,14.00,0.00,29.92,M,10.00,M,CLR,M,M,M,M,M,M,M,M,M,M,M,M,M,M,-3.33,KOOA 170715Z AUTO 30014KT 10SM CLR M11/M16 A2992 RMK AO2 T11061160,M
OOA,2026-01-17 07:35,13.00,3.20,64.25,300.00,12.00,0.00,29.92,M,10.00,M,CLR,M,M,M,M,M,M,M,M,M,M,M,M,M,M,-2.18,KOOA 170735Z AUTO 30012KT 10SM CLR M11/M16 A2992 RMK AO2 T11061160,M
OOA,2026-01-17 07:55,13.00,3.40,64.85,300.00,13.00,0.00,29.92,M,10.00,M,CLR,M,M,M,M,M,M,M,M,M,M,M,M,M,M,-2.77,KOOA 170755Z AUTO 30013KT 10SM CLR M11/M16 A2992 RMK AO2 T11061159,M
OOA,2026-01-17 08:15,13.00,5.00,69.80,280.00,13.00,0.00,29.93,M,10.00,M,CLR,M,M,M,M,M,M,M,M,M,M,M,M,M,M,-2.77,KOOA 170815Z AUTO 28013KT 10SM CLR M10/M15 A2993 RMK AO2 T11051151,M
OOA,2026-01-17 08:35,13.00,8.00,80.00,290.00,14.00,0.00,29.94,M,2.50,18.00,M,M,M,M,M,M,M,M,M,M,M,M,M,M,M,-3.33,KOOA 170835Z AUTO 29014G18KT 2 1/2SM M10/M13 A2994 RMK AO2 SKY OBSCURED VIS 1 1/2V5 T11051133,M
OOA,2026-01-17 08:55,12.20,6.80,78.50,290.00,12.00,0.00,29.94,M,5.00,M,CLR,M,M,M,M,M,M,M,M,M,M,M,M,M,M,-3.20,KOOA 170855Z AUTO 29012KT 5SM CLR M11/M14 A2994 RMK AO2 T11101140,M
OOA,2026-01-17 09:15,12.00,2.70,65.62,300.00,15.00,0.00,29.94,M,10.00,21.00,CLR,M,M,M,M,M,M,M,M,M,M,M,M,M,M,-5.15,KOOA 170915Z AUTO 30015G21KT 10SM CLR M11/M16 A2994 RMK AO2 T11121163,M
OOA,2026-01-17 09:35,11.70,2.30,65.27,300.00,18.00,0.00,29.95,M,10.00,23.00,CLR,M,M,M,M,M,M,M,M,M,M,M,M,M,M,-6.97,KOOA 170935Z AUTO 30018G23KT 10SM CLR M11/M16 A2995 RMK AO2 T11131165,M
OOA,2026-01-17 09:55,11.30,2.30,66.44,300.00,14.00,0.00,29.94,M,10.00,21.00,CLR,M,M,M,M,M,M,M,M,M,M,M,M,M,M,-5.52,KOOA 170955Z AUTO 30014G21KT 10SM CLR M11/M16 A2994 RMK AO2 T11151165,M
OOA,2026-01-17 10:15,11.00,2.00,66.41,290.00,12.00,0.00,29.95,M,10.00,M,CLR,M,M,M,M,M,M,M,M,M,M,M,M,M,M,-4.73,KOOA 171015Z AUTO 29012KT 10SM CLR M12/M17 A2995 RMK AO2 T11161167,M
OOA,2026-01-17 10:35,11.00,2.00,66.41,290.00,11.00,0.00,29.96,M,10.00,M,CLR,M,M,M,M,M,M,M,M,M,M,M,M,M,M,-4.07,KOOA 171035Z AUTO 29011KT 10SM CLR M12/M17 A2996 RMK AO2 T11171166,M
OOA,2026-01-17 10:55,10.80,3.00,70.18,280.00,12.00,0.00,29.96,M,10.00,M,CLR,M,M,M,M,M,M,M,M,M,M,M,M,M,M,-4.98,KOOA 171055Z AUTO 28012KT 10SM CLR M12/M16 A2996 RMK AO2 T11181162,M
OOA,2026-01-17 11:15,10.80,3.00,70.18,280.00,12.00,0.00,29.97,M,10.00,M,CLR,M,M,M,M,M,M,M,M,M,M,M,M,M,M,-4.98,KOOA 171115Z AUTO 28012KT 10SM CLR M12/M16 A2997 RMK AO2 T11181161,M
OOA,2026-01-17 11:35,10.00,3.00,72.73,270.00,11.00,0.00,29.97,M,10.00,M,CLR,M,M,M,M,M,M,M,M,M,M,M,M,M,M,-5.34,KOOA 171135Z AUTO 27011KT 10SM CLR M12/M16 A2997 RMK AO2 T11221161,M
OOA,2026-01-17 11:55,10.00,3.20,73.41,260.00,11.00,0.00,29.98,M,10.00,M,CLR,M,M,M,M,M,M,M,M,M,M,M,M,M,M,-5.34,KOOA 171155Z AUTO 26011KT 10SM CLR M12/M16 A2998 RMK AO2 T11221160 11098 21123,M
OOA,2026-01-17 12:15,10.00,3.20,73.41,260.00,13.00,0.00,29.99,M,10.00,M,CLR,M,M,M,M,M,M,M,M,M,M,M,M,M,M,-6.62,KOOA 171215Z AUTO 26013KT 10SM CLR M12/M16 A2999 RMK AO2 T11221160,M
OOA,2026-01-17 12:35,10.00,5.00,79.75,270.00,11.00,0.00,29.99,M,7.00,M,CLR,M,M,M,M,M,M,M,M,M,M,M,M,M,M,-5.34,KOOA 171235Z AUTO 27011KT 7SM CLR M12/M15 A2999 RMK AO2 T11231151,M
OOA,2026-01-17 12:55,9.50,5.70,84.20,260.00,11.00,0.00,30.00,M,10.00,M,CLR,M,M,M,M,M,M,M,M,M,M,M,M,M,M,-5.97,KOOA 171255Z AUTO 26011KT 10SM CLR M12/M15 A3000 RMK AO2 T11251146,M
OOA,2026-01-17 13:15,10.00,5.50,81.59,280.00,12.00,0.00,30.01,M,10.00,M,CLR,M,M,M,M,M,M,M,M,M,M,M,M,M,M,-6.00,KOOA 171315Z AUTO 28012KT 10SM CLR M12/M15 A3001 RMK AO2 T11231147,M
OOA,2026-01-17 13:35,10.40,4.00,74.82,290.00,12.00,0.00,30.02,M,10.00,M,CLR,M,M,M,M,M,M,M,M,M,M,M,M,M,M,-5.49,KOOA 171335Z AUTO 29012KT 10SM CLR M12/M16 A3002 RMK AO2 T11201156,M
OOA,2026-01-17 13:55,11.00,3.70,71.84,290.00,14.00,0.00,30.03,M,10.00,M,CLR,M,M,M,M,M,M,M,M,M,M,M,M,M,M,-5.91,KOOA 171355Z AUTO 29014KT 10SM CLR M12/M16 A3003 RMK AO2 T11171157,M
OOA,2026-01-17 14:15,11.50,4.00,71.24,290.00,15.00,0.00,30.04,M,10.00,19.00,CLR,M,M,M,M,M,M,M,M,M,M,M,M,M,M,-5.80,KOOA 171415Z AUTO 29015G19KT 10SM CLR M11/M15 A3004 RMK AO2 T11141155,M
OOA,2026-01-17 14:35,12.70,5.00,70.73,300.00,19.00,0.00,30.05,M,10.00,22.00,CLR,M,M,M,M,M,M,M,M,M,M,M,M,M,M,-6.09,KOOA 171435Z AUTO 30019G22KT 10SM CLR M11/M15 A3005 RMK AO2 T11071150,M
OOA,2026-01-17 14:55,12.60,6.00,74.36,300.00,21.00,0.00,30.07,M,1.25,29.00,VV ,M,M,M,700.00,M,M,M,M,M,M,M,M,M,M,-7.02,KOOA 171455Z AUTO 30021G29KT 1 1/4SM VV007 M11/M14 A3007 RMK AO2 T11081144,M
OOA,2026-01-17 15:15,12.40,5.00,71.67,310.00,17.00,0.00,30.08,M,4.00,22.00,CLR,M,M,M,M,M,M,M,M,M,M,M,M,M,M,-5.60,KOOA 171515Z AUTO 31017G22KT 4SM CLR M11/M15 A3008 RMK AO2 T11091151,M
OOA,2026-01-17 15:35,13.00,6.30,74.07,300.00,15.00,0.00,30.10,M,4.00,20.00,CLR,M,M,M,M,M,M,M,M,M,M,M,M,M,M,-3.85,KOOA 171535Z AUTO 30015G20KT 4SM CLR M11/M14 A3010 RMK AO2 T11061143,M
OOA,2026-01-17 15:55,13.00,6.60,75.09,300.00,22.00,0.00,30.11,M,3.00,27.00,M,M,M,M,M,M,M,M,M,M,M,M,M,M,M,-6.86,KOOA 171555Z AUTO 30022G27KT 3SM M10/M14 A3011 RMK AO2 SKY OBSCURED T11051141,M
OOA,2026-01-17 16:15,12.70,7.30,78.54,310.00,18.00,0.00,30.12,M,1.50,26.00,VV ,M,M,M,700.00,M,M,M,M,M,M,M,M,M,M,-5.66,KOOA 171615Z AUTO 31018G26KT 1 1/2SM VV007 M11/M14 A3012 RMK AO2 T11071137,M
OOA,2026-01-17 16:35,13.30,7.00,75.46,300.00,15.00,0.00,30.13,M,3.00,M,M,M,M,M,M,M,M,M,M,M,M,M,M,M,M,-3.46,KOOA 171635Z AUTO 30015KT 3SM M10/M14 A3013 RMK AO2 SKY OBSCURED T11041139,M
OOA,2026-01-17 16:55,12.20,7.50,81.03,310.00,16.00,0.00,30.14,M,0.75,24.00,VV ,M,M,M,500.00,M,M,M,M,M,M,M,M,M,M,-5.39,KOOA 171655Z AUTO 31016G24KT 3/4SM VV005 M11/M14 A3014 RMK AO2 T11101136,M
OOA,2026-01-17 17:15,12.40,7.00,78.52,300.00,15.00,0.00,30.15,M,1.25,21.00,VV ,M,M,M,700.00,M,M,M,M,M,M,M,M,M,M,-4.63,KOOA 171715Z AUTO 30015G21KT 1 1/4SM VV007 M11/M14 A3015 RMK AO2 T11091139,M
OOA,2026-01-17 17:35,12.40,7.70,81.04,300.00,19.00,0.00,30.15,M,1.00,22.00,VV ,M,M,M,700.00,M,M,M,M,M,M,M,M,M,M,-6.48,KOOA 171735Z AUTO 30019G22KT 1SM VV007 M11/M13 A3015 RMK AO2 T11091135,M
OOA,2026-01-17 17:55,12.60,8.00,81.43,290.00,19.00,0.00,30.14,M,1.00,M,BKN,BKN,M,M,1000.00,2300.00,M,M,M,M,M,M,M,M,M,-6.22,KOOA 171755Z AUTO 29019KT 1SM BKN010 BKN023 M11/M13 A3014 RMK AO2 T11081133 11103 21125,M
OOA,2026-01-17 18:15,12.60,7.30,78.89,300.00,20.00,0.00,30.15,M,1.50,25.00,VV ,M,M,M,700.00,M,M,M,M,M,M,M,M,M,M,-6.63,KOOA 171815Z AUTO 30020G25KT 1 1/2SM VV007 M11/M14 A3015 RMK AO2 T11081137,M
OOA,2026-01-17 18:35,12.60,7.70,80.33,300.00,20.00,0.00,30.15,M,0.75,27.00,VV ,M,M,M,500.00,M,M,M,M,M,M,M,M,M,M,-6.63,KOOA 171835Z AUTO 30020G27KT 3/4SM VV005 M11/M13 A3015 RMK AO2 T11081135,M
OOA,2026-01-17 18:55,13.50,8.40,79.69,300.00,21.00,0.00,30.14,M,1.00,25.00,VV ,M,M,M,700.00,M,M,M,M,M,M,M,M,M,M,-5.82,KOOA 171855Z AUTO 30021G25KT 1SM VV007 M10/M13 A3014 RMK AO2 T11031131,M
OOA,2026-01-17 19:15,13.50,8.20,78.97,300.00,18.00,0.00,30.15,M,1.25,24.00,VV ,M,M,M,700.00,M,M,M,M,M,M,M,M,M,M,-4.60,KOOA 171915Z AUTO 30018G24KT 1 1/4SM VV007 M10/M13 A3015 RMK AO2 T11031132,M
OOA,2026-01-17 19:35,13.60,8.60,80.05,300.00,19.00,0.00,30.15,M,1.00,24.00,VV ,M,M,M,700.00,M,M,M,M,M,M,M,M,M,M,-4.90,KOOA 171935Z AUTO 30019G24KT 1SM VV007 M10/M13 A3015 RMK AO2 T11021130,M
OOA,2026-01-17 19:55,14.00,8.00,76.56,300.00,20.00,0.00,30.15,M,1.75,27.00,VV ,M,M,M,700.00,M,M,M,M,M,M,M,M,M,M,-4.77,KOOA 171955Z AUTO 30020G27KT 1 3/4SM VV007 M10/M13 A3015 RMK AO2 T11001134,M
OOA,2026-01-17 20:15,14.00,7.30,74.17,290.00,16.00,0.00,30.16,M,3.00,M,M,M,M,M,M,M,M,M,M,M,M,M,M,M,M,-3.04,KOOA 172015Z AUTO 29016KT 3SM M10/M14 A3016 RMK AO2 SKY OBSCURED T11001137,M
OOA,2026-01-17 20:35,14.00,7.00,73.17,310.00,19.00,0.00,30.17,M,2.00,28.00,M,M,M,M,M,M,M,M,M,M,M,M,M,M,M,-4.37,KOOA 172035Z AUTO 31019G28KT 2SM M10/M14 A3017 RMK AO2 SKY OBSCURED T11001139,M
OOA,2026-01-17 20:55,13.50,5.70,70.50,300.00,17.00,0.00,30.18,M,3.00,M,CLR,M,M,M,M,M,M,M,M,M,M,M,M,M,M,-4.16,KOOA 172055Z AUTO 30017KT 3SM CLR M10/M15 A3018 RMK AO2 T11031146,M
OOA,2026-01-17 21:15,14.50,6.80,70.94,300.00,21.00,0.00,30.19,M,4.00,27.00,CLR,M,M,M,M,M,M,M,M,M,M,M,M,M,M,-4.49,KOOA 172115Z AUTO 30021G27KT 4SM CLR M10/M14 A3019 RMK AO2 T10971140,M
OOA,2026-01-17 21:35,14.00,7.30,74.17,310.00,19.00,0.00,30.20,M,4.00,26.00,CLR,M,M,M,M,M,M,M,M,M,M,M,M,M,M,-4.37,KOOA 172135Z AUTO 31019G26KT 4SM CLR M10/M14 A3020 RMK AO2 T11001137,M
OOA,2026-01-17 21:55,13.60,7.70,76.87,300.00,20.00,0.00,30.21,M,3.00,26.00,CLR,M,M,M,M,M,M,M,M,M,M,M,M,M,M,-5.30,KOOA 172155Z AUTO 30020G26KT 3SM CLR M10/M13 A3021 RMK AO2 T11021135,M
OOA,2026-01-17 22:15,13.00,8.00,80.00,300.00,20.00,0.00,30.22,M,1.25,27.00,VV ,M,M,M,700.00,M,M,M,M,M,M,M,M,M,M,-6.10,KOOA 172215Z AUTO 30020G27KT 1 1/4SM VV007 M10/M13 A3022 RMK AO2 T11051133,M
OOA,2026-01-17 22:35,12.70,5.00,70.73,310.00,21.00,0.00,30.22,M,10.00,26.00,CLR,M,M,M,M,M,M,M,M,M,M,M,M,M,M,-6.89,KOOA 172235Z AUTO 31021G26KT 10SM CLR M11/M15 A3022 RMK AO2 T11071150,M
OOA,2026-01-17 22:55,12.60,5.50,72.69,300.00,18.00,0.00,30.22,M,10.00,27.00,CLR,M,M,M,M,M,M,M,M,M,M,M,M,M,M,-5.79,KOOA 172255Z AUTO 30018G27KT 10SM CLR M11/M15 A3022 RMK AO2 T11081147,M
OOA,2026-01-17 23:15,12.60,5.00,71.04,300.00,19.00,0.00,30.22,M,10.00,23.00,CLR,M,M,M,M,M,M,M,M,M,M,M,M,M,M,-6.22,KOOA 172315Z AUTO 30019G23KT 10SM CLR M11/M15 A3022 RMK AO2 T11081149,M
OOA,2026-01-17 23:35,12.20,6.30,76.73,310.00,16.00,0.00,30.22,M,7.00,19.00,CLR,M,M,M,M,M,M,M,M,M,M,M,M,M,M,-5.39,KOOA 172335Z AUTO 31016G19KT 7SM CLR M11/M14 A3022 RMK AO2 T11101143,M
OOA,2026-01-17 23:55,12.20,4.50,70.67,310.00,15.00,0.00,30.23,M,10.00,M,SCT,M,M,M,11000.00,M,M,M,M,M,M,M,M,M,M,-4.89,KOOA 172355Z AUTO 31015KT 10SM SCT110 M11/M15 A3023 RMK AO2 T11101153 11096 21110,M
OOA,2026-01-18 00:15,12.20,4.30,70.02,300.00,14.00,0.00,30.23,M,10.00,21.00,SCT,M,M,M,11000.00,M,M,M,M,M,M,M,M,M,M,-4.36,KOOA 180015Z AUTO 30014G21KT 10SM SCT110 M11/M15 A3023 RMK AO2 T11101154,M
OOA,2026-01-18 00:35,12.60,5.00,71.04,310.00,15.00,0.00,30.23,M,10.00,19.00,CLR,M,M,M,M,M,M,M,M,M,M,M,M,M,M,-4.37,KOOA 180035Z AUTO 31015G19KT 10SM CLR M11/M15 A3023 RMK AO2 T11081151,M
OOA,2026-01-18 00:55,12.60,5.50,72.69,300.00,14.00,0.00,30.23,M,10.00,M,CLR,M,M,M,M,M,M,M,M,M,M,M,M,M,M,-3.84,KOOA 180055Z AUTO 30014KT 10SM CLR M11/M15 A3023 RMK AO2 T11081147,M
OOA,2026-01-18 01:15,12.70,6.00,74.04,300.00,16.00,0.00,30.24,M,10.00,M,CLR,M,M,M,M,M,M,M,M,M,M,M,M,M,M,-4.74,KOOA 180115Z AUTO 30016KT 10SM CLR M11/M14 A3024 RMK AO2 T11071145,M
OOA,2026-01-18 01:35,13.00,5.70,72.07,300.00,16.00,0.00,30.24,M,10.00,21.00,CLR,M,M,M,M,M,M,M,M,M,M,M,M,M,M,-4.35,KOOA 180135Z AUTO 30016G21KT 10SM CLR M10/M15 A3024 RMK AO2 T11051146,M
OOA,2026-01-18 01:55,12.70,4.30,68.49,300.00,19.00,0.00,30.24,M,10.00,M,CLR,M,M,M,M,M,M,M,M,M,M,M,M,M,M,-6.09,KOOA 180155Z AUTO 30019KT 10SM CLR M11/M15 A3024 RMK AO2 T11071154,M
OOA,2026-01-18 02:15,12.60,4.60,69.75,300.00,15.00,0.00,30.24,M,10.00,22.00,CLR,M,M,M,M,M,M,M,M,M,M,M,M,M,M,-4.37,KOOA 180215Z AUTO 30015G22KT 10SM CLR M11/M15 A3024 RMK AO2 T11081152,M
OOA,2026-01-18 02:35,12.60,4.50,69.43,300.00,18.00,0.00,30.25,M,10.00,24.00,CLR,M,M,M,M,M,M,M,M,M,M,M,M,M,M,-5.79,KOOA 180235Z AUTO 30018G24KT 10SM CLR M11/M15 A3025 RMK AO2 T11081153,M
OOA,2026-01-18 02:55,12.00,4.00,69.68,300.00,15.00,0.00,30.25,M,10.00,M,CLR,M,M,M,M,M,M,M,M,M,M,M,M,M,M,-5.15,KOOA 180255Z AUTO 30015KT 10SM CLR M11/M15 A3025 RMK AO2 T11111155,M
OOA,2026-01-18 03:15,11.00,2.70,68.60,310.00,13.00,0.00,30.25,M,10.00,20.00,CLR,M,M,M,M,M,M,M,M,M,M,M,M,M,M,-5.34,KOOA 180315Z AUTO 31013G20KT 10SM CLR M12/M16 A3025 RMK AO2 T11171163,M
OOA,2026-01-18 03:35,10.00,2.70,71.73,290.00,10.00,0.00,30.25,M,10.00,M,CLR,M,M,M,M,M,M,M,M,M,M,M,M,M,M,-4.62,KOOA 180335Z AUTO 29010KT 10SM CLR M12/M16 A3025 RMK AO2 T11231163,M
OOA,2026-01-18 03:55,9.50,2.30,72.00,290.00,12.00,0.00,30.24,M,10.00,M,CLR,M,M,M,M,M,M,M,M,M,M,M,M,M,M,-6.63,KOOA 180355Z AUTO 29012KT 10SM CLR M12/M16 A3024 RMK AO2 T11251165,M
OOA,2026-01-18 04:15,8.40,2.30,75.65,280.00,8.00,0.00,30.23,M,10.00,M,CLR,M,M,M,M,M,M,M,M,M,M,M,M,M,M,-4.96,KOOA 180415Z AUTO 28008KT 10SM CLR M13/M16 A3023 RMK AO2 T11311165,M
OOA,2026-01-18 04:35,7.50,2.30,78.79,270.00,7.00,0.00,30.23,M,10.00,M,CLR,M,M,M,M,M,M,M,M,M,M,M,M,M,M,-5.08,KOOA 180435Z AUTO 27007KT 10SM CLR M14/M16 A3023 RMK AO2 T11361165,M
OOA,2026-01-18 04:55,6.00,1.00,79.40,270.00,6.00,0.00,30.23,M,10.00,M,CLR,M,M,M,M,M,M,M,M,M,M,M,M,M,M,-5.78,KOOA 180455Z AUTO 27006KT 10SM CLR M14/M17 A3023 RMK AO2 T11441172,M
OOA,2026-01-18 05:15,6.30,1.00,78.32,260.00,7.00,0.00,30.22,M,10.00,M,CLR,M,M,M,M,M,M,M,M,M,M,M,M,M,M,-6.55,KOOA 180515Z AUTO 26007KT 10SM CLR M14/M17 A3022 RMK AO2 T11431173,M
OOA,2026-01-18 05:35,6.00,0.70,78.29,260.00,7.00,0.00,30.22,M,10.00,M,CLR,M,M,M,M,M,M,M,M,M,M,M,M,M,M,-6.91,KOOA 180535Z AUTO 26007KT 10SM CLR M14/M17 A3022 RMK AO2 T11441174,M
OOA,2026-01-18 05:55,6.30,0.50,76.51,250.00,6.00,0.00,30.21,M,10.00,M,CLR,M,M,M,M,M,M,M,M,M,M,M,M,M,M,-5.42,KOOA 180555Z AUTO 25006KT 10SM CLR M14/M17 A3021 RMK AO2 T11431175 11105 21145 410961145,M
OOA,2026-01-18 06:15,6.60,1.00,77.26,250.00,7.00,0.00,30.20,M,10.00,M,CLR,M,M,M,M,M,M,M,M,M,M,M,M,M,M,-6.18,KOOA 180615Z AUTO 25007KT 10SM CLR M14/M17 A3020 RMK AO2 T11411173,M
OOA,2026-01-18 06:35,7.30,1.40,76.25,260.00,8.00,0.00,30.18,M,10.00,M,CLR,M,M,M,M,M,M,M,M,M,M,M,M,M,M,-6.31,KOOA 180635Z AUTO 26008KT 10SM CLR M14/M17 A3018 RMK AO2 T11371170,M
OOA,2026-01-18 06:55,8.00,2.00,75.97,270.00,8.00,0.00,30.17,M,10.00,M,CLR,M,M,M,M,M,M,M,M,M,M,M,M,M,M,-5.45,KOOA 180655Z AUTO 27008KT 10SM CLR M13/M17 A3017 RMK AO2 T11331167,M
OOA,2026-01-18 07:15,8.40,2.30,75.65,270.00,8.00,0.00,30.17,M,10.00,M,CLR,M,M,M,M,M,M,M,M,M,M,M,M,M,M,-4.96,KOOA 180715Z AUTO 27008KT 10SM CLR M13/M16 A3017 RMK AO2 T11311165,M
OOA,2026-01-18 07:35,8.40,2.30,75.65,250.00,7.00,0.00,30.15,M,10.00,M,CLR,M,M,M,M,M,M,M,M,M,M,M,M,M,M,-3.99,KOOA 180735Z AUTO 25007KT 10SM CLR M13/M16 A3015 RMK AO2 T11311165,M
OOA,2026-01-18 07:55,8.40,3.00,78.15,250.00,8.00,0.00,30.14,M,10.00,M,CLR,M,M,M,M,M,M,M,M,M,M,M,M,M,M,-4.96,KOOA 180755Z AUTO 25008KT 10SM CLR M13/M16 A3014 RMK AO2 T11311162,M
OOA,2026-01-18 08:15,8.20,2.70,77.77,240.00,7.00,0.00,30.13,M,10.00,M,CLR,M,M,M,M,M,M,M,M,M,M,M,M,M,M,-4.23,KOOA 180815Z AUTO 24007KT 10SM CLR M13/M16 A3013 RMK AO2 T11321163,M
OOA,2026-01-18 08:35,8.00,3.00,79.57,230.00,7.00,0.00,30.13,M,10.00,M,CLR,M,M,M,M,M,M,M,M,M,M,M,M,M,M,-4.48,KOOA 180835Z AUTO 23007KT 10SM CLR M13/M16 A3013 RMK AO2 T11331162,M
OOA,2026-01-18 08:55,8.00,2.70,78.47,240.00,6.00,0.00,30.12,M,10.00,M,CLR,M,M,M,M,M,M,M,M,M,M,M,M,M,M,-3.37,KOOA 180855Z AUTO 24006KT 10SM CLR M13/M16 A3012 RMK AO2 T11331163,M
OOA,2026-01-18 09:15,8.00,2.50,77.75,240.00,8.00,0.00,30.11,M,10.00,M,CLR,M,M,M,M,M,M,M,M,M,M,M,M,M,M,-5.45,KOOA 180915Z AUTO 24008KT 10SM CLR M13/M16 A3011 RMK AO2 T11331164,M
OOA,2026-01-18 09:35,8.40,3.00,78.15,240.00,6.00,0.00,30.11,M,10.00,M,CLR,M,M,M,M,M,M,M,M,M,M,M,M,M,M,-2.89,KOOA 180935Z AUTO 24006KT 10SM CLR M13/M16 A3011 RMK AO2 T11311161,M
OOA,2026-01-18 09:55,8.60,3.00,77.45,250.00,7.00,0.00,30.11,M,10.00,M,CLR,M,M,M,M,M,M,M,M,M,M,M,M,M,M,-3.74,KOOA 180955Z AUTO 25007KT 10SM CLR M13/M16 A3011 RMK AO2 T11301161,M
OOA,2026-01-18 10:15,8.60,2.70,76.38,250.00,7.00,0.00,30.09,M,10.00,M,SCT,M,M,M,11000.00,M,M,M,M,M,M,M,M,M,M,-3.74,KOOA 181015Z AUTO 25007KT 10SM SCT110 M13/M16 A3009 RMK AO2 T11301163,M
OOA,2026-01-18 10:35,9.00,3.00,76.07,250.00,8.00,0.00,30.09,M,10.00,M,SCT,M,M,M,12000.00,M,M,M,M,M,M,M,M,M,M,-4.22,KOOA 181035Z AUTO 25008KT 10SM SCT120 M13/M16 A3009 RMK AO2 T11271162,M
OOA,2026-01-18 10:55,9.00,3.00,76.07,250.00,6.00,0.00,30.10,M,10.00,M,SCT,M,M,M,12000.00,M,M,M,M,M,M,M,M,M,M,-2.17,KOOA 181055Z AUTO 25006KT 10SM SCT120 M13/M16 A3010 RMK AO2 T11271162,M
OOA,2026-01-18 11:15,8.60,3.00,77.45,240.00,5.00,0.00,30.09,M,10.00,M,CLR,M,M,M,M,M,M,M,M,M,M,M,M,M,M,-1.39,KOOA 181115Z AUTO 24005KT 10SM CLR M13/M16 A3009 RMK AO2 T11301161,M
OOA,2026-01-18 11:35,8.60,3.00,77.45,240.00,7.00,0.00,30.09,M,10.00,M,CLR,M,M,M,M,M,M,M,M,M,M,M,M,M,M,-3.74,KOOA 181135Z AUTO 24007KT 10SM CLR M13/M16 A3009 RMK AO2 T11301162,M
OOA,2026-01-18 11:55,8.00,2.30,77.03,220.00,5.00,0.00,30.08,M,10.00,M,CLR,M,M,M,M,M,M,M,M,M,M,M,M,M,M,-2.11,KOOA 181155Z AUTO 22005KT 10SM CLR M13/M16 A3008 RMK AO2 T11341165 11127 21144,M
OOA,2026-01-18 12:15,7.30,2.00,78.41,200.00,5.00,0.00,30.06,M,10.00,M,CLR,M,M,M,M,M,M,M,M,M,M,M,M,M,M,-2.94,KOOA 181215Z AUTO 20005KT 10SM CLR M14/M17 A3006 RMK AO2 T11371166,M
OOA,2026-01-18 12:35,8.00,3.00,79.57,200.00,5.00,0.00,30.06,M,10.00,M,CLR,M,M,M,M,M,M,M,M,M,M,M,M,M,M,-2.11,KOOA 181235Z AUTO 20005KT 10SM CLR M13/M16 A3006 RMK AO2 T11331161,M
OOA,2026-01-18 12:55,7.70,3.00,80.66,180.00,5.00,0.00,30.05,M,10.00,M,CLR,M,M,M,M,M,M,M,M,M,M,M,M,M,M,-2.46,KOOA 181255Z AUTO 18005KT 10SM CLR M13/M16 A3005 RMK AO2 T11351161,M
OOA,2026-01-18 13:15,8.00,3.40,81.06,210.00,7.00,0.00,30.05,M,10.00,M,CLR,M,M,M,M,M,M,M,M,M,M,M,M,M,M,-4.48,KOOA 181315Z AUTO 21007KT 10SM CLR M13/M16 A3005 RMK AO2 T11331159,M
OOA,2026-01-18 13:35,8.60,3.40,78.89,200.00,8.00,0.00,30.04,M,10.00,M,CLR,M,M,M,M,M,M,M,M,M,M,M,M,M,M,-4.71,KOOA 181335Z AUTO 20008KT 10SM CLR M13/M16 A3004 RMK AO2 T11301159,M
OOA,2026-01-18 13:55,8.00,3.00,79.57,190.00,7.00,0.00,30.02,M,10.00,M,CLR,M,M,M,M,M,M,M,M,M,M,M,M,M,M,-4.48,KOOA 181355Z AUTO 19007KT 10SM CLR M13/M16 A3002 RMK AO2 T11341161,M
OOA,2026-01-18 14:15,8.60,3.70,79.99,190.00,8.00,0.00,30.02,M,10.00,M,CLR,M,M,M,M,M,M,M,M,M,M,M,M,M,M,-4.71,KOOA 181415Z AUTO 19008KT 10SM CLR M13/M16 A3002 RMK AO2 T11301157,M
OOA,2026-01-18 14:35,10.40,4.60,76.91,190.00,8.00,0.00,30.01,M,10.00,M,CLR,M,M,M,M,M,M,M,M,M,M,M,M,M,M,-2.49,KOOA 181435Z AUTO 19008KT 10SM CLR M12/M15 A3001 RMK AO2 T11201152,M
OOA,2026-01-18 14:55,11.50,5.00,74.59,180.00,8.00,0.00,30.00,M,10.00,M,CLR,M,M,M,M,M,M,M,M,M,M,M,M,M,M,-1.14,KOOA 181455Z AUTO 18008KT 10SM CLR M11/M15 A3000 RMK AO2 T11141150,M
OOA,2026-01-18 15:15,12.40,6.00,75.02,180.00,9.00,0.00,29.98,M,10.00,M,CLR,M,M,M,M,M,M,M,M,M,M,M,M,M,M,-0.86,KOOA 181515Z AUTO 18009KT 10SM CLR M11/M14 A2998 RMK AO2 T11091144,M
OOA,2026-01-18 15:35,13.60,6.00,71.16,190.00,10.00,0.00,29.97,M,10.00,M,CLR,M,M,M,M,M,M,M,M,M,M,M,M,M,M,-0.11,KOOA 181535Z AUTO 19010KT 10SM CLR M10/M14 A2997 RMK AO2 T11021144,M
OOA,2026-01-18 15:55,15.00,7.70,72.29,200.00,10.00,0.00,29.97,M,10.00,M,SCT,M,M,M,7000.00,M,M,M,M,M,M,M,M,M,M,1.65,KOOA 181555Z AUTO 20010KT 10SM SCT070 M09/M13 A2997 RMK AO2 T10951135,M
OOA,2026-01-18 16:15,16.30,7.70,68.32,180.00,10.00,0.00,29.96,M,10.00,M,CLR,M,M,M,M,M,M,M,M,M,M,M,M,M,M,3.28,KOOA 181615Z AUTO 18010KT 10SM CLR M09/M13 A2996 RMK AO2 T10871135,M
OOA,2026-01-18 16:35,17.60,8.00,65.46,210.00,11.00,0.00,29.97,M,10.00,M,CLR,M,M,M,M,M,M,M,M,M,M,M,M,M,M,4.27,KOOA 181635Z AUTO 21011KT 10SM CLR M08/M13 A2997 RMK AO2 T10801133,M
OOA,2026-01-18 16:55,19.00,8.80,63.90,200.00,10.00,0.00,29.95,M,10.00,M,SCT,M,M,M,5000.00,M,M,M,M,M,M,M,M,M,M,6.67,KOOA 181655Z AUTO 20010KT 10SM SCT050 M07/M13 A2995 RMK AO2 T10721129,M
OOA,2026-01-18 17:15,19.20,8.80,63.35,220.00,12.00,0.00,29.95,M,10.00,M,SCT,M,M,M,5000.00,M,M,M,M,M,M,M,M,M,M,5.71,KOOA 181715Z AUTO 22012KT 10SM SCT050 M07/M13 A2995 RMK AO2 T10711129,M
OOA,2026-01-18 17:35,20.30,9.00,60.99,200.00,8.00,0.00,29.92,M,10.00,M,SCT,SCT,M,M,5000.00,9000.00,M,M,M,M,M,M,M,M,M,9.70,KOOA 181735Z AUTO 20008KT 10SM SCT050 SCT090 M06/M13 A2992 RMK AO2 T10651127,M
OOA,2026-01-18 17:55,21.20,10.60,63.06,230.00,10.00,0.00,29.93,M,10.00,M,SCT,SCT,M,M,9000.00,12000.00,M,M,M,M,M,M,M,M,M,9.42,KOOA 181755Z AUTO 23010KT 10SM SCT090 SCT120 M06/M12 A2993 RMK AO2 T10601119 11060 21137,M
OOA,2026-01-18 18:15,22.00,10.60,60.96,230.00,9.00,0.00,29.92,M,10.00,M,SCT,SCT,M,M,9000.00,12000.00,M,M,M,M,M,M,M,M,M,11.08,KOOA 181815Z AUTO 23009KT 10SM SCT090 SCT120 M06/M12 A2992 RMK AO2 T10561119,M
OOA,2026-01-18 18:35,23.00,12.20,62.75,230.00,11.00,0.00,29.90,M,10.00,M,SCT,M,M,M,8000.00,M,M,M,M,M,M,M,M,M,M,11.09,KOOA 181835Z AUTO 23011KT 10SM SCT080 M05/M11 A2990 RMK AO2 T10491110,M
OOA,2026-01-18 18:55,24.00,11.70,58.85,230.00,10.00,0.00,29.88,M,10.00,M,SCT,M,M,M,8000.00,M,M,M,M,M,M,M,M,M,M,12.94,KOOA 181855Z AUTO 23010KT 10SM SCT080 M04/M11 A2988 RMK AO2 T10451113,M
OOA,2026-01-18 19:15,24.80,13.00,60.29,250.00,11.00,0.00,29.88,M,10.00,M,SCT,M,M,M,8000.00,M,M,M,M,M,M,M,M,M,M,13.37,KOOA 181915Z AUTO 25011KT 10SM SCT080 M04/M10 A2988 RMK AO2 T10401105,M
OOA,2026-01-18 19:35,25.70,13.30,58.84,250.00,13.00,0.00,29.87,M,10.00,M,SCT,SCT,M,M,8000.00,8500.00,M,M,M,M,M,M,M,M,M,13.50,KOOA 181935Z AUTO 25013KT 10SM SCT080 SCT085 M03/M10 A2987 RMK AO2 T10351104,M
OOA,2026-01-18 19:55,26.20,14.00,59.43,260.00,12.00,0.00,29.87,M,10.00,M,BKN,M,M,M,7000.00,M,M,M,M,M,M,M,M,M,M,14.62,KOOA 181955Z AUTO 26012KT 10SM BKN070 M03/M10 A2987 RMK AO2 T10321100,M
OOA,2026-01-18 20:15,26.40,13.60,57.92,260.00,12.00,0.00,29.87,M,10.00,M,SCT,M,M,M,7000.00,M,M,M,M,M,M,M,M,M,M,14.87,KOOA 182015Z AUTO 26012KT 10SM SCT070 M03/M10 A2987 RMK AO2 T10311102,M
OOA,2026-01-18 20:35,26.80,14.40,59.00,270.00,11.00,0.00,29.87,M,10.00,M,SCT,M,M,M,7000.00,M,M,M,M,M,M,M,M,M,M,15.90,KOOA 182035Z AUTO 27011KT 10SM SCT070 M03/M10 A2987 RMK AO2 T10291098,M
OOA,2026-01-18 20:55,25.70,19.00,75.37,280.00,17.00,0.00,29.89,M,2.50,M,M,M,M,M,M,M,M,M,M,M,M,M,M,M,M,11.82,KOOA 182055Z AUTO 28017KT 2 1/2SM M03/M07 A2989 RMK AO2 SKY OBSCURED T10351073,M
OOA,2026-01-18 21:15,25.50,20.00,79.32,290.00,11.00,0.00,29.90,M,2.50,M,CLR,M,M,M,M,M,M,M,M,M,M,M,M,M,M,14.25,KOOA 182115Z AUTO 29011KT 2 1/2SM CLR M04/M07 A2990 RMK AO2 T10361067,M
OOA,2026-01-18 21:35,25.70,21.40,83.49,300.00,8.00,0.00,29.90,M,1.75,M,VV ,M,M,M,700.00,M,M,M,M,M,M,M,M,M,M,16.35,KOOA 182135Z AUTO 30008KT 1 3/4SM VV007 M03/M06 A2990 RMK AO2 T10351059,M
OOA,2026-01-18 21:55,25.70,21.60,84.20,290.00,8.00,0.00,29.91,M,2.50,M,CLR,M,M,M,M,M,M,M,M,M,M,M,M,M,M,16.35,KOOA 182155Z AUTO 29008KT 2 1/2SM CLR M03/M06 A2991 RMK AO2 T10351058,M
OOA,2026-01-18 22:15,25.50,22.00,86.35,280.00,10.00,0.00,29.91,M,1.75,M,VV ,M,M,M,700.00,M,M,M,M,M,M,M,M,M,M,14.82,KOOA 182215Z AUTO 28010KT 1 3/4SM VV007 M04/M06 A2991 RMK AO2 T10361056,M
OOA,2026-01-18 22:35,25.70,21.70,84.56,290.00,13.00,0.00,29.92,M,4.00,18.00,CLR,M,M,M,M,M,M,M,M,M,M,M,M,M,M,13.50,KOOA 182235Z AUTO 29013G18KT 4SM CLR M03/M06 A2992 RMK AO2 T10351057,M
OOA,2026-01-18 22:55,25.50,21.00,82.77,300.00,19.00,0.00,29.94,M,3.00,23.00,M,M,M,M,M,M,M,M,M,M,M,M,M,M,M,10.84,KOOA 182255Z AUTO 30019G23KT 3SM M04/M06 A2994 RMK AO2 SKY OBSCURED T10361061,M
OOA,2026-01-18 23:15,25.50,20.70,81.72,320.00,17.00,0.00,29.96,M,10.00,22.00,CLR,M,M,M,M,M,M,M,M,M,M,M,M,M,M,11.56,KOOA 182315Z AUTO 32017G22KT 10SM CLR M04/M06 A2996 RMK AO2 T10361063,M
OOA,2026-01-18 23:35,24.80,19.40,79.60,320.00,15.00,0.00,29.97,M,10.00,21.00,SCT,SCT,M,M,7000.00,9000.00,M,M,M,M,M,M,M,M,M,11.45,KOOA 182335Z AUTO 32015G21KT 10SM SCT070 SCT090 M04/M07 A2997 RMK AO2 T10401070,M
OOA,2026-01-18 23:55,25.00,18.30,75.30,310.00,13.00,0.00,29.97,M,10.00,M,SCT,SCT,M,M,7000.00,9000.00,M,M,M,M,M,M,M,M,M,12.60,KOOA 182355Z AUTO 31013KT 10SM SCT070 SCT090 M04/M08 A2997 RMK AO2 T10391076 11028 21060,M
OOA,2026-01-19 00:15,25.00,18.30,75.30,310.00,15.00,0.00,29.97,M,10.00,19.00,SCT,SCT,M,M,8000.00,10000.00,M,M,M,M,M,M,M,M,M,11.71,KOOA 190015Z AUTO 31015G19KT 10SM SCT080 SCT100 M04/M08 A2997 RMK AO2 T10381076,M
OOA,2026-01-19 00:35,25.30,18.00,73.42,310.00,15.00,0.00,29.97,M,10.00,19.00,SCT,SCT,M,M,7000.00,8000.00,M,M,M,M,M,M,M,M,M,12.09,KOOA 190035Z AUTO 31015G19KT 10SM SCT070 SCT080 M04/M08 A2997 RMK AO2 T10371078,M
OOA,2026-01-19 00:55,25.30,17.40,71.54,320.00,17.00,0.00,29.99,M,10.00,21.00,SCT,BKN,M,M,7000.00,9000.00,M,M,M,M,M,M,M,M,M,11.30,KOOA 190055Z AUTO 32017G21KT 10SM SCT070 BKN090 M04/M08 A2999 RMK AO2 T10371081,M
OOA,2026-01-19 01:15,24.80,18.00,74.96,320.00,19.00,0.00,30.00,M,5.00,28.00,SCT,SCT,M,M,7000.00,9000.00,M,M,M,M,M,M,M,M,M,9.92,KOOA 190115Z AUTO 32019G28KT 5SM SCT070 SCT090 M04/M08 A3000 RMK AO2 T10401078,M
OOA,2026-01-19 01:35,23.00,15.30,71.91,330.00,23.00,0.00,30.02,M,5.00,33.00,SCT,SCT,SCT,M,7000.00,8500.00,9000.00,M,M,M,M,M,M,M,M,6.22,KOOA 190135Z AUTO 33023G33KT 5SM SCT070 SCT085 SCT090 M05/M09 A3002 RMK AO2 T10491093,M
OOA,2026-01-19 01:55,21.20,11.50,65.64,340.00,24.00,0.00,30.03,M,10.00,30.00,SCT,SCT,SCT,M,4700.00,6500.00,7500.00,M,M,M,M,M,M,M,M,3.49,KOOA 190155Z AUTO 34024G30KT 10SM SCT047 SCT065 SCT075 M06/M11 A3003 RMK AO2 T10601114,M
OOA,2026-01-19 02:15,20.30,11.30,67.60,330.00,19.00,0.00,30.04,M,10.00,29.00,SCT,BKN,BKN,M,4900.00,7500.00,9000.00,M,M,M,M,M,M,M,M,3.96,KOOA 190215Z AUTO 33019G29KT 10SM SCT049 BKN075 BKN090 M06/M11 A3004 RMK AO2 T10651115,M
OOA,2026-01-19 02:35,19.60,9.00,62.84,330.00,22.00,0.00,30.05,M,10.00,29.00,SCT,SCT,BKN,M,4900.00,7000.00,8000.00,M,M,M,M,M,M,M,M,1.97,KOOA 190235Z AUTO 33022G29KT 10SM SCT049 SCT070 BKN080 M07/M13 A3005 RMK AO2 T10691128,M
OOA,2026-01-19 02:55,19.00,8.40,62.76,340.00,21.00,0.00,30.05,M,10.00,29.00,SCT,SCT,M,M,7000.00,8000.00,M,M,M,M,M,M,M,M,M,1.51,KOOA 190255Z AUTO 34021G29KT 10SM SCT070 SCT080 M07/M13 A3005 RMK AO2 T10731131,M
OOA,2026-01-19 03:15,17.00,7.70,66.27,330.00,14.00,0.00,30.07,M,10.00,20.00,SCT,SCT,M,M,4700.00,8000.00,M,M,M,M,M,M,M,M,M,1.83,KOOA 190315Z AUTO 33014G20KT 10SM SCT047 SCT080 M08/M13 A3007 RMK AO2 T10831135,M
OOA,2026-01-19 03:35,15.30,6.80,68.50,330.00,17.00,0.00,30.09,M,10.00,22.00,SCT,SCT,M,M,4700.00,8000.00,M,M,M,M,M,M,M,M,M,-1.80,KOOA 190335Z AUTO 33017G22KT 10SM SCT047 SCT080 M09/M14 A3009 RMK AO2 T10931140,M
OOA,2026-01-19 03:55,15.30,7.50,70.71,310.00,19.00,0.00,30.10,M,10.00,22.00,CLR,M,M,M,M,M,M,M,M,M,M,M,M,M,M,-2.65,KOOA 190355Z AUTO 31019G22KT 10SM CLR M09/M14 A3010 RMK AO2 T10931136,M
OOA,2026-01-19 04:15,15.00,5.70,66.01,320.00,26.00,0.00,30.11,M,10.00,33.00,CLR,M,M,M,M,M,M,M,M,M,M,M,M,M,M,-5.52,KOOA 190415Z AUTO 32026G33KT 10SM CLR M09/M15 A3011 RMK AO2 T10941146,M
OOA,2026-01-19 04:35,13.60,5.00,67.98,330.00,17.00,0.00,30.11,M,10.00,27.00,CLR,M,M,M,M,M,M,M,M,M,M,M,M,M,M,-4.03,KOOA 190435Z AUTO 33017G27KT 10SM CLR M10/M15 A3011 RMK AO2 T11021151,M
OOA,2026-01-19 04:55,13.60,3.70,64.04,320.00,21.00,0.00,30.13,M,10.00,32.00,CLR,M,M,M,M,M,M,M,M,M,M,M,M,M,M,-5.69,KOOA 190455Z AUTO 32021G32KT 10SM CLR M10/M16 A3013 RMK AO2 T11021157,M
OOA,2026-01-19 05:15,12.70,2.70,63.62,310.00,19.00,0.00,30.13,M,10.00,28.00,CLR,M,M,M,M,M,M,M,M,M,M,M,M,M,M,-6.09,KOOA 190515Z AUTO 31019G28KT 10SM CLR M11/M16 A3013 RMK AO2 T11071163,M
OOA,2026-01-19 05:35,12.20,2.70,65.04,320.00,18.00,0.00,30.13,M,10.00,24.00,SCT,M,M,M,10000.00,M,M,M,M,M,M,M,M,M,M,-6.32,KOOA 190535Z AUTO 32018G24KT 10SM SCT100 M11/M16 A3013 RMK AO2 T11101163,M
OOA,2026-01-19 05:55,11.30,3.60,70.56,320.00,21.00,0.00,30.15,M,10.00,26.00,SCT,M,M,M,10000.00,M,M,M,M,M,M,M,M,M,M,-8.76,KOOA 190555Z AUTO 32021G26KT 10SM SCT100 M11/M16 A3015 RMK AO2 T11151158 11036 21115 410281144,M
OOA,2026-01-19 06:15,10.00,-0.80,60.91,320.00,28.00,0.00,30.17,M,10.00,32.00,CLR,M,M,M,M,M,M,M,M,M,M,M,M,M,M,-12.96,KOOA 190615Z AUTO 32028G32KT 10SM CLR M12/M18 A3017 RMK AO2 T11231182,M
OOA,2026-01-19 06:35,8.40,-1.70,62.72,330.00,23.00,0.00,30.17,M,10.00,31.00,CLR,M,M,M,M,M,M,M,M,M,M,M,M,M,M,-13.41,KOOA 190635Z AUTO 33023G31KT 10SM CLR M13/M19 A3017 RMK AO2 T11311187,M
OOA,2026-01-19 06:55,7.50,-3.00,61.41,320.00,24.00,0.00,30.18,M,10.00,30.00,CLR,M,M,M,M,M,M,M,M,M,M,M,M,M,M,-14.99,KOOA 190655Z AUTO 32024G30KT 10SM CLR M14/M19 A3018 RMK AO2 T11361194,M
OOA,2026-01-19 07:15,6.40,-3.50,63.04,310.00,21.00,0.00,30.18,M,10.00,32.00,CLR,M,M,M,M,M,M,M,M,M,M,M,M,M,M,-15.29,KOOA 190715Z AUTO 31021G32KT 10SM CLR M14/M20 A3018 RMK AO2 T11421197,M
OOA,2026-01-19 07:35,6.00,-4.00,62.68,320.00,19.00,0.00,30.19,M,10.00,28.00,CLR,M,M,M,M,M,M,M,M,M,M,M,M,M,M,-14.95,KOOA 190735Z AUTO 32019G28KT 10SM CLR M14/M20 A3019 RMK AO2 T11451199,M
OOA,2026-01-19 07:55,6.00,-2.60,67.01,310.00,20.00,0.00,30.22,M,10.00,26.00,SCT,M,M,M,9000.00,M,M,M,M,M,M,M,M,M,M,-15.39,KOOA 190755Z AUTO 31020G26KT 10SM SCT090 M14/M19 A3022 RMK AO2 T11451192,M
OOA,2026-01-19 08:15,6.00,-3.00,65.74,310.00,15.00,0.00,30.22,M,10.00,26.00,SCT,M,M,M,10000.00,M,M,M,M,M,M,M,M,M,M,-12.93,KOOA 190815Z AUTO 31015G26KT 10SM SCT100 M14/M19 A3022 RMK AO2 T11451195,M
OOA,2026-01-19 08:35,5.70,-4.00,63.54,310.00,19.00,0.00,30.24,M,10.00,29.00,CLR,M,M,M,M,M,M,M,M,M,M,M,M,M,M,-15.34,KOOA 190835Z AUTO 31019G29KT 10SM CLR M15/M20 A3024 RMK AO2 T11461200,M
OOA,2026-01-19 08:55,5.70,-4.00,63.54,310.00,17.00,0.00,30.25,M,10.00,29.00,CLR,M,M,M,M,M,M,M,M,M,M,M,M,M,M,-14.38,KOOA 190855Z AUTO 31017G29KT 10SM CLR M15/M20 A3025 RMK AO2 T11461200,M
OOA,2026-01-19 09:15,5.00,-4.00,65.61,320.00,16.00,0.00,30.25,M,10.00,26.00,CLR,M,M,M,M,M,M,M,M,M,M,M,M,M,M,-14.77,KOOA 190915Z AUTO 32016G26KT 10SM CLR M15/M20 A3025 RMK AO2 T11491200,M
OOA,2026-01-19 09:35,5.00,-3.60,66.88,320.00,17.00,0.00,30.25,M,10.00,22.00,CLR,M,M,M,M,M,M,M,M,M,M,M,M,M,M,-15.30,KOOA 190935Z AUTO 32017G22KT 10SM CLR M15/M20 A3025 RMK AO2 T11501198,M
OOA,2026-01-19 09:55,5.00,-3.00,68.82,320.00,16.00,0.00,30.25,M,10.00,23.00,CLR,M,M,M,M,M,M,M,M,M,M,M,M,M,M,-14.77,KOOA 190955Z AUTO 32016G23KT 10SM CLR M15/M19 A3025 RMK AO2 T11501195,M
OOA,2026-01-19 10:15,5.00,-2.20,71.49,320.00,20.00,0.00,30.27,M,10.00,25.00,CLR,M,M,M,M,M,M,M,M,M,M,M,M,M,M,-16.72,KOOA 191015Z AUTO 32020G25KT 10SM CLR M15/M19 A3027 RMK AO2 T11511190,M
OOA,2026-01-19 10:35,3.70,-5.30,65.43,330.00,22.00,0.00,30.28,M,10.00,29.00,CLR,M,M,M,M,M,M,M,M,M,M,M,M,M,M,-19.32,KOOA 191035Z AUTO 33022G29KT 10SM CLR M16/M21 A3028 RMK AO2 T11571207,M
OOA,2026-01-19 10:55,3.20,-5.80,65.37,330.00,22.00,0.00,30.29,M,10.00,25.00,CLR,M,M,M,M,M,M,M,M,M,M,M,M,M,M,-19.99,KOOA 191055Z AUTO 33022G25KT 10SM CLR M16/M21 A3029 RMK AO2 T11601210,M
OOA,2026-01-19 11:15,3.00,-5.80,65.97,320.00,20.00,0.00,30.30,M,10.00,26.00,CLR,M,M,M,M,M,M,M,M,M,M,M,M,M,M,-19.38,KOOA 191115Z AUTO 32020G26KT 10SM CLR M16/M21 A3030 RMK AO2 T11611210,M
OOA,2026-01-19 11:35,3.00,-5.30,67.58,320.00,14.00,0.00,30.31,M,10.00,23.00,CLR,M,M,M,M,M,M,M,M,M,M,M,M,M,M,-16.22,KOOA 191135Z AUTO 32014G23KT 10SM CLR M16/M21 A3031 RMK AO2 T11621207,M
OOA,2026-01-19 11:55,3.00,-3.00,75.46,320.00,13.00,0.00,30.32,M,7.00,M,CLR,M,M,M,M,M,M,M,M,M,M,M,M,M,M,-15.58,KOOA 191155Z AUTO 32013KT 7SM CLR M16/M19 A3032 RMK AO2 T11611194 11115 21162,M
OOA,2026-01-19 12:15,3.20,-4.00,71.28,310.00,18.00,0.00,30.34,M,10.00,24.00,CLR,M,M,M,M,M,M,M,M,M,M,M,M,M,M,-18.16,KOOA 191215Z AUTO 31018G24KT 10SM CLR M16/M20 A3034 RMK AO2 T11601200,M
OOA,2026-01-19 12:35,3.00,-5.40,67.26,320.00,20.00,0.00,30.35,M,10.00,25.00,CLR,M,M,M,M,M,M,M,M,M,M,M,M,M,M,-19.38,KOOA 191235Z AUTO 32020G25KT 10SM CLR M16/M21 A3035 RMK AO2 T11621208,M
OOA,2026-01-19 12:55,3.00,-5.30,67.58,310.00,22.00,0.00,30.36,M,10.00,26.00,CLR,M,M,M,M,M,M,M,M,M,M,M,M,M,M,-20.25,KOOA 191255Z AUTO 31022G26KT 10SM CLR M16/M21 A3036 RMK AO2 T11611207,M
OOA,2026-01-19 13:15,2.30,-6.00,67.49,320.00,17.00,0.00,30.37,M,10.00,M,CLR,M,M,M,M,M,M,M,M,M,M,M,M,M,M,-18.83,KOOA 191315Z AUTO 32017KT 10SM CLR M16/M21 A3037 RMK AO2 T11651212,M
OOA,2026-01-19 13:35,2.00,-6.70,66.16,310.00,15.00,0.00,30.38,M,10.00,20.00,CLR,M,M,M,M,M,M,M,M,M,M,M,M,M,M,-18.11,KOOA 191335Z AUTO 31015G20KT 10SM CLR M17/M21 A3038 RMK AO2 T11671215,M
OOA,2026-01-19 13:55,2.30,-6.30,66.52,310.00,17.00,0.00,30.39,M,10.00,22.00,CLR,M,M,M,M,M,M,M,M,M,M,M,M,M,M,-18.83,KOOA 191355Z AUTO 31017G22KT 10SM CLR M16/M21 A3039 RMK AO2 T11651213,M
OOA,2026-01-19 14:15,3.00,-6.30,64.40,310.00,17.00,0.00,30.39,M,10.00,24.00,CLR,M,M,M,M,M,M,M,M,M,M,M,M,M,M,-17.92,KOOA 191415Z AUTO 31017G24KT 10SM CLR M16/M21 A3039 RMK AO2 T11621213,M
OOA,2026-01-19 14:35,3.60,-6.00,63.55,310.00,15.00,0.00,30.40,M,10.00,22.00,CLR,M,M,M,M,M,M,M,M,M,M,M,M,M,M,-16.04,KOOA 191435Z AUTO 31015G22KT 10SM CLR M16/M21 A3040 RMK AO2 T11581211,M
OOA,2026-01-19 14:55,4.00,-5.30,64.54,320.00,17.00,0.00,30.41,M,10.00,25.00,CLR,M,M,M,M,M,M,M,M,M,M,M,M,M,M,-16.61,KOOA 191455Z AUTO 32017G25KT 10SM CLR M15/M21 A3041 RMK AO2 T11551207,M
OOA,2026-01-19 15:15,5.00,-4.50,64.06,310.00,15.00,0.00,30.42,M,10.00,24.00,CLR,M,M,M,M,M,M,M,M,M,M,M,M,M,M,-14.22,KOOA 191515Z AUTO 31015G24KT 10SM CLR M15/M20 A3042 RMK AO2 T11501203,M
OOA,2026-01-19 15:35,5.00,-4.70,63.44,300.00,21.00,0.00,30.43,M,10.00,26.00,CLR,M,M,M,M,M,M,M,M,M,M,M,M,M,M,-17.16,KOOA 191535Z AUTO 30021G26KT 10SM CLR M15/M20 A3043 RMK AO2 T11491204,M
OOA,2026-01-19 15:55,6.00,-4.40,61.49,310.00,22.00,0.00,30.44,M,10.00,26.00,CLR,M,M,M,M,M,M,M,M,M,M,M,M,M,M,-16.24,KOOA 191555Z AUTO 31022G26KT 10SM CLR M14/M20 A3044 RMK AO2 T11441202,M
OOA,2026-01-19 16:15,6.60,-4.00,60.99,310.00,19.00,0.00,30.44,M,10.00,25.00,CLR,M,M,M,M,M,M,M,M,M,M,M,M,M,M,-14.15,KOOA 191615Z AUTO 31019G25KT 10SM CLR M14/M20 A3044 RMK AO2 T11411200,M
OOA,2026-01-19 16:35,7.30,-3.60,60.22,310.00,18.00,0.00,30.46,M,10.00,24.00,CLR,M,M,M,M,M,M,M,M,M,M,M,M,M,M,-12.77,KOOA 191635Z AUTO 31018G24KT 10SM CLR M14/M20 A3046 RMK AO2 T11371198,M
OOA,2026-01-19 16:55,7.70,-4.00,58.02,310.00,16.00,0.00,30.46,M,10.00,22.00,CLR,M,M,M,M,M,M,M,M,M,M,M,M,M,M,-11.25,KOOA 191655Z AUTO 31016G22KT 10SM CLR M13/M20 A3046 RMK AO2 T11351199,M
OOA,2026-01-19 17:15,8.20,-2.70,60.36,300.00,19.00,0.00,30.46,M,10.00,M,CLR,M,M,M,M,M,M,M,M,M,M,M,M,M,M,-12.04,KOOA 191715Z AUTO 30019KT 10SM CLR M13/M19 A3046 RMK AO2 T11321193,M
OOA,2026-01-19 17:35,8.60,-3.50,57.06,300.00,17.00,0.00,30.45,M,10.00,24.00,CLR,M,M,M,M,M,M,M,M,M,M,M,M,M,M,-10.58,KOOA 191735Z AUTO 30017G24KT 10SM CLR M13/M20 A3045 RMK AO2 T11301197,M
OOA,2026-01-19 17:55,10.00,-2.20,57.01,310.00,14.00,0.00,30.44,M,10.00,20.00,CLR,M,M,M,M,M,M,M,M,M,M,M,M,M,M,-7.20,KOOA 191755Z AUTO 31014G20KT 10SM CLR M12/M19 A3044 RMK AO2 T11231190 11123 21167,M
OOA,2026-01-19 18:15,10.00,-2.70,55.67,300.00,18.00,0.00,30.44,M,10.00,22.00,CLR,M,M,M,M,M,M,M,M,M,M,M,M,M,M,-9.21,KOOA 191815Z AUTO 30018G22KT 10SM CLR M12/M19 A3044 RMK AO2 T11221193,M
OOA,2026-01-19 18:35,10.40,-3.00,53.91,300.00,16.00,0.00,30.43,M,10.00,20.00,CLR,M,M,M,M,M,M,M,M,M,M,M,M,M,M,-7.74,KOOA 191835Z AUTO 30016G20KT 10SM CLR M12/M19 A3043 RMK AO2 T11201194,M
OOA,2026-01-19 18:55,11.30,-2.40,53.29,290.00,16.00,0.00,30.42,M,10.00,M,CLR,M,M,M,M,M,M,M,M,M,M,M,M,M,M,-6.56,KOOA 191855Z AUTO 29016KT 10SM CLR M11/M19 A3042 RMK AO2 T11151191,M
OOA,2026-01-19 19:15,11.00,-3.30,51.74,280.00,15.00,0.00,30.41,M,10.00,18.00,CLR,M,M,M,M,M,M,M,M,M,M,M,M,M,M,-6.44,KOOA 191915Z AUTO 28015G18KT 10SM CLR M12/M20 A3041 RMK AO2 T11161196,M
OOA,2026-01-19 19:35,12.00,-3.00,50.21,300.00,11.00,0.00,30.40,M,10.00,18.00,CLR,M,M,M,M,M,M,M,M,M,M,M,M,M,M,-2.81,KOOA 191935Z AUTO 30011G18KT 10SM CLR M11/M19 A3040 RMK AO2 T11121194,M
OOA,2026-01-19 19:55,12.20,-2.00,52.18,280.00,11.00,0.00,30.40,M,10.00,17.00,CLR,M,M,M,M,M,M,M,M,M,M,M,M,M,M,-2.56,KOOA 191955Z AUTO 28011G17KT 10SM CLR M11/M19 A3040 RMK AO2 T11101189,M
OOA,2026-01-19 20:15,13.30,-1.50,50.90,290.00,14.00,0.00,30.39,M,10.00,M,CLR,M,M,M,M,M,M,M,M,M,M,M,M,M,M,-2.94,KOOA 192015Z AUTO 29014KT 10SM CLR M10/M19 A3039 RMK AO2 T11041186,M
OOA,2026-01-19 20:35,13.00,-2.20,49.90,300.00,13.00,0.00,30.39,M,10.00,M,CLR,M,M,M,M,M,M,M,M,M,M,M,M,M,M,-2.77,KOOA 192035Z AUTO 30013KT 10SM CLR M10/M19 A3039 RMK AO2 T11051190,M
OOA,2026-01-19 20:55,13.60,-1.70,49.76,280.00,14.00,0.00,30.38,M,10.00,18.00,CLR,M,M,M,M,M,M,M,M,M,M,M,M,M,M,-2.56,KOOA 192055Z AUTO 28014G18KT 10SM CLR M10/M19 A3038 RMK AO2 T11021187,M
OOA,2026-01-19 21:15,14.40,-0.60,50.60,290.00,14.00,0.00,30.37,M,10.00,19.00,CLR,M,M,M,M,M,M,M,M,M,M,M,M,M,M,-1.52,KOOA 192115Z AUTO 29014G19KT 10SM CLR M10/M18 A3037 RMK AO2 T10981181,M
OOA,2026-01-19 21:35,14.00,-2.00,48.20,290.00,12.00,0.00,30.36,M,10.00,M,CLR,M,M,M,M,M,M,M,M,M,M,M,M,M,M,-0.91,KOOA 192135Z AUTO 29012KT 10SM CLR M10/M19 A3036 RMK AO2 T11001188,M
OOA,2026-01-19 21:55,14.00,-1.00,50.54,290.00,11.00,0.00,30.36,M,10.00,M,CLR,M,M,M,M,M,M,M,M,M,M,M,M,M,M,-0.28,KOOA 192155Z AUTO 29011KT 10SM CLR M10/M18 A3036 RMK AO2 T11001184,M
OOA,2026-01-19 22:15,14.00,-1.30,49.83,290.00,11.00,0.00,30.35,M,10.00,M,CLR,M,M,M,M,M,M,M,M,M,M,M,M,M,M,-0.28,KOOA 192215Z AUTO 29011KT 10SM CLR M10/M18 A3035 RMK AO2 T11011185,M
OOA,2026-01-19 22:35,12.70,-0.80,54.02,290.00,7.00,0.00,30.35,M,10.00,M,CLR,M,M,M,M,M,M,M,M,M,M,M,M,M,M,1.25,KOOA 192235Z AUTO 29007KT 10SM CLR M11/M18 A3035 RMK AO2 T11071182,M
OOA,2026-01-19 22:55,12.70,0.30,56.89,290.00,8.00,0.00,30.34,M,10.00,M,CLR,M,M,M,M,M,M,M,M,M,M,M,M,M,M,0.34,KOOA 192255Z AUTO 29008KT 10SM CLR M11/M18 A3034 RMK AO2 T11071176,M
OOA,2026-01-19 23:15,13.00,0.00,55.35,300.00,7.00,0.00,30.34,M,10.00,M,CLR,M,M,M,M,M,M,M,M,M,M,M,M,M,M,1.62,KOOA 192315Z AUTO 30007KT 10SM CLR M11/M18 A3034 RMK AO2 T11061178,M
OOA,2026-01-19 23:35,12.00,0.30,58.68,310.00,6.00,0.00,30.34,M,10.00,M,CLR,M,M,M,M,M,M,M,M,M,M,M,M,M,M,1.44,KOOA 192335Z AUTO 31006KT 10SM CLR M11/M18 A3034 RMK AO2 T11111176,M
OOA,2026-01-19 23:55,12.00,0.50,59.23,300.00,5.00,0.00,30.34,M,10.00,M,CLR,M,M,M,M,M,M,M,M,M,M,M,M,M,M,2.64,KOOA 192355Z AUTO 30005KT 10SM CLR M11/M17 A3034 RMK AO2 T11121175 11097 21125,M
OOA,2026-01-20 00:15,11.50,0.70,61.13,290.00,3.00,0.00,30.34,M,10.00,M,CLR,M,M,M,M,M,M,M,M,M,M,M,M,M,M,5.25,KOOA 200015Z AUTO 29003KT 10SM CLR M11/M17 A3034 RMK AO2 T11141174,M
OOA,2026-01-20 00:35,10.80,0.50,62.47,290.00,3.00,0.00,30.34,M,10.00,M,CLR,M,M,M,M,M,M,M,M,M,M,M,M,M,M,4.45,KOOA 200035Z AUTO 29003KT 10SM CLR M12/M17 A3034 RMK AO2 T11181175,M
OOA,2026-01-20 00:55,10.40,-0.40,60.97,280.00,4.00,0.00,30.34,M,10.00,M,CLR,M,M,M,M,M,M,M,M,M,M,M,M,M,M,2.20,KOOA 200055Z AUTO 28004KT 10SM CLR M12/M18 A3034 RMK AO2 T11201180,M
OOA,2026-01-20 01:15,10.00,-1.00,60.34,0.00,0.00,0.00,30.34,M,10.00,M,CLR,M,M,M,M,M,M,M,M,M,M,M,M,M,M,10.00,KOOA 200115Z AUTO 00000KT 10SM CLR M12/M18 A3034 RMK AO2 T11221184,M
OOA,2026-01-20 01:35,8.40,0.50,69.56,0.00,0.00,0.00,30.34,M,10.00,M,CLR,M,M,M,M,M,M,M,M,M,M,M,M,M,M,8.40,KOOA 200135Z AUTO 00000KT 10SM CLR M13/M17 A3034 RMK AO2 T11311175,M
OOA,2026-01-20 01:55,9.50,1.00,67.78,240.00,3.00,0.00,30.35,M,10.00,M,CLR,M,M,M,M,M,M,M,M,M,M,M,M,M,M,2.97,KOOA 200155Z AUTO 24003KT 10SM CLR M12/M17 A3035 RMK AO2 T11251173,M
OOA,2026-01-20 02:15,9.30,0.70,67.43,210.00,3.00,0.00,30.34,M,10.00,M,CLR,M,M,M,M,M,M,M,M,M,M,M,M,M,M,2.74,KOOA 200215Z AUTO 21003KT 10SM CLR M13/M17 A3034 RMK AO2 T11261174,M
OOA,2026-01-20 02:35,9.30,1.80,70.98,210.00,3.00,0.00,30.34,M,10.00,M,CLR,M,M,M,M,M,M,M,M,M,M,M,M,M,M,2.74,KOOA 200235Z AUTO 21003KT 10SM CLR M13/M17 A3034 RMK AO2 T11261168,M
OOA,2026-01-20 02:55,10.00,2.30,70.41,200.00,4.00,0.00,30.33,M,10.00,M,CLR,M,M,M,M,M,M,M,M,M,M,M,M,M,M,1.73,KOOA 200255Z AUTO 20004KT 10SM CLR M12/M16 A3033 RMK AO2 T11231165,M
OOA,2026-01-20 03:15,11.00,2.70,68.60,210.00,4.00,0.00,30.33,M,10.00,M,CLR,M,M,M,M,M,M,M,M,M,M,M,M,M,M,2.90,KOOA 200315Z AUTO 21004KT 10SM CLR M12/M16 A3033 RMK AO2 T11171163,M
OOA,2026-01-20 03:35,12.00,2.30,64.41,200.00,3.00,0.00,30.32,M,10.00,M,CLR,M,M,M,M,M,M,M,M,M,M,M,M,M,M,5.82,KOOA 200335Z AUTO 20003KT 10SM CLR M11/M16 A3032 RMK AO2 T11111165,M
OOA,2026-01-20 03:55,12.20,2.50,64.44,200.00,3.00,0.00,30.32,M,10.00,M,CLR,M,M,M,M,M,M,M,M,M,M,M,M,M,M,6.05,KOOA 200355Z AUTO 20003KT 10SM CLR M11/M16 A3032 RMK AO2 T11101164,M
OOA,2026-01-20 04:15,12.60,2.70,63.90,210.00,4.00,0.00,30.32,M,10.00,M,CLR,M,M,M,M,M,M,M,M,M,M,M,M,M,M,4.77,KOOA 200415Z AUTO 21004KT 10SM CLR M11/M16 A3032 RMK AO2 T11081163,M
OOA,2026-01-20 04:35,12.20,2.50,64.44,210.00,5.00,0.00,30.32,M,10.00,M,CLR,M,M,M,M,M,M,M,M,M,M,M,M,M,M,2.88,KOOA 200435Z AUTO 21005KT 10SM CLR M11/M16 A3032 RMK AO2 T11101164,M
OOA,2026-01-20 04:55,12.00,3.00,66.54,220.00,6.00,0.00,30.33,M,10.00,M,CLR,M,M,M,M,M,M,M,M,M,M,M,M,M,M,1.44,KOOA 200455Z AUTO 22006KT 10SM CLR M11/M16 A3033 RMK AO2 T11111161,M
OOA,2026-01-20 05:15,12.00,2.30,64.41,220.00,4.00,0.00,30.33,M,10.00,M,CLR,M,M,M,M,M,M,M,M,M,M,M,M,M,M,4.07,KOOA 200515Z AUTO 22004KT 10SM CLR M11/M16 A3033 RMK AO2 T11111165,M
OOA,2026-01-20 05:35,12.20,3.00,65.95,220.00,4.00,0.00,30.34,M,10.00,M,CLR,M,M,M,M,M,M,M,M,M,M,M,M,M,M,4.30,KOOA 200535Z AUTO 22004KT 10SM CLR M11/M16 A3034 RMK AO2 T11101161,M
OOA,2026-01-20 05:55,12.00,3.60,68.41,210.00,3.00,0.00,30.33,M,10.00,M,CLR,M,M,M,M,M,M,M,M,M,M,M,M,M,M,5.82,KOOA 200555Z AUTO 21003KT 10SM CLR M11/M16 A3033 RMK AO2 T11121158 11108 21131 410971167,M
OOA,2026-01-20 06:15,11.30,3.70,70.89,220.00,4.00,0.00,30.33,M,10.00,M,CLR,M,M,M,M,M,M,M,M,M,M,M,M,M,M,3.25,KOOA 200615Z AUTO 22004KT 10SM CLR M11/M16 A3033 RMK AO2 T11151157,M
OOA,2026-01-20 06:35,12.60,4.50,69.43,210.00,5.00,0.00,30.33,M,10.00,M,CLR,M,M,M,M,M,M,M,M,M,M,M,M,M,M,3.36,KOOA 200635Z AUTO 21005KT 10SM CLR M11/M15 A3033 RMK AO2 T11081153,M
OOA,2026-01-20 06:55,13.00,3.60,65.45,210.00,3.00,0.00,30.33,M,10.00,M,CLR,M,M,M,M,M,M,M,M,M,M,M,M,M,M,6.97,KOOA 200655Z AUTO 21003KT 10SM CLR M10/M16 A3033 RMK AO2 T11051158,M
OOA,2026-01-20 07:15,12.60,4.00,67.85,200.00,4.00,0.00,30.33,M,10.00,M,CLR,M,M,M,M,M,M,M,M,M,M,M,M,M,M,4.77,KOOA 200715Z AUTO 20004KT 10SM CLR M11/M15 A3033 RMK AO2 T11081155,M
OOA,2026-01-20 07:35,12.60,4.00,67.85,190.00,4.00,0.00,30.32,M,10.00,M,CLR,M,M,M,M,M,M,M,M,M,M,M,M,M,M,4.77,KOOA 200735Z AUTO 19004KT 10SM CLR M11/M16 A3032 RMK AO2 T11081156,M
OOA,2026-01-20 07:55,12.00,4.00,69.68,180.00,4.00,0.00,30.32,M,10.00,M,CLR,M,M,M,M,M,M,M,M,M,M,M,M,M,M,4.07,KOOA 200755Z AUTO 18004KT 10SM CLR M11/M15 A3032 RMK AO2 T11121155,M
OOA,2026-01-20 08:15,12.20,4.60,71.00,180.00,4.00,0.00,30.32,M,10.00,M,CLR,M,M,M,M,M,M,M,M,M,M,M,M,M,M,4.30,KOOA 200815Z AUTO 18004KT 10SM CLR M11/M15 A3032 RMK AO2 T11101152,M
OOA,2026-01-20 08:35,12.00,5.00,72.95,180.00,5.00,0.00,30.32,M,10.00,M,CLR,M,M,M,M,M,M,M,M,M,M,M,M,M,M,2.64,KOOA 200835Z AUTO 18005KT 10SM CLR M11/M15 A3032 RMK AO2 T11111150,M
OOA,2026-01-20 08:55,12.00,5.40,74.30,170.00,4.00,0.00,30.32,M,10.00,M,CLR,M,M,M,M,M,M,M,M,M,M,M,M,M,M,4.07,KOOA 200855Z AUTO 17004KT 10SM CLR M11/M15 A3032 RMK AO2 T11111148,M
OOA,2026-01-20 09:15,12.70,5.00,70.73,160.00,3.00,0.00,30.32,M,10.00,M,CLR,M,M,M,M,M,M,M,M,M,M,M,M,M,M,6.63,KOOA 200915Z AUTO 16003KT 10SM CLR M11/M15 A3032 RMK AO2 T11071150,M
OOA,2026-01-20 09:35,13.50,6.40,72.79,170.00,3.00,0.00,30.32,M,10.00,M,CLR,M,M,M,M,M,M,M,M,M,M,M,M,M,M,7.54,KOOA 200935Z AUTO 17003KT 10SM CLR M10/M14 A3032 RMK AO2 T11031142,M
OOA,2026-01-20 09:55,14.00,6.60,71.85,160.00,3.00,0.00,30.32,M,10.00,M,CLR,M,M,M,M,M,M,M,M,M,M,M,M,M,M,8.11,KOOA 200955Z AUTO 16003KT 10SM CLR M10/M14 A3032 RMK AO2 T11001141,M
OOA,2026-01-20 10:15,14.00,7.00,73.17,0.00,0.00,0.00,30.32,M,10.00,M,CLR,M,M,M,M,M,M,M,M,M,M,M,M,M,M,14.00,KOOA 201015Z AUTO 00000KT 10SM CLR M10/M14 A3032 RMK AO2 T11001138,M
OOA,2026-01-20 10:35,14.50,7.50,73.23,0.00,0.00,0.00,30.32,M,10.00,M,CLR,M,M,M,M,M,M,M,M,M,M,M,M,M,M,14.50,KOOA 201035Z AUTO 00000KT 10SM CLR M10/M14 A3032 RMK AO2 T10971136,M
OOA,2026-01-20 10:55,14.50,7.30,72.57,30.00,4.00,0.00,30.32,M,10.00,M,CLR,M,M,M,M,M,M,M,M,M,M,M,M,M,M,6.98,KOOA 201055Z AUTO 03004KT 10SM CLR M10/M14 A3032 RMK AO2 T10971137,M
OOA,2026-01-20 11:15,11.30,6.00,78.77,50.00,4.00,0.00,30.32,M,10.00,M,CLR,M,M,M,M,M,M,M,M,M,M,M,M,M,M,3.25,KOOA 201115Z AUTO 05004KT 10SM CLR M11/M14 A3032 RMK AO2 T11151145,M
OOA,2026-01-20 11:35,9.00,3.70,78.57,50.00,5.00,0.00,30.32,M,10.00,M,CLR,M,M,M,M,M,M,M,M,M,M,M,M,M,M,-0.92,KOOA 201135Z AUTO 05005KT 10SM CLR M13/M16 A3032 RMK AO2 T11281157,M
OOA,2026-01-20 11:55,7.00,2.00,79.48,60.00,5.00,0.00,30.32,M,10.00,M,CLR,M,M,M,M,M,M,M,M,M,M,M,M,M,M,-3.29,KOOA 201155Z AUTO 06005KT 10SM CLR M14/M17 A3032 RMK AO2 T11381166 11095 21138,M
OOA,2026-01-20 12:15,6.40,1.80,80.92,70.00,6.00,0.00,30.32,M,10.00,M,CLR,M,M,M,M,M,M,M,M,M,M,M,M,M,M,-5.30,KOOA 201215Z AUTO 07006KT 10SM CLR M14/M17 A3032 RMK AO2 T11421168,M
OOA,2026-01-20 12:35,6.00,1.40,80.89,70.00,6.00,0.00,30.32,M,10.00,M,CLR,M,M,M,M,M,M,M,M,M,M,M,M,M,M,-5.78,KOOA 201235Z AUTO 07006KT 10SM CLR M14/M17 A3032 RMK AO2 T11451170,M
OOA,2026-01-20 12:55,6.00,1.00,79.40,70.00,6.00,0.00,30.32,M,10.00,M,CLR,M,M,M,M,M,M,M,M,M,M,M,M,M,M,-5.78,KOOA 201255Z AUTO 07006KT 10SM CLR M14/M17 A3032 RMK AO2 T11451173,M
OOA,2026-01-20 13:15,6.00,0.50,77.56,80.00,6.00,0.00,30.32,M,10.00,M,CLR,M,M,M,M,M,M,M,M,M,M,M,M,M,M,-5.78,KOOA 201315Z AUTO 08006KT 10SM CLR M14/M17 A3032 RMK AO2 T11451175,M
OOA,2026-01-20 13:35,5.70,0.30,77.90,80.00,5.00,0.00,30.32,M,10.00,M,CLR,M,M,M,M,M,M,M,M,M,M,M,M,M,M,-4.84,KOOA 201335Z AUTO 08005KT 10SM CLR M15/M18 A3032 RMK AO2 T11461176,M
OOA,2026-01-20 13:55,6.60,1.00,77.26,80.00,6.00,0.00,30.32,M,10.00,M,CLR,M,M,M,M,M,M,M,M,M,M,M,M,M,M,-5.06,KOOA 201355Z AUTO 08006KT 10SM CLR M14/M17 A3032 RMK AO2 T11411173,M
OOA,2026-01-20 14:15,8.60,2.30,74.98,80.00,4.00,0.00,30.32,M,10.00,M,CLR,M,M,M,M,M,M,M,M,M,M,M,M,M,M,0.09,KOOA 201415Z AUTO 08004KT 10SM CLR M13/M16 A3032 RMK AO2 T11301165,M
OOA,2026-01-20 14:35,12.20,5.00,72.31,90.00,4.00,0.00,30.32,M,10.00,M,CLR,M,M,M,M,M,M,M,M,M,M,M,M,M,M,4.30,KOOA 201435Z AUTO 09004KT 10SM CLR M11/M15 A3032 RMK AO2 T11101151,M
OOA,2026-01-20 14:55,14.00,5.70,68.97,100.00,5.00,0.00,30.32,M,10.00,M,CLR,M,M,M,M,M,M,M,M,M,M,M,M,M,M,5.02,KOOA 201455Z AUTO 10005KT 10SM CLR M10/M15 A3032 RMK AO2 T11011146,M
OOA,2026-01-20 15:15,14.50,6.00,68.40,90.00,4.00,0.00,30.32,M,10.00,M,CLR,M,M,M,M,M,M,M,M,M,M,M,M,M,M,6.98,KOOA 201515Z AUTO 09004KT 10SM CLR M10/M14 A3032 RMK AO2 T10971144,M
OOA,2026-01-20 15:35,15.80,7.00,67.64,100.00,5.00,0.00,30.32,M,10.00,M,CLR,M,M,M,M,M,M,M,M,M,M,M,M,M,M,7.16,KOOA 201535Z AUTO 10005KT 10SM CLR M09/M14 A3032 RMK AO2 T10901139,M
OOA,2026-01-20 15:55,17.00,7.50,65.68,110.00,4.00,0.00,30.33,M,10.00,M,CLR,M,M,M,M,M,M,M,M,M,M,M,M,M,M,9.90,KOOA 201555Z AUTO 11004KT 10SM CLR M08/M14 A3033 RMK AO2 T10831136,M
OOA,2026-01-20 16:15,18.30,8.20,64.09,110.00,4.00,0.00,30.33,M,10.00,M,CLR,M,M,M,M,M,M,M,M,M,M,M,M,M,M,11.42,KOOA 201615Z AUTO 11004KT 10SM CLR M08/M13 A3033 RMK AO2 T10761132,M
OOA,2026-01-20 16:35,19.20,8.40,62.22,110.00,4.00,0.00,30.32,M,10.00,M,CLR,M,M,M,M,M,M,M,M,M,M,M,M,M,M,12.47,KOOA 201635Z AUTO 11004KT 10SM CLR M07/M13 A3032 RMK AO2 T10711131,M
OOA,2026-01-20 16:55,19.80,8.60,61.20,130.00,3.00,0.00,30.32,M,10.00,M,CLR,M,M,M,M,M,M,M,M,M,M,M,M,M,M,14.74,KOOA 201655Z AUTO 13003KT 10SM CLR M07/M13 A3032 RMK AO2 T10681130,M
OOA,2026-01-20 17:15,20.50,8.80,59.93,130.00,5.00,0.00,30.32,M,10.00,M,CLR,M,M,M,M,M,M,M,M,M,M,M,M,M,M,12.74,KOOA 201715Z AUTO 13005KT 10SM CLR M06/M13 A3032 RMK AO2 T10641129,M
OOA,2026-01-20 17:35,22.00,10.40,60.42,170.00,6.00,0.00,30.30,M,10.00,M,CLR,M,M,M,M,M,M,M,M,M,M,M,M,M,M,13.49,KOOA 201735Z AUTO 17006KT 10SM CLR M06/M12 A3030 RMK AO2 T10561120,M
OOA,2026-01-20 17:55,21.70,10.00,60.11,170.00,6.00,0.00,30.28,M,10.00,M,CLR,M,M,M,M,M,M,M,M,M,M,M,M,M,M,13.13,KOOA 201755Z AUTO 17006KT 10SM CLR M06/M12 A3028 RMK AO2 T10571122 11056 21147,M
OOA,2026-01-20 18:15,22.50,10.60,59.69,180.00,4.00,0.00,30.28,M,10.00,M,CLR,M,M,M,M,M,M,M,M,M,M,M,M,M,M,16.33,KOOA 201815Z AUTO 18004KT 10SM CLR M05/M12 A3028 RMK AO2 T10531119,M
OOA,2026-01-20 18:35,23.00,10.60,58.44,160.00,4.00,0.00,30.26,M,10.00,M,CLR,M,M,M,M,M,M,M,M,M,M,M,M,M,M,16.91,KOOA 201835Z AUTO 16004KT 10SM CLR M05/M12 A3026 RMK AO2 T10491119,M
OOA,2026-01-20 18:55,24.00,10.80,56.54,190.00,4.00,0.00,30.25,M,10.00,M,CLR,M,M,M,M,M,M,M,M,M,M,M,M,M,M,18.08,KOOA 201855Z AUTO 19004KT 10SM CLR M04/M12 A3025 RMK AO2 T10451118,M
OOA,2026-01-20 19:15,24.80,11.00,55.17,160.00,4.00,0.00,30.24,M,10.00,M,CLR,M,M,M,M,M,M,M,M,M,M,M,M,M,M,19.01,KOOA 201915Z AUTO 16004KT 10SM CLR M04/M12 A3024 RMK AO2 T10401116,M
OOA,2026-01-20 19:35,25.70,11.30,53.86,170.00,4.00,0.00,30.22,M,10.00,M,CLR,M,M,M,M,M,M,M,M,M,M,M,M,M,M,20.06,KOOA 201935Z AUTO 17004KT 10SM CLR M03/M11 A3022 RMK AO2 T10351115,M
OOA,2026-01-20 19:55,27.00,11.50,51.49,180.00,5.00,0.00,30.20,M,10.00,M,CLR,M,M,M,M,M,M,M,M,M,M,M,M,M,M,20.46,KOOA 201955Z AUTO 18005KT 10SM CLR M03/M11 A3020 RMK AO2 T10281114,M
OOA,2026-01-20 20:15,28.40,11.70,49.04,170.00,9.00,0.00,30.19,M,10.00,M,CLR,M,M,M,M,M,M,M,M,M,M,M,M,M,M,19.04,KOOA 202015Z AUTO 17009KT 10SM CLR M02/M11 A3019 RMK AO2 T10201113,M
OOA,2026-01-20 20:35,28.00,10.80,47.90,170.00,7.00,0.00,30.19,M,10.00,M,CLR,M,M,M,M,M,M,M,M,M,M,M,M,M,M,19.90,KOOA 202035Z AUTO 17007KT 10SM CLR M02/M12 A3019 RMK AO2 T10231118,M
OOA,2026-01-20 20:55,28.20,11.30,48.58,180.00,8.00,0.00,30.18,M,10.00,M,CLR,M,M,M,M,M,M,M,M,M,M,M,M,M,M,19.43,KOOA 202055Z AUTO 18008KT 10SM CLR M02/M11 A3018 RMK AO2 T10211115,M
OOA,2026-01-20 21:15,28.40,11.70,49.04,170.00,10.00,0.00,30.17,M,10.00,M,CLR,M,M,M,M,M,M,M,M,M,M,M,M,M,M,18.45,KOOA 202115Z AUTO 17010KT 10SM CLR M02/M11 A3017 RMK AO2 T10201113,M
OOA,2026-01-20 21:35,29.00,12.00,48.49,170.00,8.00,0.00,30.17,M,10.00,M,CLR,M,M,M,M,M,M,M,M,M,M,M,M,M,M,20.42,KOOA 202135Z AUTO 17008KT 10SM CLR M02/M11 A3017 RMK AO2 T10171112,M
OOA,2026-01-20 21:55,29.00,12.20,48.92,150.00,7.00,0.00,30.16,M,10.00,M,CLR,M,M,M,M,M,M,M,M,M,M,M,M,M,M,21.12,KOOA 202155Z AUTO 15007KT 10SM CLR M02/M11 A3016 RMK AO2 T10161110,M
OOA,2026-01-20 22:15,29.30,13.30,50.73,170.00,6.00,0.00,30.15,M,10.00,M,CLR,M,M,M,M,M,M,M,M,M,M,M,M,M,M,22.28,KOOA 202215Z AUTO 17006KT 10SM CLR M01/M10 A3015 RMK AO2 T10151104,M
OOA,2026-01-20 22:35,29.30,13.30,50.73,170.00,7.00,0.00,30.14,M,10.00,M,CLR,M,M,M,M,M,M,M,M,M,M,M,M,M,M,21.49,KOOA 202235Z AUTO 17007KT 10SM CLR M01/M10 A3014 RMK AO2 T10151104,M
OOA,2026-01-20 22:55,29.00,13.60,52.04,170.00,7.00,0.00,30.12,M,10.00,M,CLR,M,M,M,M,M,M,M,M,M,M,M,M,M,M,21.12,KOOA 202255Z AUTO 17007KT 10SM CLR M02/M10 A3012 RMK AO2 T10171102,M
OOA,2026-01-20 23:15,28.40,14.40,55.24,150.00,6.00,0.00,30.11,M,10.00,M,CLR,M,M,M,M,M,M,M,M,M,M,M,M,M,M,21.19,KOOA 202315Z AUTO 15006KT 10SM CLR M02/M10 A3011 RMK AO2 T10201098,M
OOA,2026-01-20 23:35,28.00,15.80,59.69,140.00,6.00,0.00,30.11,M,10.00,M,CLR,M,M,M,M,M,M,M,M,M,M,M,M,M,M,20.71,KOOA 202335Z AUTO 14006KT 10SM CLR M02/M09 A3011 RMK AO2 T10221090,M
OOA,2026-01-21 09:15,23.40,18.00,79.48,310.00,6.00,0.00,30.02,M,10.00,M,CLR,M,M,M,M,M,M,M,M,M,M,M,M,M,M,15.17,KOOA 210915Z AUTO 31006KT 10SM CLR M05/M08 A3002 RMK AO2 T10481077,M
OOA,2026-01-21 09:35,23.50,18.50,80.87,300.00,7.00,0.00,30.02,M,10.00,M,CLR,M,M,M,M,M,M,M,M,M,M,M,M,M,M,14.42,KOOA 210935Z AUTO 30007KT 10SM CLR M05/M07 A3002 RMK AO2 T10471075,M
OOA,2026-01-21 09:55,24.00,19.00,80.91,290.00,5.00,0.00,30.01,M,10.00,M,CLR,M,M,M,M,M,M,M,M,M,M,M,M,M,M,16.89,KOOA 210955Z AUTO 29005KT 10SM CLR M04/M07 A3001 RMK AO2 T10451073,M
OOA,2026-01-21 10:15,23.50,19.00,82.63,300.00,4.00,0.00,30.01,M,10.00,M,CLR,M,M,M,M,M,M,M,M,M,M,M,M,M,M,17.49,KOOA 211015Z AUTO 30004KT 10SM CLR M05/M07 A3001 RMK AO2 T10471073,M
OOA,2026-01-21 10:35,23.00,18.50,82.59,280.00,5.00,0.00,30.02,M,10.00,M,CLR,M,M,M,M,M,M,M,M,M,M,M,M,M,M,15.71,KOOA 211035Z AUTO 28005KT 10SM CLR M05/M07 A3002 RMK AO2 T10511075,M
OOA,2026-01-21 10:55,20.30,17.20,87.54,280.00,8.00,0.00,30.02,M,10.00,M,CLR,M,M,M,M,M,M,M,M,M,M,M,M,M,M,9.70,KOOA 211055Z AUTO 28008KT 10SM CLR M06/M08 A3002 RMK AO2 T10651082,M
OOA,2026-01-21 11:15,18.70,16.00,88.99,290.00,8.00,0.00,30.02,M,10.00,M,CLR,M,M,M,M,M,M,M,M,M,M,M,M,M,M,7.73,KOOA 211115Z AUTO 29008KT 10SM CLR M07/M09 A3002 RMK AO2 T10741089,M
OOA,2026-01-21 11:35,17.80,15.40,90.12,290.00,6.00,0.00,30.00,M,10.00,M,CLR,M,M,M,M,M,M,M,M,M,M,M,M,M,M,8.43,KOOA 211135Z AUTO 29006KT 10SM CLR M08/M09 A3000 RMK AO2 T10791092,M
OOA,2026-01-21 11:55,16.70,14.50,90.86,270.00,8.00,0.00,30.01,M,10.00,M,CLR,M,M,M,M,M,M,M,M,M,M,M,M,M,M,5.27,KOOA 211155Z AUTO 27008KT 10SM CLR M08/M10 A3001 RMK AO2 T10851097 11036 21085,M
OOA,2026-01-21 12:15,17.00,14.70,90.48,270.00,7.00,0.00,30.02,M,10.00,M,CLR,M,M,M,M,M,M,M,M,M,M,M,M,M,M,6.50,KOOA 211215Z AUTO 27007KT 10SM CLR M08/M10 A3002 RMK AO2 T10841096,M
OOA,2026-01-21 12:35,16.30,14.00,90.45,270.00,5.00,0.00,30.02,M,10.00,M,CLR,M,M,M,M,M,M,M,M,M,M,M,M,M,M,7.75,KOOA 211235Z AUTO 27005KT 10SM CLR M09/M10 A3002 RMK AO2 T10871101,M
OOA,2026-01-21 12:55,15.00,12.70,90.39,260.00,5.00,0.00,30.02,M,10.00,M,CLR,M,M,M,M,M,M,M,M,M,M,M,M,M,M,6.21,KOOA 211255Z AUTO 26005KT 10SM CLR M09/M11 A3002 RMK AO2 T10951107,M
OOA,2026-01-21 13:15,14.00,12.20,92.37,250.00,5.00,0.00,30.02,M,10.00,M,CLR,M,M,M,M,M,M,M,M,M,M,M,M,M,M,5.02,KOOA 211315Z AUTO 25005KT 10SM CLR M10/M11 A3002 RMK AO2 T10991110,M
OOA,2026-01-21 13:35,14.00,12.00,91.56,250.00,3.00,0.00,30.02,M,10.00,M,CLR,M,M,M,M,M,M,M,M,M,M,M,M,M,M,8.11,KOOA 211335Z AUTO 25003KT 10SM CLR M10/M11 A3002 RMK AO2 T11001111,M
OOA,2026-01-21 13:55,15.30,13.00,90.41,280.00,6.00,0.00,30.02,M,10.00,M,CLR,M,M,M,M,M,M,M,M,M,M,M,M,M,M,5.42,KOOA 211355Z AUTO 28006KT 10SM CLR M09/M11 A3002 RMK AO2 T10931106,M
OOA,2026-01-21 14:15,19.00,15.80,87.09,270.00,7.00,0.00,30.03,M,10.00,M,CLR,M,M,M,M,M,M,M,M,M,M,M,M,M,M,8.93,KOOA 211415Z AUTO 27007KT 10SM CLR M07/M09 A3003 RMK AO2 T10731090,M
OOA,2026-01-21 14:35,20.50,16.70,84.94,270.00,8.00,0.00,30.04,M,10.00,M,CLR,M,M,M,M,M,M,M,M,M,M,M,M,M,M,9.95,KOOA 211435Z AUTO 27008KT 10SM CLR M06/M08 A3004 RMK AO2 T10641085,M
OOA,2026-01-21 14:55,22.00,17.80,83.59,260.00,7.00,0.00,30.03,M,10.00,M,CLR,M,M,M,M,M,M,M,M,M,M,M,M,M,M,12.59,KOOA 211455Z AUTO 26007KT 10SM CLR M06/M08 A3003 RMK AO2 T10561079,M
OOA,2026-01-21 15:15,23.40,19.20,83.69,260.00,9.00,0.00,30.03,M,10.00,M,CLR,M,M,M,M,M,M,M,M,M,M,M,M,M,M,12.82,KOOA 211515Z AUTO 26009KT 10SM CLR M05/M07 A3003 RMK AO2 T10481071,M
OOA,2026-01-21 15:35,25.30,19.60,78.63,250.00,12.00,0.00,30.04,M,10.00,M,CLR,M,M,M,M,M,M,M,M,M,M,M,M,M,M,13.47,KOOA 211535Z AUTO 25012KT 10SM CLR M04/M07 A3004 RMK AO2 T10371069,M
OOA,2026-01-21 15:55,26.60,19.80,75.14,250.00,12.00,0.00,30.04,M,10.00,M,CLR,M,M,M,M,M,M,M,M,M,M,M,M,M,M,15.13,KOOA 211555Z AUTO 25012KT 10SM CLR M03/M07 A3004 RMK AO2 T10301068,M
OOA,2026-01-21 16:15,28.60,21.00,72.83,260.00,12.00,0.00,30.03,M,10.00,M,CLR,M,M,M,M,M,M,M,M,M,M,M,M,M,M,17.67,KOOA 211615Z AUTO 26012KT 10SM CLR M02/M06 A3003 RMK AO2 T10191062,M
OOA,2026-01-21 16:35,30.70,21.70,68.87,250.00,13.00,0.00,30.02,M,10.00,17.00,CLR,M,M,M,M,M,M,M,M,M,M,M,M,M,M,19.90,KOOA 211635Z AUTO 25013G17KT 10SM CLR M01/M06 A3002 RMK AO2 T10071057,M
OOA,2026-01-21 16:55,32.00,22.00,66.17,260.00,14.00,0.00,30.03,M,10.00,M,CLR,M,M,M,M,M,M,M,M,M,M,M,M,M,M,21.16,KOOA 211655Z AUTO 26014KT 10SM CLR 00/M05 A3003 RMK AO2 T00001055,M
OOA,2026-01-21 17:15,33.60,20.00,57.00,290.00,18.00,0.00,30.03,M,10.00,25.00,CLR,M,M,M,M,M,M,M,M,M,M,M,M,M,M,21.85,KOOA 211715Z AUTO 29018G25KT 10SM CLR 01/M07 A3003 RMK AO2 T00091067,M
OOA,2026-01-21 17:35,34.00,19.00,53.74,290.00,21.00,0.00,30.02,M,10.00,25.00,CLR,M,M,M,M,M,M,M,M,M,M,M,M,M,M,21.52,KOOA 211735Z AUTO 29021G25KT 10SM CLR 01/M07 A3002 RMK AO2 T00121072,M
OOA,2026-01-21 17:55,35.40,19.40,51.71,290.00,21.00,0.00,30.01,M,10.00,25.00,CLR,M,M,M,M,M,M,M,M,M,M,M,M,M,M,23.39,KOOA 211755Z AUTO 29021G25KT 10SM CLR 02/M07 A3001 RMK AO2 T00191070 10019 21100,M
OOA,2026-01-21 18:15,36.50,20.00,50.78,270.00,16.00,0.00,29.99,M,10.00,22.00,CLR,M,M,M,M,M,M,M,M,M,M,M,M,M,M,26.28,KOOA 211815Z AUTO 27016G22KT 10SM CLR 03/M07 A2999 RMK AO2 T00251067,M
OOA,2026-01-21 18:35,37.00,20.00,49.79,270.00,15.00,0.00,29.97,M,10.00,M,CLR,M,M,M,M,M,M,M,M,M,M,M,M,M,M,27.26,KOOA 211835Z AUTO 27015KT 10SM CLR 03/M07 A2997 RMK AO2 T00281067,M
OOA,2026-01-21 18:55,38.00,20.00,47.87,260.00,15.00,0.00,29.95,M,10.00,M,CLR,M,M,M,M,M,M,M,M,M,M,M,M,M,M,28.56,KOOA 211855Z AUTO 26015KT 10SM CLR 03/M07 A2995 RMK AO2 T00331067,M
OOA,2026-01-21 19:15,39.20,21.00,47.66,250.00,16.00,0.00,29.93,M,10.00,M,CLR,M,M,M,M,M,M,M,M,M,M,M,M,M,M,29.80,KOOA 211915Z AUTO 25016KT 10SM CLR 04/M06 A2993 RMK AO2 T00401061,M
OOA,2026-01-21 19:35,40.60,21.40,45.90,240.00,19.00,0.00,29.92,M,10.00,22.00,CLR,M,M,M,M,M,M,M,M,M,M,M,M,M,M,30.81,KOOA 211935Z AUTO 24019G22KT 10SM CLR 05/M06 A2992 RMK AO2 T00481059,M
OOA,2026-01-21 19:55,41.70,21.00,43.25,240.00,19.00,0.00,29.89,M,10.00,26.00,CLR,M,M,M,M,M,M,M,M,M,M,M,M,M,M,32.26,KOOA 211955Z AUTO 24019G26KT 10SM CLR 05/M06 A2989 RMK AO2 T00541062,M
OOA,2026-01-21 20:15,41.70,20.30,41.98,230.00,19.00,0.00,29.88,M,10.00,24.00,CLR,M,M,M,M,M,M,M,M,M,M,M,M,M,M,32.26,KOOA 212015Z AUTO 23019G24KT 10SM CLR 05/M06 A2988 RMK AO2 T00541065,M
OOA,2026-01-21 20:35,41.00,20.50,43.50,250.00,20.00,0.00,29.89,M,10.00,28.00,CLR,M,M,M,M,M,M,M,M,M,M,M,M,M,M,31.09,KOOA 212035Z AUTO 25020G28KT 10SM CLR 05/M06 A2989 RMK AO2 T00511064,M
OOA,2026-01-21 20:55,41.70,20.70,42.70,250.00,26.00,0.00,29.89,M,10.00,29.00,CLR,M,M,M,M,M,M,M,M,M,M,M,M,M,M,30.75,KOOA 212055Z AUTO 25026G29KT 10SM CLR 05/M06 A2989 RMK AO2 T00541063,M
OOA,2026-01-21 21:15,41.50,20.50,42.67,250.00,23.00,0.00,29.89,M,10.00,31.00,CLR,M,M,M,M,M,M,M,M,M,M,M,M,M,M,31.08,KOOA 212115Z AUTO 25023G31KT 10SM CLR 05/M06 A2989 RMK AO2 T00531064,M
OOA,2026-01-21 21:35,42.00,21.60,43.86,260.00,20.00,0.00,29.90,M,10.00,27.00,CLR,M,M,M,M,M,M,M,M,M,M,M,M,M,M,32.42,KOOA 212135Z AUTO 26020G27KT 10SM CLR 06/M06 A2990 RMK AO2 T00551058,M
OOA,2026-01-21 21:55,43.00,21.00,41.14,290.00,22.00,0.00,29.91,M,10.00,28.00,CLR,M,M,M,M,M,M,M,M,M,M,M,M,M,M,33.31,KOOA 212155Z AUTO 29022G28KT 10SM CLR 06/M06 A2991 RMK AO2 T00611061,M
OOA,2026-01-21 22:15,43.00,18.70,37.29,290.00,29.00,0.00,29.92,M,10.00,38.00,CLR,M,M,M,M,M,M,M,M,M,M,M,M,M,M,31.99,KOOA 212215Z AUTO 29029G38KT 10SM CLR 06/M07 A2992 RMK AO2 T00611074,M
OOA,2026-01-21 22:35,42.00,16.70,35.55,290.00,34.00,0.00,29.94,M,7.00,43.00,CLR,M,M,M,M,M,M,M,M,M,M,M,M,M,M,29.81,KOOA 212235Z AUTO 29034G43KT 7SM CLR 06/M08 A2994 RMK AO2 T00561085,M
OOA,2026-01-21 22:55,40.50,18.50,40.72,300.00,34.00,0.00,29.97,M,7.00,42.00,CLR,M,M,M,M,M,M,M,M,M,M,M,M,M,M,27.73,KOOA 212255Z AUTO 30034G42KT 7SM CLR 05/M07 A2997 RMK AO2 T00471075,M
OOA,2026-01-21 23:15,36.50,23.00,57.67,300.00,34.00,0.00,30.01,M,10.00,47.00,CLR,M,M,M,M,M,M,M,M,M,M,M,M,M,M,22.17,KOOA 212315Z AUTO 30034G47KT 10SM CLR 03/M05 A3001 RMK AO2 T00251051,M
OOA,2026-01-21 23:35,34.70,20.30,55.25,310.00,25.00,0.00,30.03,M,10.00,39.00,CLR,M,M,M,M,M,M,M,M,M,M,M,M,M,M,21.47,KOOA 212335Z AUTO 31025G39KT 10SM CLR 02/M06 A3003 RMK AO2 T00151065,M
OOA,2026-01-21 23:55,33.80,21.60,60.52,300.00,25.00,0.00,30.05,M,10.00,34.00,CLR,M,M,M,M,M,M,M,M,M,M,M,M,M,M,20.25,KOOA 212355Z AUTO 30025G34KT 10SM CLR 01/M06 A3005 RMK AO2 T00101058 10062 20010,M
OOA,2026-01-22 00:15,33.00,21.40,61.97,300.00,29.00,0.00,30.07,M,10.00,40.00,CLR,M,M,M,M,M,M,M,M,M,M,M,M,M,M,18.28,KOOA 220015Z AUTO 30029G40KT 10SM CLR 01/M06 A3007 RMK AO2 T00051059,M
OOA,2026-01-22 00:35,32.00,22.00,66.17,310.00,23.00,0.00,30.09,M,10.00,30.00,CLR,M,M,M,M,M,M,M,M,M,M,M,M,M,M,18.31,KOOA 220035Z AUTO 31023G30KT 10SM CLR 00/M06 A3009 RMK AO2 T00001056,M
OOA,2026-01-22 00:55,31.50,20.00,62.02,300.00,26.00,0.00,30.11,M,10.00,32.00,CLR,M,M,M,M,M,M,M,M,M,M,M,M,M,M,16.90,KOOA 220055Z AUTO 30026G32KT 10SM CLR 00/M07 A3011 RMK AO2 T10031067,M
OOA,2026-01-22 01:15,30.20,13.00,48.26,310.00,25.00,0.00,30.12,M,10.00,35.00,CLR,M,M,M,M,M,M,M,M,M,M,M,M,M,M,15.38,KOOA 220115Z AUTO 31025G35KT 10SM CLR M01/M10 A3012 RMK AO2 T10101105,M
OOA,2026-01-22 01:35,29.30,14.00,52.32,310.00,19.00,0.00,30.13,M,10.00,30.00,CLR,M,M,M,M,M,M,M,M,M,M,M,M,M,M,15.87,KOOA 220135Z AUTO 31019G30KT 10SM CLR M01/M10 A3013 RMK AO2 T10151100,M
OOA,2026-01-22 01:55,28.40,12.00,49.70,300.00,29.00,0.00,30.15,M,10.00,35.00,CLR,M,M,M,M,M,M,M,M,M,M,M,M,M,M,11.97,KOOA 220155Z AUTO 30029G35KT 10SM CLR M02/M11 A3015 RMK AO2 T10201112,M
OOA,2026-01-22 02:15,27.50,11.70,50.89,310.00,23.00,0.00,30.17,M,10.00,31.00,CLR,M,M,M,M,M,M,M,M,M,M,M,M,M,M,12.27,KOOA 220215Z AUTO 31023G31KT 10SM CLR M02/M11 A3017 RMK AO2 T10251113,M
OOA,2026-01-22 02:35,26.80,11.00,50.78,310.00,24.00,0.00,30.18,M,10.00,35.00,CLR,M,M,M,M,M,M,M,M,M,M,M,M,M,M,11.04,KOOA 220235Z AUTO 31024G35KT 10SM CLR M03/M12 A3018 RMK AO2 T10291117,M
OOA,2026-01-22 02:55,26.00,11.00,52.49,310.00,21.00,0.00,30.19,M,10.00,27.00,CLR,M,M,M,M,M,M,M,M,M,M,M,M,M,M,10.85,KOOA 220255Z AUTO 31021G27KT 10SM CLR M03/M12 A3019 RMK AO2 T10331117,M
OOA,2026-01-22 03:15,25.30,11.00,54.04,320.00,19.00,0.00,30.20,M,10.00,26.00,CLR,M,M,M,M,M,M,M,M,M,M,M,M,M,M,10.58,KOOA 220315Z AUTO 32019G26KT 10SM CLR M04/M12 A3020 RMK AO2 T10371117,M
OOA,2026-01-22 03:35,24.80,9.70,52.06,320.00,16.00,0.00,30.21,M,10.00,M,CLR,M,M,M,M,M,M,M,M,M,M,M,M,M,M,11.03,KOOA 220335Z AUTO 32016KT 10SM CLR M04/M12 A3021 RMK AO2 T10401124,M
OOA,2026-01-22 03:55,24.00,9.50,53.35,320.00,15.00,0.00,30.22,M,10.00,22.00,CLR,M,M,M,M,M,M,M,M,M,M,M,M,M,M,10.41,KOOA 220355Z AUTO 32015G22KT 10SM CLR M04/M12 A3022 RMK AO2 T10441125,M
OOA,2026-01-22 04:15,23.50,9.30,54.00,320.00,16.00,0.00,30.22,M,10.00,20.00,CLR,M,M,M,M,M,M,M,M,M,M,M,M,M,M,9.34,KOOA 220415Z AUTO 32016G20KT 10SM CLR M05/M13 A3022 RMK AO2 T10471126,M
OOA,2026-01-22 04:35,22.60,9.50,56.58,310.00,8.00,0.00,30.23,M,10.00,M,CLR,M,M,M,M,M,M,M,M,M,M,M,M,M,M,12.53,KOOA 220435Z AUTO 31008KT 10SM CLR M05/M12 A3023 RMK AO2 T10521125,M
OOA,2026-01-22 04:55,20.00,10.20,65.19,290.00,7.00,0.00,30.23,M,10.00,M,CLR,M,M,M,M,M,M,M,M,M,M,M,M,M,M,10.15,KOOA 220455Z AUTO 29007KT 10SM CLR M07/M12 A3023 RMK AO2 T10671121,M
OOA,2026-01-22 05:15,19.40,10.40,67.48,280.00,8.00,0.00,30.23,M,10.00,M,CLR,M,M,M,M,M,M,M,M,M,M,M,M,M,M,8.59,KOOA 220515Z AUTO 28008KT 10SM CLR M07/M12 A3023 RMK AO2 T10701120,M
OOA,2026-01-22 05:35,17.60,10.00,71.62,270.00,7.00,0.00,30.23,M,10.00,M,CLR,M,M,M,M,M,M,M,M,M,M,M,M,M,M,7.23,KOOA 220535Z AUTO 27007KT 10SM CLR M08/M12 A3023 RMK AO2 T10801123,M
OOA,2026-01-22 05:55,17.80,9.70,70.05,280.00,7.00,0.00,30.23,M,10.00,M,CLR,M,M,M,M,M,M,M,M,M,M,M,M,M,M,7.47,KOOA 220555Z AUTO 28007KT 10SM CLR M08/M12 A3023 RMK AO2 T10791124 10010 21080 400621100,M
OOA,2026-01-22 06:15,16.70,9.00,71.19,280.00,7.00,0.00,30.22,M,10.00,M,CLR,M,M,M,M,M,M,M,M,M,M,M,M,M,M,6.13,KOOA 220615Z AUTO 28007KT 10SM CLR M08/M13 A3022 RMK AO2 T10851127,M
OOA,2026-01-22 06:35,15.80,8.80,73.37,260.00,5.00,0.00,30.22,M,10.00,M,CLR,M,M,M,M,M,M,M,M,M,M,M,M,M,M,7.16,KOOA 220635Z AUTO 26005KT 10SM CLR M09/M13 A3022 RMK AO2 T10901129,M
OOA,2026-01-22 06:55,16.30,9.00,72.44,260.00,6.00,0.00,30.22,M,10.00,M,CLR,M,M,M,M,M,M,M,M,M,M,M,M,M,M,6.62,KOOA 220655Z AUTO 26006KT 10SM CLR M09/M13 A3022 RMK AO2 T10871128,M
OOA,2026-01-22 07:15,15.60,9.00,74.68,250.00,7.00,0.00,30.22,M,10.00,M,CLR,M,M,M,M,M,M,M,M,M,M,M,M,M,M,4.79,KOOA 220715Z AUTO 25007KT 10SM CLR M09/M13 A3022 RMK AO2 T10911127,M
OOA,2026-01-22 07:35,14.70,9.00,77.67,240.00,5.00,0.00,30.21,M,10.00,M,CLR,M,M,M,M,M,M,M,M,M,M,M,M,M,M,5.85,KOOA 220735Z AUTO 24005KT 10SM CLR M10/M13 A3021 RMK AO2 T10961128,M
OOA,2026-01-22 07:55,15.00,8.60,75.29,250.00,7.00,0.00,30.22,M,10.00,M,CLR,M,M,M,M,M,M,M,M,M,M,M,M,M,M,4.06,KOOA 220755Z AUTO 25007KT 10SM CLR M09/M13 A3022 RMK AO2 T10951130,M
OOA,2026-01-22 08:15,14.50,8.20,75.58,250.00,7.00,0.00,30.22,M,10.00,M,CLR,M,M,M,M,M,M,M,M,M,M,M,M,M,M,3.45,KOOA 220815Z AUTO 25007KT 10SM CLR M10/M13 A3022 RMK AO2 T10971132,M
OOA,2026-01-22 08:35,15.00,9.00,76.66,250.00,8.00,0.00,30.22,M,10.00,M,CLR,M,M,M,M,M,M,M,M,M,M,M,M,M,M,3.17,KOOA 220835Z AUTO 25008KT 10SM CLR M09/M13 A3022 RMK AO2 T10951127,M
OOA,2026-01-22 08:55,15.80,9.50,75.71,250.00,8.00,0.00,30.23,M,10.00,M,CLR,M,M,M,M,M,M,M,M,M,M,M,M,M,M,4.16,KOOA 220855Z AUTO 25008KT 10SM CLR M09/M12 A3023 RMK AO2 T10901125,M
OOA,2026-01-22 09:15,16.00,10.00,76.75,240.00,7.00,0.00,30.23,M,10.00,M,CLR,M,M,M,M,M,M,M,M,M,M,M,M,M,M,5.28,KOOA 220915Z AUTO 24007KT 10SM CLR M09/M12 A3023 RMK AO2 T10881122,M
OOA,2026-01-22 09:35,15.00,9.30,77.70,250.00,6.00,0.00,30.23,M,10.00,M,CLR,M,M,M,M,M,M,M,M,M,M,M,M,M,M,5.06,KOOA 220935Z AUTO 25006KT 10SM CLR M09/M13 A3023 RMK AO2 T10941126,M
OOA,2026-01-22 09:55,15.00,9.00,76.66,250.00,8.00,0.00,30.23,M,10.00,M,CLR,M,M,M,M,M,M,M,M,M,M,M,M,M,M,3.17,KOOA 220955Z AUTO 25008KT 10SM CLR M09/M13 A3023 RMK AO2 T10941127,M
OOA,2026-01-22 10:15,16.30,9.50,74.08,270.00,9.00,0.00,30.23,M,10.00,M,CLR,M,M,M,M,M,M,M,M,M,M,M,M,M,M,3.99,KOOA 221015Z AUTO 27009KT 10SM CLR M09/M12 A3023 RMK AO2 T10871125,M
OOA,2026-01-22 10:35,15.80,9.70,76.39,290.00,9.00,0.00,30.24,M,10.00,M,CLR,M,M,M,M,M,M,M,M,M,M,M,M,M,M,3.37,KOOA 221035Z AUTO 29009KT 10SM CLR M09/M12 A3024 RMK AO2 T10901124,M
OOA,2026-01-22 10:55,15.80,9.30,75.03,280.00,7.00,0.00,30.23,M,10.00,M,CLR,M,M,M,M,M,M,M,M,M,M,M,M,M,M,5.03,KOOA 221055Z AUTO 28007KT 10SM CLR M09/M13 A3023 RMK AO2 T10901126,M
OOA,2026-01-22 11:15,13.00,7.70,78.93,250.00,7.00,0.00,30.23,M,10.00,M,CLR,M,M,M,M,M,M,M,M,M,M,M,M,M,M,1.62,KOOA 221115Z AUTO 25007KT 10SM CLR M11/M13 A3023 RMK AO2 T11061135,M
OOA,2026-01-22 11:35,14.00,8.40,77.95,250.00,6.00,0.00,30.23,M,10.00,M,CLR,M,M,M,M,M,M,M,M,M,M,M,M,M,M,3.85,KOOA 221135Z AUTO 25006KT 10SM CLR M10/M13 A3023 RMK AO2 T11011131,M
OOA,2026-01-22 11:55,12.60,7.00,77.82,240.00,8.00,0.00,30.24,M,10.00,M,CLR,M,M,M,M,M,M,M,M,M,M,M,M,M,M,0.22,KOOA 221155Z AUTO 24008KT 10SM CLR M11/M14 A3024 RMK AO2 T11081138 11080 21108,M
OOA,2026-01-22 12:15,13.00,7.70,78.93,240.00,6.00,0.00,30.24,M,10.00,M,CLR,M,M,M,M,M,M,M,M,M,M,M,M,M,M,2.65,KOOA 221215Z AUTO 24006KT 10SM CLR M11/M13 A3024 RMK AO2 T11061135,M
OOA,2026-01-22 12:35,12.60,7.30,78.89,240.00,8.00,0.00,30.24,M,10.00,M,CLR,M,M,M,M,M,M,M,M,M,M,M,M,M,M,0.22,KOOA 221235Z AUTO 24008KT 10SM CLR M11/M14 A3024 RMK AO2 T11081137,M
OOA,2026-01-22 12:55,12.60,7.00,77.82,240.00,7.00,0.00,30.25,M,10.00,M,CLR,M,M,M,M,M,M,M,M,M,M,M,M,M,M,1.13,KOOA 221255Z AUTO 24007KT 10SM CLR M11/M14 A3025 RMK AO2 T11081139,M
OOA,2026-01-22 13:15,13.50,8.00,78.26,260.00,7.00,0.00,30.26,M,10.00,M,CLR,M,M,M,M,M,M,M,M,M,M,M,M,M,M,2.23,KOOA 221315Z AUTO 26007KT 10SM CLR M10/M13 A3026 RMK AO2 T11031133,M
OOA,2026-01-22 13:35,14.00,8.60,78.66,260.00,7.00,0.00,30.26,M,10.00,M,CLR,M,M,M,M,M,M,M,M,M,M,M,M,M,M,2.84,KOOA 221335Z AUTO 26007KT 10SM CLR M10/M13 A3026 RMK AO2 T10991130,M
OOA,2026-01-22 13:55,15.40,9.50,77.04,250.00,7.00,0.00,30.27,M,10.00,M,CLR,M,M,M,M,M,M,M,M,M,M,M,M,M,M,4.54,KOOA 221355Z AUTO 25007KT 10SM CLR M09/M12 A3027 RMK AO2 T10921125,M
OOA,2026-01-22 14:15,18.00,11.00,73.60,260.00,8.00,0.00,30.26,M,10.00,M,CLR,M,M,M,M,M,M,M,M,M,M,M,M,M,M,6.87,KOOA 221415Z AUTO 26008KT 10SM CLR M08/M12 A3026 RMK AO2 T10771116,M
OOA,2026-01-22 14:35,20.30,12.70,71.92,260.00,10.00,0.00,30.27,M,10.00,M,CLR,M,M,M,M,M,M,M,M,M,M,M,M,M,M,8.30,KOOA 221435Z AUTO 26010KT 10SM CLR M06/M11 A3027 RMK AO2 T10651107,M
OOA,2026-01-22 14:55,22.00,12.60,66.62,280.00,12.00,0.00,30.29,M,10.00,M,CLR,M,M,M,M,M,M,M,M,M,M,M,M,M,M,9.27,KOOA 221455Z AUTO 28012KT 10SM CLR M05/M11 A3029 RMK AO2 T10551108,M
OOA,2026-01-22 15:15,24.00,11.70,58.85,310.00,17.00,0.00,30.29,M,10.00,22.00,CLR,M,M,M,M,M,M,M,M,M,M,M,M,M,M,9.59,KOOA 221515Z AUTO 31017G22KT 10SM CLR M04/M11 A3029 RMK AO2 T10451113,M
OOA,2026-01-22 15:35,24.80,10.00,52.77,310.00,20.00,0.00,30.30,M,10.00,23.00,CLR,M,M,M,M,M,M,M,M,M,M,M,M,M,M,9.58,KOOA 221535Z AUTO 31020G23KT 10SM CLR M04/M12 A3030 RMK AO2 T10401123,M
OOA,2026-01-22 15:55,25.00,10.00,52.33,310.00,13.00,0.00,30.31,M,10.00,18.00,CLR,M,M,M,M,M,M,M,M,M,M,M,M,M,M,12.60,KOOA 221555Z AUTO 31013G18KT 10SM CLR M04/M12 A3031 RMK AO2 T10391122,M
OOA,2026-01-22 16:15,25.50,9.30,49.67,310.00,15.00,0.00,30.32,M,10.00,19.00,CLR,M,M,M,M,M,M,M,M,M,M,M,M,M,M,12.35,KOOA 221615Z AUTO 31015G19KT 10SM CLR M04/M13 A3032 RMK AO2 T10361126,M
OOA,2026-01-22 16:35,26.00,9.00,48.00,330.00,14.00,0.00,30.32,M,10.00,M,CLR,M,M,M,M,M,M,M,M,M,M,M,M,M,M,13.43,KOOA 221635Z AUTO 33014KT 10SM CLR M03/M13 A3032 RMK AO2 T10341128,M
OOA,2026-01-22 16:55,27.00,9.30,46.68,300.00,12.00,0.00,30.32,M,10.00,17.00,CLR,M,M,M,M,M,M,M,M,M,M,M,M,M,M,15.64,KOOA 221655Z AUTO 30012G17KT 10SM CLR M03/M13 A3032 RMK AO2 T10281126,M
OOA,2026-01-22 17:15,26.40,8.20,45.54,310.00,11.00,0.00,30.32,M,10.00,M,CLR,M,M,M,M,M,M,M,M,M,M,M,M,M,M,15.39,KOOA 221715Z AUTO 31011KT 10SM CLR M03/M13 A3032 RMK AO2 T10311132,M
OOA,2026-01-22 17:35,28.00,8.80,43.80,310.00,12.00,0.00,30.32,M,10.00,16.00,CLR,M,M,M,M,M,M,M,M,M,M,M,M,M,M,16.91,KOOA 221735Z AUTO 31012G16KT 10SM CLR M02/M13 A3032 RMK AO2 T10221129,M
OOA,2026-01-22 17:55,28.60,7.50,40.30,310.00,13.00,0.00,30.31,M,10.00,18.00,CLR,M,M,M,M,M,M,M,M,M,M,M,M,M,M,17.21,KOOA 221755Z AUTO 31013G18KT 10SM CLR M02/M14 A3031 RMK AO2 T10191136 11019 21110,M
OOA,2026-01-22 18:15,29.00,7.70,40.00,310.00,15.00,0.00,30.30,M,10.00,20.00,CLR,M,M,M,M,M,M,M,M,M,M,M,M,M,M,16.89,KOOA 221815Z AUTO 31015G20KT 10SM CLR M02/M13 A3030 RMK AO2 T10161135,M
OOA,2026-01-22 18:35,28.40,6.80,39.36,310.00,16.00,0.00,30.30,M,10.00,20.00,CLR,M,M,M,M,M,M,M,M,M,M,M,M,M,M,15.73,KOOA 221835Z AUTO 31016G20KT 10SM CLR M02/M14 A3030 RMK AO2 T10201140,M
OOA,2026-01-22 18:55,29.00,8.00,40.55,310.00,14.00,0.00,30.29,M,10.00,17.00,SCT,M,M,M,11000.00,M,M,M,M,M,M,M,M,M,M,17.30,KOOA 221855Z AUTO 31014G17KT 10SM SCT110 M02/M13 A3029 RMK AO2 T10171134,M
OOA,2026-01-22 19:15,29.00,7.00,38.75,320.00,9.00,0.00,30.28,M,10.00,18.00,SCT,M,M,M,11000.00,M,M,M,M,M,M,M,M,M,M,19.78,KOOA 221915Z AUTO 32009G18KT 10SM SCT110 M02/M14 A3028 RMK AO2 T10171138,M
OOA,2026-01-22 19:35,29.00,7.30,39.28,310.00,14.00,0.00,30.27,M,10.00,17.00,CLR,M,M,M,M,M,M,M,M,M,M,M,M,M,M,17.30,KOOA 221935Z AUTO 31014G17KT 10SM CLR M02/M14 A3027 RMK AO2 T10161137,M
OOA,2026-01-22 19:55,29.00,7.30,39.28,310.00,14.00,0.00,30.27,M,10.00,M,SCT,M,M,M,11000.00,M,M,M,M,M,M,M,M,M,M,17.30,KOOA 221955Z AUTO 31014KT 10SM SCT110 M02/M14 A3027 RMK AO2 T10161137,M
OOA,2026-01-22 20:15,29.30,7.30,38.81,300.00,15.00,0.00,30.27,M,10.00,20.00,SCT,M,M,M,11000.00,M,M,M,M,M,M,M,M,M,M,17.28,KOOA 222015Z AUTO 30015G20KT 10SM SCT110 M01/M14 A3027 RMK AO2 T10151137,M
OOA,2026-01-22 20:35,28.80,7.30,39.61,300.00,16.00,0.00,30.27,M,10.00,M,SCT,M,M,M,11000.00,M,M,M,M,M,M,M,M,M,M,16.25,KOOA 222035Z AUTO 30016KT 10SM SCT110 M02/M14 A3027 RMK AO2 T10181137,M
OOA,2026-01-22 20:55,28.40,7.70,41.00,280.00,12.00,0.00,30.27,M,10.00,M,CLR,M,M,M,M,M,M,M,M,M,M,M,M,M,M,17.42,KOOA 222055Z AUTO 28012KT 10SM CLR M02/M13 A3027 RMK AO2 T10201135,M
OOA,2026-01-22 21:15,29.00,8.60,41.66,290.00,11.00,0.00,30.27,M,10.00,M,CLR,M,M,M,M,M,M,M,M,M,M,M,M,M,M,18.68,KOOA 222115Z AUTO 29011KT 10SM CLR M02/M13 A3027 RMK AO2 T10171130,M
OOA,2026-01-22 21:35,30.70,8.80,39.22,300.00,11.00,0.00,30.27,M,10.00,M,CLR,M,M,M,M,M,M,M,M,M,M,M,M,M,M,20.82,KOOA 222135Z AUTO 30011KT 10SM CLR M01/M13 A3027 RMK AO2 T10071129,M
OOA,2026-01-22 21:55,30.70,8.60,38.87,320.00,16.00,0.00,30.27,M,10.00,20.00,CLR,M,M,M,M,M,M,M,M,M,M,M,M,M,M,18.72,KOOA 222155Z AUTO 32016G20KT 10SM CLR M01/M13 A3027 RMK AO2 T10071130,M
OOA,2026-01-22 22:15,30.20,9.30,40.94,320.00,15.00,0.00,30.28,M,10.00,M,CLR,M,M,M,M,M,M,M,M,M,M,M,M,M,M,18.45,KOOA 222215Z AUTO 32015KT 10SM CLR M01/M13 A3028 RMK AO2 T10101126,M
OOA,2026-01-22 22:35,28.20,10.40,46.67,350.00,14.00,0.00,30.29,M,10.00,M,CLR,M,M,M,M,M,M,M,M,M,M,M,M,M,M,16.26,KOOA 222235Z AUTO 35014KT 10SM CLR M02/M12 A3029 RMK AO2 T10211120,M
OOA,2026-01-22 22:55,27.00,10.00,48.16,330.00,16.00,0.00,30.29,M,10.00,M,CLR,M,M,M,M,M,M,M,M,M,M,M,M,M,M,13.90,KOOA 222255Z AUTO 33016KT 10SM CLR M03/M12 A3029 RMK AO2 T10281122,M
OOA,2026-01-22 23:15,25.00,10.00,52.33,340.00,7.00,0.00,30.30,M,10.00,14.00,CLR,M,M,M,M,M,M,M,M,M,M,M,M,M,M,16.25,KOOA 222315Z AUTO 34007G14KT 10SM CLR M04/M12 A3030 RMK AO2 T10381122,M
OOA,2026-01-22 23:35,24.00,9.70,53.83,320.00,11.00,0.00,30.31,M,10.00,M,CLR,M,M,M,M,M,M,M,M,M,M,M,M,M,M,12.36,KOOA 222335Z AUTO 32011KT 10SM CLR M04/M12 A3031 RMK AO2 T10451124,M
OOA,2026-01-22 23:55,23.40,9.30,54.22,320.00,10.00,0.00,30.32,M,10.00,M,CLR,M,M,M,M,M,M,M,M,M,M,M,M,M,M,12.18,KOOA 222355Z AUTO 32010KT 10SM CLR M05/M13 A3032 RMK AO2 T10481126 11006 21048,M
OOA,2026-01-23 00:15,22.30,9.30,56.79,340.00,11.00,0.00,30.33,M,10.00,M,CLR,M,M,M,M,M,M,M,M,M,M,M,M,M,M,10.21,KOOA 230015Z AUTO 34011KT 10SM CLR M05/M13 A3033 RMK AO2 T10541126,M
OOA,2026-01-23 00:35,21.70,6.80,52.03,340.00,13.00,0.00,30.35,M,10.00,M,CLR,M,M,M,M,M,M,M,M,M,M,M,M,M,M,8.37,KOOA 230035Z AUTO 34013KT 10SM CLR M06/M14 A3035 RMK AO2 T10571140,M
OOA,2026-01-23 00:55,20.70,6.30,53.07,320.00,12.00,0.00,30.36,M,10.00,18.00,CLR,M,M,M,M,M,M,M,M,M,M,M,M,M,M,7.62,KOOA 230055Z AUTO 32012G18KT 10SM CLR M06/M14 A3036 RMK AO2 T10631143,M
OOA,2026-01-23 01:15,20.30,5.70,52.52,330.00,16.00,0.00,30.38,M,10.00,M,CLR,M,M,M,M,M,M,M,M,M,M,M,M,M,M,5.17,KOOA 230115Z AUTO 33016KT 10SM CLR M06/M15 A3038 RMK AO2 T10651146,M
OOA,2026-01-23 01:35,19.00,2.70,48.37,330.00,17.00,0.00,30.39,M,10.00,24.00,CLR,M,M,M,M,M,M,M,M,M,M,M,M,M,M,3.04,KOOA 230135Z AUTO 33017G24KT 10SM CLR M07/M16 A3039 RMK AO2 T10721163,M
OOA,2026-01-23 01:55,17.80,-1.70,41.45,330.00,18.00,0.00,30.40,M,10.00,24.00,CLR,M,M,M,M,M,M,M,M,M,M,M,M,M,M,1.06,KOOA 230155Z AUTO 33018G24KT 10SM CLR M08/M19 A3040 RMK AO2 T10791187,M
OOA,2026-01-23 02:15,15.40,1.40,53.20,340.00,16.00,0.00,30.41,M,10.00,21.00,CLR,M,M,M,M,M,M,M,M,M,M,M,M,M,M,-1.22,KOOA 230215Z AUTO 34016G21KT 10SM CLR M09/M17 A3041 RMK AO2 T10921170,M
OOA,2026-01-23 02:35,14.00,1.00,55.51,330.00,12.00,0.00,30.43,M,10.00,M,CLR,M,M,M,M,M,M,M,M,M,M,M,M,M,M,-0.91,KOOA 230235Z AUTO 33012KT 10SM CLR M10/M17 A3043 RMK AO2 T10991173,M
OOA,2026-01-23 02:55,13.00,-2.00,50.37,340.00,16.00,0.00,30.43,M,10.00,M,CLR,M,M,M,M,M,M,M,M,M,M,M,M,M,M,-4.35,KOOA 230255Z AUTO 34016KT 10SM CLR M11/M19 A3043 RMK AO2 T11061189,M
OOA,2026-01-23 03:15,12.20,-2.60,50.72,330.00,14.00,0.00,30.44,M,10.00,18.00,SCT,M,M,M,11000.00,M,M,M,M,M,M,M,M,M,M,-4.36,KOOA 230315Z AUTO 33014G18KT 10SM SCT110 M11/M19 A3044 RMK AO2 T11101192,M
OOA,2026-01-23 03:35,12.20,-3.00,49.76,340.00,11.00,0.00,30.45,M,10.00,18.00,SCT,M,M,M,11000.00,M,M,M,M,M,M,M,M,M,M,-2.56,KOOA 230335Z AUTO 34011G18KT 10SM SCT110 M11/M19 A3045 RMK AO2 T11101194,M
OOA,2026-01-23 03:55,11.30,-3.00,51.79,330.00,12.00,0.00,30.46,M,10.00,M,CLR,M,M,M,M,M,M,M,M,M,M,M,M,M,M,-4.34,KOOA 230355Z AUTO 33012KT 10SM CLR M11/M19 A3046 RMK AO2 T11151195,M
OOA,2026-01-23 04:15,10.20,1.60,67.55,360.00,12.00,0.00,30.47,M,10.00,M,CLR,M,M,M,M,M,M,M,M,M,M,M,M,M,M,-5.74,KOOA 230415Z AUTO 36012KT 10SM CLR M12/M17 A3047 RMK AO2 T11211169,M
OOA,2026-01-23 04:35,8.80,1.60,71.92,360.00,13.00,0.00,30.48,M,10.00,M,CLR,M,M,M,M,M,M,M,M,M,M,M,M,M,M,-8.15,KOOA 230435Z AUTO 36013KT 10SM CLR M13/M17 A3048 RMK AO2 T11291169,M
OOA,2026-01-23 04:55,7.70,-0.80,67.55,360.00,14.00,0.00,30.49,M,10.00,M,CLR,M,M,M,M,M,M,M,M,M,M,M,M,M,M,-10.16,KOOA 230455Z AUTO 36014KT 10SM CLR M13/M18 A3049 RMK AO2 T11351182,M
OOA,2026-01-23 05:15,6.80,-1.70,67.43,360.00,11.00,0.00,30.51,M,10.00,M,CLR,M,M,M,M,M,M,M,M,M,M,M,M,M,M,-9.38,KOOA 230515Z AUTO 36011KT 10SM CLR M14/M19 A3051 RMK AO2 T11401187,M
OOA,2026-01-23 05:35,6.40,-2.00,67.70,350.00,11.00,0.00,30.52,M,10.00,M,CLR,M,M,M,M,M,M,M,M,M,M,M,M,M,M,-9.89,KOOA 230535Z AUTO 35011KT 10SM CLR M14/M19 A3052 RMK AO2 T11421189,M
OOA,2026-01-23 05:55,6.00,-4.00,62.68,350.00,13.00,0.00,30.52,M,10.00,M,CLR,M,M,M,M,M,M,M,M,M,M,M,M,M,M,-11.74,KOOA 230555Z AUTO 35013KT 10SM CLR M14/M20 A3052 RMK AO2 T11451199 11048 21145 410061145,M
OOA,2026-01-23 06:15,5.00,-3.60,66.88,350.00,10.00,0.00,30.53,M,10.00,M,CLR,M,M,M,M,M,M,M,M,M,M,M,M,M,M,-10.89,KOOA 230615Z AUTO 35010KT 10SM CLR M15/M20 A3053 RMK AO2 T11501198,M
OOA,2026-01-23 06:35,5.00,-4.00,65.61,360.00,13.00,0.00,30.53,M,10.00,M,CLR,M,M,M,M,M,M,M,M,M,M,M,M,M,M,-13.02,KOOA 230635Z AUTO 36013KT 10SM CLR M15/M20 A3053 RMK AO2 T11511200,M
OOA,2026-01-23 06:55,4.50,-5.30,63.07,350.00,15.00,0.00,30.54,M,10.00,M,CLR,M,M,M,M,M,M,M,M,M,M,M,M,M,M,-14.87,KOOA 230655Z AUTO 35015KT 10SM CLR M15/M21 A3054 RMK AO2 T11531207,M
OOA,2026-01-23 07:15,3.60,-7.00,60.55,360.00,15.00,0.00,30.54,M,10.00,M,CLR,M,M,M,M,M,M,M,M,M,M,M,M,M,M,-16.04,KOOA 230715Z AUTO 36015KT 10SM CLR M16/M22 A3054 RMK AO2 T11581216,M
OOA,2026-01-23 07:35,2.30,-7.40,63.06,350.00,14.00,0.00,30.56,M,10.00,M,CLR,M,M,M,M,M,M,M,M,M,M,M,M,M,M,-17.12,KOOA 230735Z AUTO 35014KT 10SM CLR M16/M22 A3056 RMK AO2 T11651219,M
OOA,2026-01-23 07:55,1.20,-7.40,66.38,360.00,17.00,0.00,30.58,M,7.00,M,CLR,M,M,M,M,M,M,M,M,M,M,M,M,M,M,-20.27,KOOA 230755Z AUTO 36017KT 7SM CLR M17/M22 A3058 RMK AO2 T11711219,M
OOA,2026-01-23 08:15,-0.40,-10.50,61.45,360.00,17.00,0.00,30.59,M,10.00,21.00,CLR,M,M,M,M,M,M,M,M,M,M,M,M,M,M,-22.37,KOOA 230815Z AUTO 36017G21KT 10SM CLR M18/M24 A3059 RMK AO2 T11801236,M
OOA,2026-01-23 08:35,-1.70,-13.00,57.70,360.00,16.00,0.00,30.61,M,10.00,23.00,CLR,M,M,M,M,M,M,M,M,M,M,M,M,M,M,-23.51,KOOA 230835Z AUTO 36016G23KT 10SM CLR M19/M25 A3061 RMK AO2 T11871251,M
OOA,2026-01-23 08:55,-2.70,-15.70,52.81,340.00,19.00,0.00,30.63,M,10.00,22.00,CLR,M,M,M,M,M,M,M,M,M,M,M,M,M,M,-26.45,KOOA 230855Z AUTO 34019G22KT 10SM CLR M19/M26 A3063 RMK AO2 T11931265,M
OOA,2026-01-23 09:15,-3.30,-17.70,49.07,340.00,16.00,0.00,30.63,M,10.00,22.00,CLR,M,M,M,M,M,M,M,M,M,M,M,M,M,M,-25.59,KOOA 230915Z AUTO 34016G22KT 10SM CLR M20/M28 A3063 RMK AO2 T11961276,M
OOA,2026-01-23 09:35,-5.00,-19.00,49.79,360.00,16.00,0.00,30.64,M,10.00,M,CLR,M,M,M,M,M,M,M,M,M,M,M,M,M,M,-27.81,KOOA 230935Z AUTO 36016KT 10SM CLR M21/M28 A3064 RMK AO2 T12061283,M
OOA,2026-01-23 09:55,-5.40,-19.30,49.98,350.00,17.00,0.00,30.64,M,10.00,M,CLR,M,M,M,M,M,M,M,M,M,M,M,M,M,M,-28.92,KOOA 230955Z AUTO 35017KT 10SM CLR M21/M28 A3064 RMK AO2 T12081285,M
OOA,2026-01-23 10:15,-5.80,-19.00,51.75,350.00,18.00,0.00,30.65,M,10.00,23.00,CLR,M,M,M,M,M,M,M,M,M,M,M,M,M,M,-30.01,KOOA 231015Z AUTO 35018G23KT 10SM CLR M21/M28 A3065 RMK AO2 T12101284,M
OOA,2026-01-23 10:35,-6.30,-20.70,48.55,360.00,19.00,0.00,30.65,M,10.00,25.00,CLR,M,M,M,M,M,M,M,M,M,M,M,M,M,M,-31.21,KOOA 231035Z AUTO 36019G25KT 10SM CLR M21/M29 A3065 RMK AO2 T12131293,M
OOA,2026-01-23 10:55,-6.70,-20.70,49.50,350.00,17.00,0.00,30.66,M,10.00,23.00,CLR,M,M,M,M,M,M,M,M,M,M,M,M,M,M,-30.62,KOOA 231055Z AUTO 35017G23KT 10SM CLR M21/M29 A3066 RMK AO2 T12151293,M
OOA,2026-01-23 11:15,-7.00,-20.40,51.01,350.00,14.00,0.00,30.67,M,10.00,20.00,CLR,M,M,M,M,M,M,M,M,M,M,M,M,M,M,-29.11,KOOA 231115Z AUTO 35014G20KT 10SM CLR M22/M29 A3067 RMK AO2 T12161291,M
OOA,2026-01-23 11:35,-7.20,-20.00,52.59,350.00,14.00,0.00,30.68,M,10.00,M,CLR,M,M,M,M,M,M,M,M,M,M,M,M,M,M,-29.37,KOOA 231135Z AUTO 35014KT 10SM CLR M22/M29 A3068 RMK AO2 T12181289,M
OOA,2026-01-23 11:55,-7.80,-20.70,52.22,350.00,17.00,0.00,30.70,M,10.00,21.00,CLR,M,M,M,M,M,M,M,M,M,M,M,M,M,M,-32.06,KOOA 231155Z AUTO 35017G21KT 10SM CLR M22/M29 A3070 RMK AO2 T12211293 11145 21221,M
OOA,2026-01-23 12:15,-8.00,-20.00,54.68,350.00,14.00,0.00,30.71,M,10.00,M,CLR,M,M,M,M,M,M,M,M,M,M,M,M,M,M,-30.40,KOOA 231215Z AUTO 35014KT 10SM CLR M22/M29 A3071 RMK AO2 T12221289,M
OOA,2026-01-23 12:35,-8.50,-21.50,51.83,350.00,15.00,0.00,30.73,M,10.00,M,CLR,M,M,M,M,M,M,M,M,M,M,M,M,M,M,-31.72,KOOA 231235Z AUTO 35015KT 10SM CLR M22/M30 A3073 RMK AO2 T12251297,M
OOA,2026-01-23 12:55,-9.00,-24.30,45.84,350.00,13.00,0.00,30.74,M,10.00,M,CLR,M,M,M,M,M,M,M,M,M,M,M,M,M,M,-30.96,KOOA 231255Z AUTO 35013KT 10SM CLR M23/M31 A3074 RMK AO2 T12271313,M
OOA,2026-01-23 13:15,-9.40,-24.50,46.26,350.00,18.00,0.00,30.76,M,10.00,M,CLR,M,M,M,M,M,M,M,M,M,M,M,M,M,M,-34.75,KOOA 231315Z AUTO 35018KT 10SM CLR M23/M31 A3076 RMK AO2 T12301314,M
OOA,2026-01-23 13:35,-9.40,-24.50,46.26,360.00,13.00,0.00,30.76,M,10.00,M,CLR,M,M,M,M,M,M,M,M,M,M,M,M,M,M,-31.47,KOOA 231335Z AUTO 36013KT 10SM CLR M23/M31 A3076 RMK AO2 T12301314,M
OOA,2026-01-23 13:55,-9.60,-24.50,46.71,350.00,14.00,0.00,30.77,M,10.00,M,CLR,M,M,M,M,M,M,M,M,M,M,M,M,M,M,-32.46,KOOA 231355Z AUTO 35014KT 10SM CLR M23/M31 A3077 RMK AO2 T12311314,M
OOA,2026-01-23 14:15,-9.40,-23.80,48.00,350.00,15.00,0.00,30.78,M,10.00,21.00,CLR,M,M,M,M,M,M,M,M,M,M,M,M,M,M,-32.89,KOOA 231415Z AUTO 35015G21KT 10SM CLR M23/M31 A3078 RMK AO2 T12301310,M
OOA,2026-01-23 14:35,-9.00,-24.30,45.84,350.00,15.00,0.00,30.79,M,10.00,M,CLR,M,M,M,M,M,M,M,M,M,M,M,M,M,M,-32.37,KOOA 231435Z AUTO 35015KT 10SM CLR M23/M31 A3079 RMK AO2 T12281313,M
OOA,2026-01-23 14:55,-9.00,-26.00,41.88,360.00,17.00,0.00,30.79,M,10.00,M,CLR,M,M,M,M,M,M,M,M,M,M,M,M,M,M,-33.64,KOOA 231455Z AUTO 36017KT 10SM CLR M23/M32 A3079 RMK AO2 T12271323,M
OOA,2026-01-23 15:15,-8.50,-26.00,40.86,360.00,15.00,0.00,30.80,M,10.00,M,CLR,M,M,M,M,M,M,M,M,M,M,M,M,M,M,-31.72,KOOA 231515Z AUTO 36015KT 10SM CLR M22/M32 A3080 RMK AO2 T12251323,M
OOA,2026-01-23 15:35,-7.80,-25.40,40.77,360.00,11.00,0.00,30.81,M,10.00,M,CLR,M,M,M,M,M,M,M,M,M,M,M,M,M,M,-27.83,KOOA 231535Z AUTO 36011KT 10SM CLR M22/M32 A3081 RMK AO2 T12211319,M
OOA,2026-01-23 15:55,-6.50,-24.70,39.73,360.00,15.00,0.00,30.82,M,10.00,20.00,CLR,M,M,M,M,M,M,M,M,M,M,M,M,M,M,-29.13,KOOA 231555Z AUTO 36015G20KT 10SM CLR M21/M31 A3082 RMK AO2 T12141315,M
OOA,2026-01-23 16:15,-6.00,-24.00,40.24,350.00,12.00,0.00,30.83,M,10.00,M,CLR,M,M,M,M,M,M,M,M,M,M,M,M,M,M,-26.36,KOOA 231615Z AUTO 35012KT 10SM CLR M21/M31 A3083 RMK AO2 T12121311,M
OOA,2026-01-23 16:35,-5.40,-23.00,41.21,350.00,14.00,0.00,30.83,M,10.00,M,CLR,M,M,M,M,M,M,M,M,M,M,M,M,M,M,-27.05,KOOA 231635Z AUTO 35014KT 10SM CLR M21/M30 A3083 RMK AO2 T12081305,M
OOA,2026-01-23 16:55,-5.00,-22.00,42.61,10.00,13.00,0.00,30.83,M,10.00,16.00,CLR,M,M,M,M,M,M,M,M,M,M,M,M,M,M,-25.83,KOOA 231655Z AUTO 01013G16KT 10SM CLR M21/M30 A3083 RMK AO2 T12061300,M
OOA,2026-01-23 17:15,-4.00,-21.00,42.79,10.00,12.00,0.00,30.82,M,10.00,16.00,CLR,M,M,M,M,M,M,M,M,M,M,M,M,M,M,-23.82,KOOA 231715Z AUTO 01012G16KT 10SM CLR M20/M29 A3082 RMK AO2 T11991294,M
OOA,2026-01-23 17:35,-3.50,-21.60,40.49,340.00,14.00,0.00,30.82,M,10.00,18.00,CLR,M,M,M,M,M,M,M,M,M,M,M,M,M,M,-24.60,KOOA 231735Z AUTO 34014G18KT 10SM CLR M20/M30 A3082 RMK AO2 T11971298,M
OOA,2026-01-23 17:55,-3.30,-22.70,37.86,360.00,13.00,0.00,30.81,M,10.00,18.00,CLR,M,M,M,M,M,M,M,M,M,M,M,M,M,M,-23.66,KOOA 231755Z AUTO 36013G18KT 10SM CLR M20/M30 A3081 RMK AO2 T11961304 11196 21231,M
OOA,2026-01-23 18:15,-2.00,-22.00,36.92,20.00,9.00,0.00,30.81,M,10.00,M,CLR,M,M,M,M,M,M,M,M,M,M,M,M,M,M,-18.76,KOOA 231815Z AUTO 02009KT 10SM CLR M19/M30 A3081 RMK AO2 T11881300,M
OOA,2026-01-23 18:35,-1.00,-21.00,37.10,10.00,10.00,0.00,30.79,M,10.00,14.00,CLR,M,M,M,M,M,M,M,M,M,M,M,M,M,M,-18.41,KOOA 231835Z AUTO 01010G14KT 10SM CLR M18/M29 A3079 RMK AO2 T11831294,M
OOA,2026-01-23 18:55,-0.60,-21.00,36.41,20.00,12.00,0.00,30.79,M,10.00,M,CLR,M,M,M,M,M,M,M,M,M,M,M,M,M,M,-19.49,KOOA 231855Z AUTO 02012KT 10SM CLR M18/M29 A3079 RMK AO2 T11811295,M
OOA,2026-01-23 19:15,-0.20,-20.60,36.48,360.00,10.00,0.00,30.79,M,10.00,17.00,CLR,M,M,M,M,M,M,M,M,M,M,M,M,M,M,-17.41,KOOA 231915Z AUTO 36010G17KT 10SM CLR M18/M29 A3079 RMK AO2 T11791292,M
OOA,2026-01-23 19:35,-1.00,-22.00,35.22,360.00,10.00,0.00,30.79,M,10.00,M,CLR,M,M,M,M,M,M,M,M,M,M,M,M,M,M,-18.41,KOOA 231935Z AUTO 36010KT 10SM CLR M18/M30 A3079 RMK AO2 T11831300,M
OOA,2026-01-23 19:55,-1.00,-22.00,35.22,360.00,10.00,0.00,30.78,M,10.00,M,CLR,M,M,M,M,M,M,M,M,M,M,M,M,M,M,-18.41,KOOA 231955Z AUTO 36010KT 10SM CLR M18/M30 A3078 RMK AO2 T11831299,M
OOA,2026-01-23 20:15,-1.00,-21.00,37.10,350.00,8.00,0.00,30.78,M,10.00,M,CLR,M,M,M,M,M,M,M,M,M,M,M,M,M,M,-16.54,KOOA 232015Z AUTO 35008KT 10SM CLR M18/M29 A3078 RMK AO2 T11831295,M
OOA,2026-01-23 20:35,-1.00,-21.00,37.10,350.00,8.00,0.00,30.77,M,10.00,M,CLR,M,M,M,M,M,M,M,M,M,M,M,M,M,M,-16.54,KOOA 232035Z AUTO 35008KT 10SM CLR M18/M29 A3077 RMK AO2 T11841295,M
OOA,2026-01-23 20:55,0.30,-21.00,34.90,340.00,10.00,0.00,30.77,M,10.00,M,CLR,M,M,M,M,M,M,M,M,M,M,M,M,M,M,-16.78,KOOA 232055Z AUTO 34010KT 10SM CLR M18/M29 A3077 RMK AO2 T11761294,M
OOA,2026-01-23 21:15,0.70,-19.70,36.65,10.00,10.00,0.00,30.76,M,10.00,M,CLR,M,M,M,M,M,M,M,M,M,M,M,M,M,M,-16.28,KOOA 232115Z AUTO 01010KT 10SM CLR M17/M29 A3076 RMK AO2 T11741287,M
OOA,2026-01-23 21:35,0.30,-21.00,34.90,350.00,10.00,0.00,30.77,M,10.00,M,CLR,M,M,M,M,M,M,M,M,M,M,M,M,M,M,-16.78,KOOA 232135Z AUTO 35010KT 10SM CLR M18/M29 A3077 RMK AO2 T11761294,M
OOA,2026-01-23 21:55,-0.40,-20.60,36.83,360.00,9.00,0.00,30.77,M,10.00,M,CLR,M,M,M,M,M,M,M,M,M,M,M,M,M,M,-16.77,KOOA 232155Z AUTO 36009KT 10SM CLR M18/M29 A3077 RMK AO2 T11801292,M
OOA,2026-01-23 22:15,-0.20,-20.00,37.64,10.00,9.00,0.00,30.76,M,10.00,M,CLR,M,M,M,M,M,M,M,M,M,M,M,M,M,M,-16.52,KOOA 232215Z AUTO 01009KT 10SM CLR M18/M29 A3076 RMK AO2 T11791288,M
OOA,2026-01-23 22:35,-0.40,-19.50,38.99,20.00,8.00,0.00,30.76,M,10.00,M,CLR,M,M,M,M,M,M,M,M,M,M,M,M,M,M,-15.80,KOOA 232235Z AUTO 02008KT 10SM CLR M18/M29 A3076 RMK AO2 T11801286,M
OOA,2026-01-23 22:55,-1.30,-19.30,41.10,20.00,9.00,0.00,30.76,M,10.00,M,CLR,M,M,M,M,M,M,M,M,M,M,M,M,M,M,-17.89,KOOA 232255Z AUTO 02009KT 10SM CLR M18/M28 A3076 RMK AO2 T11851285,M
OOA,2026-01-23 23:15,-1.70,-19.50,41.46,20.00,8.00,0.00,30.76,M,10.00,M,CLR,M,M,M,M,M,M,M,M,M,M,M,M,M,M,-17.40,KOOA 232315Z AUTO 02008KT 10SM CLR M19/M29 A3076 RMK AO2 T11871286,M
OOA,2026-01-23 23:35,-2.00,-19.00,43.15,10.00,7.00,0.00,30.76,M,10.00,M,CLR,M,M,M,M,M,M,M,M,M,M,M,M,M,M,-16.66,KOOA 232335Z AUTO 01007KT 10SM CLR M19/M28 A3076 RMK AO2 T11891284,M
OOA,2026-01-23 23:55,-2.20,-18.60,44.47,30.00,8.00,0.00,30.77,M,10.00,M,CLR,M,M,M,M,M,M,M,M,M,M,M,M,M,M,-18.02,KOOA 232355Z AUTO 03008KT 10SM CLR M19/M28 A3077 RMK AO2 T11901281 11173 21197,M
OOA,2026-01-24 00:15,-2.20,-18.20,45.39,20.00,9.00,0.00,30.76,M,10.00,M,SCT,M,M,M,11000.00,M,M,M,M,M,M,M,M,M,M,-19.01,KOOA 240015Z AUTO 02009KT 10SM SCT110 M19/M28 A3076 RMK AO2 T11901279,M
OOA,2026-01-24 00:35,-3.00,-17.50,48.87,30.00,9.00,0.00,30.77,M,10.00,M,SCT,M,M,M,12000.00,M,M,M,M,M,M,M,M,M,M,-20.01,KOOA 240035Z AUTO 03009KT 10SM SCT120 M19/M27 A3077 RMK AO2 T11941275,M
OOA,2026-01-24 00:55,-3.30,-17.00,50.86,40.00,8.00,0.00,30.77,M,10.00,M,CLR,M,M,M,M,M,M,M,M,M,M,M,M,M,M,-19.37,KOOA 240055Z AUTO 04008KT 10SM CLR M20/M27 A3077 RMK AO2 T11961273,M
OOA,2026-01-24 01:15,-3.50,-16.60,52.41,30.00,9.00,0.00,30.77,M,10.00,M,CLR,M,M,M,M,M,M,M,M,M,M,M,M,M,M,-20.63,KOOA 240115Z AUTO 03009KT 10SM CLR M20/M27 A3077 RMK AO2 T11971270,M
OOA,2026-01-24 01:35,-3.50,-16.60,52.41,20.00,7.00,0.00,30.77,M,10.00,M,CLR,M,M,M,M,M,M,M,M,M,M,M,M,M,M,-18.49,KOOA 240135Z AUTO 02007KT 10SM CLR M20/M27 A3077 RMK AO2 T11971270,M
OOA,2026-01-24 01:55,-3.60,-17.00,51.59,360.00,6.00,0.00,30.78,M,10.00,M,CLR,M,M,M,M,M,M,M,M,M,M,M,M,M,M,-17.35,KOOA 240155Z AUTO 36006KT 10SM CLR M20/M27 A3078 RMK AO2 T11981272,M
OOA,2026-01-24 02:15,-4.00,-16.80,53.13,30.00,5.00,0.00,30.78,M,10.00,M,CLR,M,M,M,M,M,M,M,M,M,M,M,M,M,M,-16.36,KOOA 240215Z AUTO 03005KT 10SM CLR M20/M27 A3078 RMK AO2 T11991271,M
OOA,2026-01-24 02:35,-4.00,-16.80,53.13,20.00,7.00,0.00,30.77,M,10.00,M,CLR,M,M,M,M,M,M,M,M,M,M,M,M,M,M,-19.10,KOOA 240235Z AUTO 02007KT 10SM CLR M20/M27 A3077 RMK AO2 T12001271,M
OOA,2026-01-24 02:55,-4.00,-16.80,53.13,20.00,5.00,0.00,30.77,M,10.00,M,CLR,M,M,M,M,M,M,M,M,M,M,M,M,M,M,-16.36,KOOA 240255Z AUTO 02005KT 10SM CLR M20/M27 A3077 RMK AO2 T12001271,M
OOA,2026-01-24 03:15,-4.00,-16.20,54.78,30.00,7.00,0.00,30.76,M,10.00,M,SCT,M,M,M,11000.00,M,M,M,M,M,M,M,M,M,M,-19.10,KOOA 240315Z AUTO 03007KT 10SM SCT110 M20/M27 A3076 RMK AO2 T12001268,M
OOA,2026-01-24 03:35,-4.00,-16.00,55.34,30.00,7.00,0.00,30.77,M,10.00,M,CLR,M,M,M,M,M,M,M,M,M,M,M,M,M,M,-19.10,KOOA 240335Z AUTO 03007KT 10SM CLR M20/M27 A3077 RMK AO2 T12001267,M
OOA,2026-01-24 03:55,-4.00,-16.00,55.34,30.00,5.00,0.00,30.77,M,10.00,M,CLR,M,M,M,M,M,M,M,M,M,M,M,M,M,M,-16.36,KOOA 240355Z AUTO 03005KT 10SM CLR M20/M27 A3077 RMK AO2 T12001267,M
OOA,2026-01-24 04:15,-4.00,-16.00,55.34,30.00,6.00,0.00,30.77,M,10.00,M,CLR,M,M,M,M,M,M,M,M,M,M,M,M,M,M,-17.83,KOOA 240415Z AUTO 03006KT 10SM CLR M20/M27 A3077 RMK AO2 T12011266,M
OOA,2026-01-24 04:35,-4.00,-16.00,55.34,30.00,4.00,0.00,30.77,M,10.00,M,CLR,M,M,M,M,M,M,M,M,M,M,M,M,M,M,-14.62,KOOA 240435Z AUTO 03004KT 10SM CLR M20/M27 A3077 RMK AO2 T12011266,M
OOA,2026-01-24 04:55,-4.00,-16.40,54.22,20.00,6.00,0.00,30.77,M,10.00,M,CLR,M,M,M,M,M,M,M,M,M,M,M,M,M,M,-17.83,KOOA 240455Z AUTO 02006KT 10SM CLR M20/M27 A3077 RMK AO2 T12011269,M
OOA,2026-01-24 05:15,-4.00,-16.60,53.67,40.00,6.00,0.00,30.77,M,10.00,M,CLR,M,M,M,M,M,M,M,M,M,M,M,M,M,M,-17.83,KOOA 240515Z AUTO 04006KT 10SM CLR M20/M27 A3077 RMK AO2 T12011270,M
OOA,2026-01-24 05:35,-4.00,-16.20,54.78,40.00,8.00,0.00,30.76,M,10.00,M,SCT,M,M,M,11000.00,M,M,M,M,M,M,M,M,M,M,-20.23,KOOA 240535Z AUTO 04008KT 10SM SCT110 M20/M27 A3076 RMK AO2 T12011268,M
OOA,2026-01-24 05:55,-4.00,-16.00,55.34,40.00,7.00,0.00,30.76,M,10.00,M,CLR,M,M,M,M,M,M,M,M,M,M,M,M,M,M,-19.10,KOOA 240555Z AUTO 04007KT 10SM CLR M20/M27 A3076 RMK AO2 T12001266 11190 21201 411451231,M
OOA,2026-01-24 06:15,-3.60,-15.50,55.68,30.00,8.00,0.00,30.76,M,10.00,M,SCT,M,M,M,11000.00,M,M,M,M,M,M,M,M,M,M,-19.74,KOOA 240615Z AUTO 03008KT 10SM SCT110 M20/M26 A3076 RMK AO2 T11981264,M
OOA,2026-01-24 06:35,-4.00,-15.50,56.76,20.00,6.00,0.00,30.76,M,10.00,M,SCT,M,M,M,11000.00,M,M,M,M,M,M,M,M,M,M,-17.83,KOOA 240635Z AUTO 02006KT 10SM SCT110 M20/M26 A3076 RMK AO2 T11991264,M
OOA,2026-01-24 06:55,-3.60,-15.00,57.11,30.00,5.00,0.00,30.76,M,10.00,M,CLR,M,M,M,M,M,M,M,M,M,M,M,M,M,M,-15.88,KOOA 240655Z AUTO 03005KT 10SM CLR M20/M26 A3076 RMK AO2 T11981262,M
OOA,2026-01-24 07:15,-3.30,-15.00,56.30,30.00,6.00,0.00,30.76,M,10.00,M,CLR,M,M,M,M,M,M,M,M,M,M,M,M,M,M,-16.98,KOOA 240715Z AUTO 03006KT 10SM CLR M20/M26 A3076 RMK AO2 T11961262,M
OOA,2026-01-24 07:35,-3.50,-15.50,55.42,30.00,5.00,0.00,30.76,M,10.00,M,CLR,M,M,M,M,M,M,M,M,M,M,M,M,M,M,-15.76,KOOA 240735Z AUTO 03005KT 10SM CLR M20/M26 A3076 RMK AO2 T11971264,M
OOA,2026-01-24 07:55,-3.00,-15.00,55.50,40.00,6.00,0.00,30.76,M,10.00,M,CLR,M,M,M,M,M,M,M,M,M,M,M,M,M,M,-16.62,KOOA 240755Z AUTO 04006KT 10SM CLR M19/M26 A3076 RMK AO2 T11951261,M
OOA,2026-01-24 08:15,-3.00,-14.60,56.63,40.00,5.00,0.00,30.75,M,10.00,M,CLR,M,M,M,M,M,M,M,M,M,M,M,M,M,M,-15.17,KOOA 240815Z AUTO 04005KT 10SM CLR M19/M26 A3075 RMK AO2 T11951259,M
OOA,2026-01-24 08:35,-3.00,-14.60,56.63,50.00,5.00,0.00,30.75,M,10.00,M,CLR,M,M,M,M,M,M,M,M,M,M,M,M,M,M,-15.17,KOOA 240835Z AUTO 05005KT 10SM CLR M19/M26 A3075 RMK AO2 T11951259,M
OOA,2026-01-24 08:55,-3.00,-14.80,56.06,30.00,6.00,0.00,30.74,M,10.00,M,CLR,M,M,M,M,M,M,M,M,M,M,M,M,M,M,-16.62,KOOA 240855Z AUTO 03006KT 10SM CLR M19/M26 A3074 RMK AO2 T11951260,M
OOA,2026-01-24 09:15,-3.50,-14.80,57.42,40.00,6.00,0.00,30.73,M,10.00,M,CLR,M,M,M,M,M,M,M,M,M,M,M,M,M,M,-17.22,KOOA 240915Z AUTO 04006KT 10SM CLR M20/M26 A3073 RMK AO2 T11971260,M
OOA,2026-01-24 09:35,-3.50,-14.80,57.42,40.00,7.00,0.00,30.72,M,10.00,M,CLR,M,M,M,M,M,M,M,M,M,M,M,M,M,M,-18.49,KOOA 240935Z AUTO 04007KT 10SM CLR M20/M26 A3072 RMK AO2 T11971260,M
OOA,2026-01-24 09:55,-3.60,-14.80,57.69,40.00,6.00,0.00,30.72,M,10.00,M,CLR,M,M,M,M,M,M,M,M,M,M,M,M,M,M,-17.35,KOOA 240955Z AUTO 04006KT 10SM CLR M20/M26 A3072 RMK AO2 T11981260,M
OOA,2026-01-24 10:15,-4.00,-14.80,58.81,60.00,6.00,0.00,30.72,M,10.00,M,CLR,M,M,M,M,M,M,M,M,M,M,M,M,M,M,-17.83,KOOA 241015Z AUTO 06006KT 10SM CLR M20/M26 A3072 RMK AO2 T12001260,M
OOA,2026-01-24 10:35,-4.00,-15.00,58.21,50.00,5.00,0.00,30.72,M,10.00,M,CLR,M,M,M,M,M,M,M,M,M,M,M,M,M,M,-16.36,KOOA 241035Z AUTO 05005KT 10SM CLR M20/M26 A3072 RMK AO2 T11991261,M
OOA,2026-01-24 10:55,-4.00,-14.80,58.81,70.00,6.00,0.00,30.71,M,10.00,M,CLR,M,M,M,M,M,M,M,M,M,M,M,M,M,M,-17.83,KOOA 241055Z AUTO 07006KT 10SM CLR M20/M26 A3071 RMK AO2 T12001260,M
OOA,2026-01-24 11:15,-3.50,-14.60,58.00,70.00,7.00,0.00,30.70,M,10.00,M,CLR,M,M,M,M,M,M,M,M,M,M,M,M,M,M,-18.49,KOOA 241115Z AUTO 07007KT 10SM CLR M20/M26 A3070 RMK AO2 T11971259,M
OOA,2026-01-24 11:35,-3.30,-14.30,58.32,100.00,6.00,0.00,30.70,M,10.00,M,CLR,M,M,M,M,M,M,M,M,M,M,M,M,M,M,-16.98,KOOA 241135Z AUTO 10006KT 10SM CLR M20/M26 A3070 RMK AO2 T11961257,M
OOA,2026-01-24 11:55,-3.30,-14.00,59.21,80.00,6.00,0.00,30.70,M,10.00,M,SCT,M,M,M,11000.00,M,M,M,M,M,M,M,M,M,M,-16.98,KOOA 241155Z AUTO 08006KT 10SM SCT110 M20/M26 A3070 RMK AO2 T11961256 11195 21200,M
OOA,2026-01-24 12:15,-3.00,-14.00,58.37,80.00,4.00,0.00,30.70,M,10.00,M,CLR,M,M,M,M,M,M,M,M,M,M,M,M,M,M,-13.45,KOOA 241215Z AUTO 08004KT 10SM CLR M19/M26 A3070 RMK AO2 T11951256,M
OOA,2026-01-24 12:35,-3.30,-14.00,59.21,110.00,5.00,0.00,30.69,M,10.00,M,CLR,M,M,M,M,M,M,M,M,M,M,M,M,M,M,-15.53,KOOA 241235Z AUTO 11005KT 10SM CLR M20/M26 A3069 RMK AO2 T11961256,M
OOA,2026-01-24 12:55,-3.00,-14.00,58.37,90.00,6.00,0.00,30.69,M,10.00,M,CLR,M,M,M,M,M,M,M,M,M,M,M,M,M,M,-16.62,KOOA 241255Z AUTO 09006KT 10SM CLR M19/M26 A3069 RMK AO2 T11951256,M
OOA,2026-01-24 13:15,-3.00,-14.00,58.37,80.00,5.00,0.00,30.68,M,10.00,M,CLR,M,M,M,M,M,M,M,M,M,M,M,M,M,M,-15.17,KOOA 241315Z AUTO 08005KT 10SM CLR M19/M25 A3068 RMK AO2 T11951255,M
OOA,2026-01-24 13:35,-3.00,-13.50,59.85,80.00,5.00,0.00,30.68,M,10.00,M,CLR,M,M,M,M,M,M,M,M,M,M,M,M,M,M,-15.17,KOOA 241335Z AUTO 08005KT 10SM CLR M19/M25 A3068 RMK AO2 T11951253,M
OOA,2026-01-24 13:55,-2.60,-13.40,59.02,80.00,5.00,0.00,30.68,M,10.00,M,CLR,M,M,M,M,M,M,M,M,M,M,M,M,M,M,-14.70,KOOA 241355Z AUTO 08005KT 10SM CLR M19/M25 A3068 RMK AO2 T11921252,M
OOA,2026-01-24 14:15,-2.20,-13.00,59.08,90.00,4.00,0.00,30.67,M,10.00,M,CLR,M,M,M,M,M,M,M,M,M,M,M,M,M,M,-12.52,KOOA 241415Z AUTO 09004KT 10SM CLR M19/M25 A3067 RMK AO2 T11901251,M
OOA,2026-01-24 14:35,-2.20,-13.00,59.08,80.00,6.00,0.00,30.67,M,7.00,M,CLR,M,M,M,M,M,M,M,M,M,M,M,M,M,M,-15.66,KOOA 241435Z AUTO 08006KT 7SM CLR M19/M25 A3067 RMK AO2 T11901250,M
OOA,2026-01-24 14:55,-1.70,-11.60,61.87,90.00,5.00,0.00,30.67,M,4.00,M,CLR,M,M,M,M,M,M,M,M,M,M,M,M,M,M,-13.63,KOOA 241455Z AUTO 09005KT 4SM CLR M19/M24 A3067 RMK AO2 T11871242,M
OOA,2026-01-24 15:15,-1.30,-10.30,64.75,90.00,6.00,0.00,30.66,M,3.00,M,M,M,M,M,M,M,M,M,M,M,M,M,M,M,M,-14.58,KOOA 241515Z AUTO 09006KT 3SM M18/M23 A3066 RMK AO2 SKY OBSCURED T11851235,M
OOA,2026-01-24 15:35,-1.30,-10.00,65.72,90.00,6.00,0.00,30.66,M,4.00,M,CLR,M,M,M,M,M,M,M,M,M,M,M,M,M,M,-14.58,KOOA 241535Z AUTO 09006KT 4SM CLR M18/M23 A3066 RMK AO2 T11851233,M
OOA,2026-01-24 15:55,-0.60,-9.80,64.21,80.00,3.00,0.00,30.66,M,5.00,M,CLR,M,M,M,M,M,M,M,M,M,M,M,M,M,M,-8.58,KOOA 241555Z AUTO 08003KT 5SM CLR M18/M23 A3066 RMK AO2 T11811232,M
OOA,2026-01-24 16:15,-0.20,-9.00,65.54,80.00,4.00,0.00,30.65,M,5.00,M,CLR,M,M,M,M,M,M,M,M,M,M,M,M,M,M,-10.18,KOOA 241615Z AUTO 08004KT 5SM CLR M18/M23 A3065 RMK AO2 T11791227,M
OOA,2026-01-24 16:35,0.30,-8.30,66.26,120.00,5.00,0.00,30.65,M,4.00,M,CLR,M,M,M,M,M,M,M,M,M,M,M,M,M,M,-11.25,KOOA 241635Z AUTO 12005KT 4SM CLR M18/M22 A3065 RMK AO2 T11761224,M
OOA,2026-01-24 16:55,1.00,-8.00,65.07,100.00,5.00,0.00,30.64,M,5.00,M,CLR,M,M,M,M,M,M,M,M,M,M,M,M,M,M,-10.42,KOOA 241655Z AUTO 10005KT 5SM CLR M17/M22 A3064 RMK AO2 T11721223,M
OOA,2026-01-24 17:15,1.40,-7.60,65.12,110.00,5.00,0.00,30.63,M,5.00,M,CLR,M,M,M,M,M,M,M,M,M,M,M,M,M,M,-9.95,KOOA 241715Z AUTO 11005KT 5SM CLR M17/M22 A3063 RMK AO2 T11701220,M
OOA,2026-01-24 17:35,1.60,-7.00,66.43,100.00,3.00,0.00,30.62,M,5.00,M,CLR,M,M,M,M,M,M,M,M,M,M,M,M,M,M,-6.06,KOOA 241735Z AUTO 10003KT 5SM CLR M17/M22 A3062 RMK AO2 T11691217,M
OOA,2026-01-24 17:55,2.50,-5.80,67.52,0.00,0.00,0.00,30.61,M,3.00,M,CLR,M,M,M,M,M,M,M,M,M,M,M,M,M,M,2.50,KOOA 241755Z AUTO 00000KT 3SM CLR M16/M21 A3061 RMK AO2 T11641210 11164 21196,M
OOA,2026-01-24 18:15,3.00,-5.00,68.57,100.00,4.00,0.00,30.60,M,2.00,M,CLR,M,M,M,M,M,M,M,M,M,M,M,M,M,M,-6.44,KOOA 241815Z AUTO 10004KT 2SM CLR M16/M20 A3060 RMK AO2 T11611205,M
OOA,2026-01-24 18:35,3.40,-4.00,70.62,100.00,3.00,0.00,30.58,M,1.75,M,VV ,M,M,M,700.00,M,M,M,M,M,M,M,M,M,M,-4.01,KOOA 241835Z AUTO 10003KT 1 3/4SM VV007 M16/M20 A3058 RMK AO2 T11591200,M
OOA,2026-01-24 18:55,4.00,-3.60,70.02,90.00,4.00,0.00,30.56,M,4.00,M,CLR,M,M,M,M,M,M,M,M,M,M,M,M,M,M,-5.28,KOOA 241855Z AUTO 09004KT 4SM CLR M16/M20 A3056 RMK AO2 T11561198,M
OOA,2026-01-24 19:15,4.50,-3.30,69.42,0.00,0.00,0.00,30.55,M,3.00,M,CLR,M,M,M,M,M,M,M,M,M,M,M,M,M,M,4.50,KOOA 241915Z AUTO 00000KT 3SM CLR M15/M20 A3055 RMK AO2 T11531196,M
OOA,2026-01-24 19:35,5.00,-3.00,68.82,90.00,5.00,0.00,30.54,M,3.00,M,CLR,M,M,M,M,M,M,M,M,M,M,M,M,M,M,-5.67,KOOA 241935Z AUTO 09005KT 3SM CLR M15/M19 A3054 RMK AO2 T11501195,M
OOA,2026-01-24 19:55,5.00,-2.20,71.49,60.00,4.00,0.00,30.53,M,3.00,M,CLR,M,M,M,M,M,M,M,M,M,M,M,M,M,M,-4.11,KOOA 241955Z AUTO 06004KT 3SM CLR M15/M19 A3053 RMK AO2 T11491190,M
OOA,2026-01-24 20:15,5.50,-2.40,69.21,100.00,5.00,0.00,30.52,M,3.00,M,CLR,M,M,M,M,M,M,M,M,M,M,M,M,M,M,-5.08,KOOA 242015Z AUTO 10005KT 3SM CLR M15/M19 A3052 RMK AO2 T11471191,M
OOA,2026-01-24 20:35,5.40,-1.50,72.56,80.00,5.00,0.00,30.51,M,1.50,M,VV ,M,M,M,700.00,M,M,M,M,M,M,M,M,M,M,-5.20,KOOA 242035Z AUTO 08005KT 1 1/2SM VV007 M15/M19 A3051 RMK AO2 T11481186,M
OOA,2026-01-24 20:55,6.00,-1.50,70.59,90.00,6.00,0.00,30.51,M,2.50,M,CLR,M,M,M,M,M,M,M,M,M,M,M,M,M,M,-5.78,KOOA 242055Z AUTO 09006KT 2 1/2SM CLR M14/M19 A3051 RMK AO2 T11451186,M
OOA,2026-01-24 21:15,6.30,-1.30,70.30,80.00,5.00,0.00,30.50,M,4.00,M,CLR,M,M,M,M,M,M,M,M,M,M,M,M,M,M,-4.13,KOOA 242115Z AUTO 08005KT 4SM CLR M14/M18 A3050 RMK AO2 T11431185,M
OOA,2026-01-24 21:35,5.70,-2.00,69.89,80.00,5.00,0.00,30.51,M,4.00,M,CLR,M,M,M,M,M,M,M,M,M,M,M,M,M,M,-4.84,KOOA 242135Z AUTO 08005KT 4SM CLR M15/M19 A3051 RMK AO2 T11461188,M
OOA,2026-01-24 21:55,6.00,-1.30,71.26,70.00,6.00,0.00,30.50,M,5.00,M,CLR,M,M,M,M,M,M,M,M,M,M,M,M,M,M,-5.78,KOOA 242155Z AUTO 07006KT 5SM CLR M14/M18 A3050 RMK AO2 T11451185,M
OOA,2026-01-24 22:15,5.70,-1.30,72.25,70.00,7.00,0.00,30.49,M,7.00,M,CLR,M,M,M,M,M,M,M,M,M,M,M,M,M,M,-7.28,KOOA 242215Z AUTO 07007KT 7SM CLR M15/M18 A3049 RMK AO2 T11461185,M
OOA,2026-01-24 22:35,6.00,-1.30,71.26,60.00,5.00,0.00,30.47,M,7.00,M,CLR,M,M,M,M,M,M,M,M,M,M,M,M,M,M,-4.48,KOOA 242235Z AUTO 06005KT 7SM CLR M14/M18 A3047 RMK AO2 T11451185,M
OOA,2026-01-24 22:55,6.00,-1.00,72.28,60.00,7.00,0.00,30.47,M,4.00,M,CLR,M,M,M,M,M,M,M,M,M,M,M,M,M,M,-6.91,KOOA 242255Z AUTO 06007KT 4SM CLR M14/M18 A3047 RMK AO2 T11451183,M
OOA,2026-01-24 23:15,5.70,0.00,76.81,70.00,6.00,0.00,30.46,M,4.00,M,CLR,M,M,M,M,M,M,M,M,M,M,M,M,M,M,-6.14,KOOA 242315Z AUTO 07006KT 4SM CLR M15/M18 A3046 RMK AO2 T11461178,M
OOA,2026-01-24 23:35,5.70,-0.40,75.38,70.00,8.00,0.00,30.45,M,7.00,M,CLR,M,M,M,M,M,M,M,M,M,M,M,M,M,M,-8.28,KOOA 242335Z AUTO 07008KT 7SM CLR M15/M18 A3045 RMK AO2 T11461180,M
OOA,2026-01-24 23:55,5.70,-0.40,75.38,70.00,7.00,0.00,30.45,M,7.00,M,CLR,M,M,M,M,M,M,M,M,M,M,M,M,M,M,-7.28,KOOA 242355Z AUTO 07007KT 7SM CLR M15/M18 A3045 RMK AO2 T11461180 11143 21165,M
OOA,2026-01-25 00:15,5.70,-0.40,75.38,70.00,8.00,0.00,30.44,M,7.00,M,CLR,M,M,M,M,M,M,M,M,M,M,M,M,M,M,-8.28,KOOA 250015Z AUTO 07008KT 7SM CLR M15/M18 A3044 RMK AO2 T11461180,M
OOA,2026-01-25 00:35,5.70,-0.40,75.38,80.00,8.00,0.00,30.44,M,10.00,M,CLR,M,M,M,M,M,M,M,M,M,M,M,M,M,M,-8.28,KOOA 250035Z AUTO 08008KT 10SM CLR M15/M18 A3044 RMK AO2 T11461180,M
OOA,2026-01-25 00:55,6.00,-0.20,75.06,70.00,6.00,0.00,30.44,M,7.00,M,CLR,M,M,M,M,M,M,M,M,M,M,M,M,M,M,-5.78,KOOA 250055Z AUTO 07006KT 7SM CLR M14/M18 A3044 RMK AO2 T11451179,M
OOA,2026-01-25 01:15,6.00,-0.40,74.35,70.00,8.00,0.00,30.44,M,10.00,M,CLR,M,M,M,M,M,M,M,M,M,M,M,M,M,M,-7.91,KOOA 250115Z AUTO 07008KT 10SM CLR M14/M18 A3044 RMK AO2 T11451180,M
OOA,2026-01-25 01:35,6.00,-0.40,74.35,80.00,7.00,0.00,30.44,M,10.00,M,CLR,M,M,M,M,M,M,M,M,M,M,M,M,M,M,-6.91,KOOA 250135Z AUTO 08007KT 10SM CLR M14/M18 A3044 RMK AO2 T11451180,M
OOA,2026-01-25 01:55,6.00,-0.40,74.35,80.00,8.00,0.00,30.43,M,10.00,M,CLR,M,M,M,M,M,M,M,M,M,M,M,M,M,M,-7.91,KOOA 250155Z AUTO 08008KT 10SM CLR M14/M18 A3043 RMK AO2 T11451180,M
OOA,2026-01-25 02:15,6.30,-0.40,73.34,90.00,7.00,0.00,30.43,M,10.00,M,CLR,M,M,M,M,M,M,M,M,M,M,M,M,M,M,-6.55,KOOA 250215Z AUTO 09007KT 10SM CLR M14/M18 A3043 RMK AO2 T11431180,M
OOA,2026-01-25 02:35,6.40,-0.60,72.33,80.00,7.00,0.00,30.42,M,10.00,M,CLR,M,M,M,M,M,M,M,M,M,M,M,M,M,M,-6.43,KOOA 250235Z AUTO 08007KT 10SM CLR M14/M18 A3042 RMK AO2 T11421181,M
OOA,2026-01-25 02:55,6.60,-0.60,71.67,80.00,6.00,0.00,30.42,M,10.00,M,CLR,M,M,M,M,M,M,M,M,M,M,M,M,M,M,-5.06,KOOA 250255Z AUTO 08006KT 10SM CLR M14/M18 A3042 RMK AO2 T11411181,M
OOA,2026-01-25 03:15,6.60,-0.80,71.00,60.00,7.00,0.00,30.40,M,10.00,M,CLR,M,M,M,M,M,M,M,M,M,M,M,M,M,M,-6.18,KOOA 250315Z AUTO 06007KT 10SM CLR M14/M18 A3040 RMK AO2 T11411182,M
OOA,2026-01-25 03:35,6.60,-0.80,71.00,80.00,8.00,0.00,30.39,M,10.00,M,CLR,M,M,M,M,M,M,M,M,M,M,M,M,M,M,-7.18,KOOA 250335Z AUTO 08008KT 10SM CLR M14/M18 A3039 RMK AO2 T11411182,M
OOA,2026-01-25 03:55,6.80,-0.20,72.37,80.00,5.00,0.00,30.40,M,5.00,M,CLR,M,M,M,M,M,M,M,M,M,M,M,M,M,M,-3.53,KOOA 250355Z AUTO 08005KT 5SM CLR M14/M18 A3040 RMK AO2 T11401179,M
OOA,2026-01-25 04:15,6.60,0.50,75.47,80.00,6.00,0.00,30.38,M,4.00,M,CLR,M,M,M,M,M,M,M,M,M,M,M,M,M,M,-5.06,KOOA 250415Z AUTO 08006KT 4SM CLR M14/M17 A3038 RMK AO2 T11411175,M
OOA,2026-01-25 04:35,6.60,0.50,75.47,70.00,6.00,0.00,30.37,M,4.00,M,CLR,M,M,M,M,M,M,M,M,M,M,M,M,M,M,-5.06,KOOA 250435Z AUTO 07006KT 4SM CLR M14/M17 A3037 RMK AO2 T11411175,M
OOA,2026-01-25 04:55,6.60,1.00,77.26,70.00,7.00,0.00,30.38,M,3.00,M,CLR,M,M,M,M,M,M,M,M,M,M,M,M,M,M,-6.18,KOOA 250455Z AUTO 07007KT 3SM CLR M14/M17 A3038 RMK AO2 T11411172,M
OOA,2026-01-25 05:15,6.60,1.40,78.71,70.00,6.00,0.00,30.36,M,2.50,M,CLR,M,M,M,M,M,M,M,M,M,M,M,M,M,M,-5.06,KOOA 250515Z AUTO 07006KT 2 1/2SM CLR M14/M17 A3036 RMK AO2 T11411170,M
OOA,2026-01-25 05:35,6.60,1.60,79.45,50.00,7.00,0.00,30.35,M,5.00,M,CLR,M,M,M,M,M,M,M,M,M,M,M,M,M,M,-6.18,KOOA 250535Z AUTO 05007KT 5SM CLR M14/M17 A3035 RMK AO2 T11411169,M
OOA,2026-01-25 05:55,6.40,1.40,79.43,60.00,7.00,0.00,30.35,M,3.00,M,CLR,M,M,M,M,M,M,M,M,M,M,M,M,M,M,-6.43,KOOA 250555Z AUTO 06007KT 3SM CLR M14/M17 A3035 RMK AO2 T11421170 11140 21147 411401200,M
OOA,2026-01-25 06:15,6.60,2.00,80.94,40.00,6.00,0.00,30.34,M,5.00,M,CLR,M,M,M,M,M,M,M,M,M,M,M,M,M,M,-5.06,KOOA 250615Z AUTO 04006KT 5SM CLR M14/M17 A3034 RMK AO2 T11411167,M
OOA,2026-01-25 06:35,6.40,1.40,79.43,70.00,6.00,0.00,30.35,M,4.00,M,CLR,M,M,M,M,M,M,M,M,M,M,M,M,M,M,-5.30,KOOA 250635Z AUTO 07006KT 4SM CLR M14/M17 A3035 RMK AO2 T11421170,M
OOA,2026-01-25 06:55,6.40,1.20,78.69,70.00,7.00,0.00,30.34,M,4.00,M,CLR,M,M,M,M,M,M,M,M,M,M,M,M,M,M,-6.43,KOOA 250655Z AUTO 07007KT 4SM CLR M14/M17 A3034 RMK AO2 T11421171,M
OOA,2026-01-25 07:15,6.00,0.50,77.56,60.00,6.00,0.00,30.34,M,5.00,M,CLR,M,M,M,M,M,M,M,M,M,M,M,M,M,M,-5.78,KOOA 250715Z AUTO 06006KT 5SM CLR M14/M17 A3034 RMK AO2 T11451175,M
OOA,2026-01-25 07:35,6.00,0.70,78.29,50.00,6.00,0.00,30.33,M,7.00,M,CLR,M,M,M,M,M,M,M,M,M,M,M,M,M,M,-5.78,KOOA 250735Z AUTO 05006KT 7SM CLR M14/M17 A3033 RMK AO2 T11451174,M
OOA,2026-01-25 07:55,6.00,0.00,75.76,40.00,7.00,0.00,30.32,M,7.00,M,CLR,M,M,M,M,M,M,M,M,M,M,M,M,M,M,-6.91,KOOA 250755Z AUTO 04007KT 7SM CLR M14/M18 A3032 RMK AO2 T11451177,M
OOA,2026-01-25 08:15,6.00,0.30,76.84,40.00,7.00,0.00,30.31,M,10.00,M,CLR,M,M,M,M,M,M,M,M,M,M,M,M,M,M,-6.91,KOOA 250815Z AUTO 04007KT 10SM CLR M14/M18 A3031 RMK AO2 T11451176,M
OOA,2026-01-25 08:35,6.00,-0.80,72.97,30.00,7.00,0.00,30.31,M,10.00,M,CLR,M,M,M,M,M,M,M,M,M,M,M,M,M,M,-6.91,KOOA 250835Z AUTO 03007KT 10SM CLR M14/M18 A3031 RMK AO2 T11451182,M
OOA,2026-01-25 08:55,6.00,-1.30,71.26,30.00,6.00,0.00,30.31,M,10.00,M,CLR,M,M,M,M,M,M,M,M,M,M,M,M,M,M,-5.78,KOOA 250855Z AUTO 03006KT 10SM CLR M14/M18 A3031 RMK AO2 T11451185,M
OOA,2026-01-25 09:15,6.00,-2.00,68.94,20.00,7.00,0.00,30.31,M,10.00,M,CLR,M,M,M,M,M,M,M,M,M,M,M,M,M,M,-6.91,KOOA 250915Z AUTO 02007KT 10SM CLR M14/M19 A3031 RMK AO2 T11451188,M
OOA,2026-01-25 09:35,6.00,-2.20,68.29,30.00,8.00,0.00,30.29,M,10.00,M,CLR,M,M,M,M,M,M,M,M,M,M,M,M,M,M,-7.91,KOOA 250935Z AUTO 03008KT 10SM CLR M14/M19 A3029 RMK AO2 T11451190,M
OOA,2026-01-25 09:55,5.70,-2.20,69.23,20.00,9.00,0.00,30.28,M,10.00,M,CLR,M,M,M,M,M,M,M,M,M,M,M,M,M,M,-9.19,KOOA 250955Z AUTO 02009KT 10SM CLR M15/M19 A3028 RMK AO2 T11461190,M
OOA,2026-01-25 10:15,5.50,-2.00,70.53,20.00,8.00,0.00,30.29,M,10.00,M,CLR,M,M,M,M,M,M,M,M,M,M,M,M,M,M,-8.53,KOOA 251015Z AUTO 02008KT 10SM CLR M15/M19 A3029 RMK AO2 T11471188,M
OOA,2026-01-25 10:35,5.40,-2.20,70.19,20.00,7.00,0.00,30.28,M,10.00,M,CLR,M,M,M,M,M,M,M,M,M,M,M,M,M,M,-7.64,KOOA 251035Z AUTO 02007KT 10SM CLR M15/M19 A3028 RMK AO2 T11481190,M
OOA,2026-01-25 10:55,5.00,-2.00,72.17,10.00,9.00,0.00,30.28,M,10.00,M,CLR,M,M,M,M,M,M,M,M,M,M,M,M,M,M,-10.06,KOOA 251055Z AUTO 01009KT 10SM CLR M15/M19 A3028 RMK AO2 T11501189,M
OOA,2026-01-25 11:15,4.60,-2.20,72.81,10.00,9.00,0.00,30.27,M,10.00,M,CLR,M,M,M,M,M,M,M,M,M,M,M,M,M,M,-10.56,KOOA 251115Z AUTO 01009KT 10SM CLR M15/M19 A3027 RMK AO2 T11521190,M
OOA,2026-01-25 11:35,4.00,-3.00,72.05,20.00,8.00,0.00,30.28,M,10.00,M,CLR,M,M,M,M,M,M,M,M,M,M,M,M,M,M,-10.38,KOOA 251135Z AUTO 02008KT 10SM CLR M15/M19 A3028 RMK AO2 T11551195,M
OOA,2026-01-25 11:55,4.00,-3.00,72.05,10.00,7.00,0.00,30.28,M,10.00,M,CLR,M,M,M,M,M,M,M,M,M,M,M,M,M,M,-9.35,KOOA 251155Z AUTO 01007KT 10SM CLR M15/M19 A3028 RMK AO2 T11551194 11141 21155,M
OOA,2026-01-25 12:15,4.00,-3.30,71.03,10.00,8.00,0.00,30.27,M,10.00,M,CLR,M,M,M,M,M,M,M,M,M,M,M,M,M,M,-10.38,KOOA 251215Z AUTO 01008KT 10SM CLR M15/M20 A3027 RMK AO2 T11551196,M
OOA,2026-01-25 12:35,4.00,-4.00,68.69,10.00,8.00,0.00,30.27,M,10.00,M,CLR,M,M,M,M,M,M,M,M,M,M,M,M,M,M,-10.38,KOOA 251235Z AUTO 01008KT 10SM CLR M16/M20 A3027 RMK AO2 T11561199,M
OOA,2026-01-25 12:55,4.00,-4.00,68.69,10.00,10.00,0.00,30.27,M,10.00,M,CLR,M,M,M,M,M,M,M,M,M,M,M,M,M,M,-12.14,KOOA 251255Z AUTO 01010KT 10SM CLR M16/M20 A3027 RMK AO2 T11561199,M
OOA,2026-01-25 13:15,3.60,-4.00,69.97,10.00,10.00,0.00,30.26,M,10.00,M,CLR,M,M,M,M,M,M,M,M,M,M,M,M,M,M,-12.65,KOOA 251315Z AUTO 01010KT 10SM CLR M16/M20 A3026 RMK AO2 T11581200,M
OOA,2026-01-25 13:35,3.00,-4.70,69.56,20.00,9.00,0.00,30.26,M,10.00,M,CLR,M,M,M,M,M,M,M,M,M,M,M,M,M,M,-12.55,KOOA 251335Z AUTO 02009KT 10SM CLR M16/M20 A3026 RMK AO2 T11611204,M
OOA,2026-01-25 13:55,3.20,-4.50,69.59,360.00,8.00,0.00,30.28,M,10.00,M,CLR,M,M,M,M,M,M,M,M,M,M,M,M,M,M,-11.36,KOOA 251355Z AUTO 36008KT 10SM CLR M16/M20 A3028 RMK AO2 T11601203,M
OOA,2026-01-25 14:15,3.00,-5.00,68.57,10.00,8.00,0.00,30.27,M,10.00,M,CLR,M,M,M,M,M,M,M,M,M,M,M,M,M,M,-11.61,KOOA 251415Z AUTO 01008KT 10SM CLR M16/M20 A3027 RMK AO2 T11611205,M
OOA,2026-01-25 14:35,3.20,-5.00,67.94,10.00,8.00,0.00,30.26,M,10.00,M,CLR,M,M,M,M,M,M,M,M,M,M,M,M,M,M,-11.36,KOOA 251435Z AUTO 01008KT 10SM CLR M16/M20 A3026 RMK AO2 T11601205,M
OOA,2026-01-25 14:55,4.60,-5.00,63.69,10.00,9.00,0.00,30.25,M,10.00,M,CLR,M,M,M,M,M,M,M,M,M,M,M,M,M,M,-10.56,KOOA 251455Z AUTO 01009KT 10SM CLR M15/M20 A3025 RMK AO2 T11521205,M
OOA,2026-01-25 15:15,5.50,-4.40,62.91,10.00,12.00,0.00,30.25,M,10.00,M,CLR,M,M,M,M,M,M,M,M,M,M,M,M,M,M,-11.73,KOOA 251515Z AUTO 01012KT 10SM CLR M15/M20 A3025 RMK AO2 T11471202,M
OOA,2026-01-25 15:35,6.00,-4.70,60.61,360.00,11.00,0.00,30.27,M,10.00,M,CLR,M,M,M,M,M,M,M,M,M,M,M,M,M,M,-10.39,KOOA 251535Z AUTO 36011KT 10SM CLR M14/M20 A3027 RMK AO2 T11441204,M
OOA,2026-01-25 15:55,6.40,-4.70,59.52,360.00,10.00,0.00,30.29,M,10.00,14.00,CLR,M,M,M,M,M,M,M,M,M,M,M,M,M,M,-9.13,KOOA 251555Z AUTO 36010G14KT 10SM CLR M14/M20 A3029 RMK AO2 T11421204,M
OOA,2026-01-25 16:15,7.30,-4.00,59.08,350.00,10.00,0.00,30.27,M,10.00,M,CLR,M,M,M,M,M,M,M,M,M,M,M,M,M,M,-8.01,KOOA 251615Z AUTO 35010KT 10SM CLR M14/M20 A3027 RMK AO2 T11371199,M
OOA,2026-01-25 16:35,8.60,-2.40,60.13,10.00,10.00,0.00,30.27,M,10.00,M,CLR,M,M,M,M,M,M,M,M,M,M,M,M,M,M,-6.38,KOOA 251635Z AUTO 01010KT 10SM CLR M13/M19 A3027 RMK AO2 T11301191,M
OOA,2026-01-25 16:55,8.60,-3.00,58.44,350.00,10.00,0.00,30.27,M,10.00,16.00,CLR,M,M,M,M,M,M,M,M,M,M,M,M,M,M,-6.38,KOOA 251655Z AUTO 35010G16KT 10SM CLR M13/M19 A3027 RMK AO2 T11301194,M
OOA,2026-01-25 17:15,10.00,-2.00,57.55,350.00,11.00,0.00,30.27,M,10.00,16.00,CLR,M,M,M,M,M,M,M,M,M,M,M,M,M,M,-5.34,KOOA 251715Z AUTO 35011G16KT 10SM CLR M12/M19 A3027 RMK AO2 T11221188,M
OOA,2026-01-25 17:35,10.60,-2.20,55.50,340.00,9.00,0.00,30.27,M,10.00,16.00,CLR,M,M,M,M,M,M,M,M,M,M,M,M,M,M,-3.10,KOOA 251735Z AUTO 34009G16KT 10SM CLR M12/M19 A3027 RMK AO2 T11191190,M
OOA,2026-01-25 17:55,11.70,-1.70,54.12,360.00,10.00,0.00,30.27,M,10.00,14.00,CLR,M,M,M,M,M,M,M,M,M,M,M,M,M,M,-2.49,KOOA 251755Z AUTO 36010G14KT 10SM CLR M11/M19 A3027 RMK AO2 T11131187 11112 21161,M
OOA,2026-01-25 18:15,12.20,-1.30,53.94,340.00,10.00,0.00,30.26,M,10.00,15.00,CLR,M,M,M,M,M,M,M,M,M,M,M,M,M,M,-1.86,KOOA 251815Z AUTO 34010G15KT 10SM CLR M11/M18 A3026 RMK AO2 T11101185,M
OOA,2026-01-25 18:35,12.70,-1.00,53.51,360.00,13.00,0.00,30.25,M,10.00,M,CLR,M,M,M,M,M,M,M,M,M,M,M,M,M,M,-3.16,KOOA 251835Z AUTO 36013KT 10SM CLR M11/M18 A3025 RMK AO2 T11071184,M
OOA,2026-01-25 18:55,13.60,-0.40,52.91,360.00,13.00,0.00,30.25,M,10.00,17.00,CLR,M,M,M,M,M,M,M,M,M,M,M,M,M,M,-2.00,KOOA 251855Z AUTO 36013G17KT 10SM CLR M10/M18 A3025 RMK AO2 T11021180,M
OOA,2026-01-25 19:15,14.00,-1.00,50.54,330.00,13.00,0.00,30.25,M,10.00,16.00,CLR,M,M,M,M,M,M,M,M,M,M,M,M,M,M,-1.49,KOOA 251915Z AUTO 33013G16KT 10SM CLR M10/M18 A3025 RMK AO2 T11011184,M
OOA,2026-01-25 19:35,14.40,-0.40,51.08,330.00,13.00,0.00,30.25,M,10.00,16.00,CLR,M,M,M,M,M,M,M,M,M,M,M,M,M,M,-0.98,KOOA 251935Z AUTO 33013G16KT 10SM CLR M10/M18 A3025 RMK AO2 T10981180,M
OOA,2026-01-25 19:55,14.50,-2.00,47.16,360.00,10.00,0.00,30.25,M,10.00,15.00,CLR,M,M,M,M,M,M,M,M,M,M,M,M,M,M,1.02,KOOA 251955Z AUTO 36010G15KT 10SM CLR M10/M19 A3025 RMK AO2 T10971188,M
OOA,2026-01-25 20:15,14.70,-2.20,46.31,340.00,15.00,0.00,30.25,M,10.00,M,CLR,M,M,M,M,M,M,M,M,M,M,M,M,M,M,-1.65,KOOA 252015Z AUTO 34015KT 10SM CLR M10/M19 A3025 RMK AO2 T10961190,M
OOA,2026-01-25 20:35,15.00,-2.60,44.84,340.00,11.00,0.00,30.25,M,10.00,16.00,CLR,M,M,M,M,M,M,M,M,M,M,M,M,M,M,0.98,KOOA 252035Z AUTO 34011G16KT 10SM CLR M09/M19 A3025 RMK AO2 T10941192,M
OOA,2026-01-25 20:55,14.70,-4.00,42.50,340.00,12.00,0.00,30.26,M,10.00,M,CLR,M,M,M,M,M,M,M,M,M,M,M,M,M,M,-0.02,KOOA 252055Z AUTO 34012KT 10SM CLR M10/M20 A3026 RMK AO2 T10961201,M
OOA,2026-01-25 21:15,14.40,-4.70,41.64,340.00,10.00,0.00,30.26,M,10.00,M,CLR,M,M,M,M,M,M,M,M,M,M,M,M,M,M,0.90,KOOA 252115Z AUTO 34010KT 10SM CLR M10/M20 A3026 RMK AO2 T10981204,M
OOA,2026-01-25 21:35,14.50,-4.00,42.87,340.00,14.00,0.00,30.26,M,10.00,17.00,CLR,M,M,M,M,M,M,M,M,M,M,M,M,M,M,-1.40,KOOA 252135Z AUTO 34014G17KT 10SM CLR M10/M20 A3026 RMK AO2 T10971199,M
OOA,2026-01-25 21:55,14.00,-5.00,41.77,340.00,14.00,0.00,30.27,M,10.00,M,CLR,M,M,M,M,M,M,M,M,M,M,M,M,M,M,-2.04,KOOA 252155Z AUTO 34014KT 10SM CLR M10/M21 A3027 RMK AO2 T11011206,M
OOA,2026-01-25 22:15,13.30,-4.40,44.34,350.00,14.00,0.00,30.27,M,10.00,19.00,CLR,M,M,M,M,M,M,M,M,M,M,M,M,M,M,-2.94,KOOA 252215Z AUTO 35014G19KT 10SM CLR M10/M20 A3027 RMK AO2 T11041202,M
OOA,2026-01-25 22:35,12.40,-5.00,44.82,340.00,13.00,0.00,30.27,M,10.00,M,CLR,M,M,M,M,M,M,M,M,M,M,M,M,M,M,-3.54,KOOA 252235Z AUTO 34013KT 10SM CLR M11/M20 A3027 RMK AO2 T11091205,M
OOA,2026-01-25 22:55,11.30,-5.60,45.72,340.00,13.00,0.00,30.28,M,10.00,M,CLR,M,M,M,M,M,M,M,M,M,M,M,M,M,M,-4.95,KOOA 252255Z AUTO 34013KT 10SM CLR M11/M21 A3028 RMK AO2 T11151209,M
OOA,2026-01-25 23:15,10.20,-5.00,49.43,350.00,10.00,0.00,30.28,M,10.00,M,CLR,M,M,M,M,M,M,M,M,M,M,M,M,M,M,-4.37,KOOA 252315Z AUTO 35010KT 10SM CLR M12/M21 A3028 RMK AO2 T11211206,M
OOA,2026-01-25 23:35,9.00,-5.00,52.16,350.00,9.00,0.00,30.29,M,10.00,M,CLR,M,M,M,M,M,M,M,M,M,M,M,M,M,M,-5.09,KOOA 252335Z AUTO 35009KT 10SM CLR M13/M21 A3029 RMK AO2 T11271206,M
OOA,2026-01-25 23:55,8.60,-6.00,50.60,350.00,11.00,0.00,30.29,M,10.00,M,CLR,M,M,M,M,M,M,M,M,M,M,M,M,M,M,-7.10,KOOA 252355Z AUTO 35011KT 10SM CLR M13/M21 A3029 RMK AO2 T11301211 11093 21130,M
OOA,2026-01-26 00:15,7.70,-5.40,54.25,360.00,9.00,0.00,30.30,M,10.00,M,CLR,M,M,M,M,M,M,M,M,M,M,M,M,M,M,-6.70,KOOA 260015Z AUTO 36009KT 10SM CLR M13/M21 A3030 RMK AO2 T11351208,M
OOA,2026-01-26 00:35,7.30,-5.00,56.32,350.00,9.00,0.00,30.31,M,10.00,M,CLR,M,M,M,M,M,M,M,M,M,M,M,M,M,M,-7.20,KOOA 260035Z AUTO 35009KT 10SM CLR M14/M21 A3031 RMK AO2 T11371206,M
OOA,2026-01-26 00:55,6.80,-5.00,57.61,340.00,9.00,0.00,30.32,M,10.00,M,CLR,M,M,M,M,M,M,M,M,M,M,M,M,M,M,-7.82,KOOA 260055Z AUTO 34009KT 10SM CLR M14/M20 A3032 RMK AO2 T11401205,M
OOA,2026-01-26 01:15,6.40,-4.50,60.09,340.00,11.00,0.00,30.32,M,10.00,M,CLR,M,M,M,M,M,M,M,M,M,M,M,M,M,M,-9.89,KOOA 260115Z AUTO 34011KT 10SM CLR M14/M20 A3032 RMK AO2 T11421203,M
OOA,2026-01-26 01:35,6.00,-4.50,61.20,340.00,10.00,0.00,30.33,M,10.00,M,CLR,M,M,M,M,M,M,M,M,M,M,M,M,M,M,-9.64,KOOA 260135Z AUTO 34010KT 10SM CLR M14/M20 A3033 RMK AO2 T11451203,M
OOA,2026-01-26 01:55,5.50,-4.50,62.61,340.00,9.00,0.00,30.34,M,10.00,M,CLR,M,M,M,M,M,M,M,M,M,M,M,M,M,M,-9.44,KOOA 260155Z AUTO 34009KT 10SM CLR M15/M20 A3034 RMK AO2 T11471203,M
OOA,2026-01-26 02:15,5.00,-4.50,64.06,340.00,9.00,0.00,30.34,M,10.00,M,CLR,M,M,M,M,M,M,M,M,M,M,M,M,M,M,-10.06,KOOA 260215Z AUTO 34009KT 10SM CLR M15/M20 A3034 RMK AO2 T11501203,M
OOA,2026-01-26 02:35,5.00,-4.00,65.61,340.00,11.00,0.00,30.34,M,10.00,M,CLR,M,M,M,M,M,M,M,M,M,M,M,M,M,M,-11.65,KOOA 260235Z AUTO 34011KT 10SM CLR M15/M20 A3034 RMK AO2 T11501201,M
OOA,2026-01-26 02:55,4.60,-4.00,66.82,340.00,10.00,0.00,30.35,M,10.00,M,CLR,M,M,M,M,M,M,M,M,M,M,M,M,M,M,-11.39,KOOA 260255Z AUTO 34010KT 10SM CLR M15/M20 A3035 RMK AO2 T11521200,M
OOA,2026-01-26 03:15,5.00,-4.00,65.61,340.00,11.00,0.00,30.36,M,10.00,M,CLR,M,M,M,M,M,M,M,M,M,M,M,M,M,M,-11.65,KOOA 260315Z AUTO 34011KT 10SM CLR M15/M20 A3036 RMK AO2 T11511199,M
OOA,2026-01-26 03:35,4.50,-4.00,67.13,330.00,9.00,0.00,30.37,M,10.00,M,CLR,M,M,M,M,M,M,M,M,M,M,M,M,M,M,-10.68,KOOA 260335Z AUTO 33009KT 10SM CLR M15/M20 A3037 RMK AO2 T11531199,M
OOA,2026-01-26 03:55,4.00,-3.60,70.02,330.00,9.00,0.00,30.38,M,10.00,M,CLR,M,M,M,M,M,M,M,M,M,M,M,M,M,M,-11.30,KOOA 260355Z AUTO 33009KT 10SM CLR M15/M20 A3038 RMK AO2 T11551198,M
OOA,2026-01-26 04:15,3.60,-3.60,71.32,330.00,7.00,0.00,30.39,M,10.00,M,CLR,M,M,M,M,M,M,M,M,M,M,M,M,M,M,-9.84,KOOA 260415Z AUTO 33007KT 10SM CLR M16/M20 A3039 RMK AO2 T11581198,M
OOA,2026-01-26 04:35,3.20,-3.50,73.00,330.00,8.00,0.00,30.39,M,10.00,M,CLR,M,M,M,M,M,M,M,M,M,M,M,M,M,M,-11.36,KOOA 260435Z AUTO 33008KT 10SM CLR M16/M20 A3039 RMK AO2 T11601197,M
OOA,2026-01-26 04:55,2.30,-4.00,74.31,330.00,6.00,0.00,30.39,M,10.00,M,CLR,M,M,M,M,M,M,M,M,M,M,M,M,M,M,-10.24,KOOA 260455Z AUTO 33006KT 10SM CLR M16/M20 A3039 RMK AO2 T11651200,M
OOA,2026-01-26 05:15,1.40,-4.40,76.02,310.00,4.00,0.00,30.40,M,10.00,M,CLR,M,M,M,M,M,M,M,M,M,M,M,M,M,M,-8.31,KOOA 260515Z AUTO 31004KT 10SM CLR M17/M20 A3040 RMK AO2 T11701202,M
OOA,2026-01-26 05:35,0.50,-5.00,77.03,310.00,4.00,0.00,30.40,M,10.00,M,CLR,M,M,M,M,M,M,M,M,M,M,M,M,M,M,-9.36,KOOA 260535Z AUTO 31004KT 10SM CLR M17/M21 A3040 RMK AO2 T11751206,M
OOA,2026-01-26 05:55,0.00,-5.00,78.85,310.00,4.00,0.00,30.40,M,10.00,M,CLR,M,M,M,M,M,M,M,M,M,M,M,M,M,M,-9.95,KOOA 260555Z AUTO 31004KT 10SM CLR M18/M21 A3040 RMK AO2 T11771206 11130 21177 410931177,M
OOA,2026-01-26 06:15,-0.80,-5.80,78.78,330.00,4.00,0.00,30.39,M,10.00,M,CLR,M,M,M,M,M,M,M,M,M,M,M,M,M,M,-10.88,KOOA 260615Z AUTO 33004KT 10SM CLR M18/M21 A3039 RMK AO2 T11821210,M
OOA,2026-01-26 06:35,-0.40,-5.40,78.82,310.00,8.00,0.00,30.40,M,10.00,M,CLR,M,M,M,M,M,M,M,M,M,M,M,M,M,M,-15.80,KOOA 260635Z AUTO 31008KT 10SM CLR M18/M21 A3040 RMK AO2 T11801208,M
OOA,2026-01-26 06:55,-0.20,-5.40,78.08,300.00,5.00,0.00,30.39,M,10.00,M,CLR,M,M,M,M,M,M,M,M,M,M,M,M,M,M,-11.85,KOOA 260655Z AUTO 30005KT 10SM CLR M18/M21 A3039 RMK AO2 T11791208,M
OOA,2026-01-26 07:15,-1.30,-6.00,79.89,310.00,6.00,0.00,30.40,M,10.00,M,CLR,M,M,M,M,M,M,M,M,M,M,M,M,M,M,-14.58,KOOA 260715Z AUTO 31006KT 10SM CLR M18/M21 A3040 RMK AO2 T11851211,M
OOA,2026-01-26 07:35,-1.00,-5.80,79.53,310.00,6.00,0.00,30.40,M,10.00,M,CLR,M,M,M,M,M,M,M,M,M,M,M,M,M,M,-14.21,KOOA 260735Z AUTO 31006KT 10SM CLR M18/M21 A3040 RMK AO2 T11831210,M
OOA,2026-01-26 07:55,-1.00,-6.00,78.76,300.00,5.00,0.00,30.41,M,10.00,M,CLR,M,M,M,M,M,M,M,M,M,M,M,M,M,M,-12.80,KOOA 260755Z AUTO 30005KT 10SM CLR M18/M21 A3041 RMK AO2 T11831211,M
OOA,2026-01-26 08:15,-1.00,-5.80,79.53,290.00,6.00,0.00,30.41,M,10.00,M,CLR,M,M,M,M,M,M,M,M,M,M,M,M,M,M,-14.21,KOOA 260815Z AUTO 29006KT 10SM CLR M18/M21 A3041 RMK AO2 T11841210,M
OOA,2026-01-26 08:35,-0.40,-5.30,79.20,290.00,6.00,0.00,30.42,M,10.00,M,CLR,M,M,M,M,M,M,M,M,M,M,M,M,M,M,-13.49,KOOA 260835Z AUTO 29006KT 10SM CLR M18/M21 A3042 RMK AO2 T11801207,M
OOA,2026-01-26 08:55,0.00,-4.70,80.00,300.00,8.00,0.00,30.42,M,10.00,M,CLR,M,M,M,M,M,M,M,M,M,M,M,M,M,M,-15.31,KOOA 260855Z AUTO 30008KT 10SM CLR M18/M20 A3042 RMK AO2 T11771204,M
OOA,2026-01-26 09:15,-0.20,-5.00,79.60,300.00,7.00,0.00,30.42,M,10.00,M,CLR,M,M,M,M,M,M,M,M,M,M,M,M,M,M,-14.47,KOOA 260915Z AUTO 30007KT 10SM CLR M18/M20 A3042 RMK AO2 T11791205,M
OOA,2026-01-26 09:35,-0.40,-5.00,80.35,300.00,7.00,0.00,30.42,M,10.00,M,CLR,M,M,M,M,M,M,M,M,M,M,M,M,M,M,-14.71,KOOA 260935Z AUTO 30007KT 10SM CLR M18/M20 A3042 RMK AO2 T11801205,M
OOA,2026-01-26 09:55,1.00,-3.60,80.47,310.00,10.00,0.00,30.42,M,10.00,M,CLR,M,M,M,M,M,M,M,M,M,M,M,M,M,M,-15.91,KOOA 260955Z AUTO 31010KT 10SM CLR M17/M20 A3042 RMK AO2 T11721198,M
OOA,2026-01-26 10:15,1.40,-3.60,78.98,320.00,9.00,0.00,30.42,M,10.00,M,CLR,M,M,M,M,M,M,M,M,M,M,M,M,M,M,-14.54,KOOA 261015Z AUTO 32009KT 10SM CLR M17/M20 A3042 RMK AO2 T11701198,M
OOA,2026-01-26 10:35,1.00,-4.00,78.95,320.00,8.00,0.00,30.42,M,10.00,M,CLR,M,M,M,M,M,M,M,M,M,M,M,M,M,M,-14.07,KOOA 261035Z AUTO 32008KT 10SM CLR M17/M20 A3042 RMK AO2 T11721200,M
OOA,2026-01-26 10:55,0.50,-4.00,80.81,320.00,7.00,0.00,30.42,M,10.00,M,CLR,M,M,M,M,M,M,M,M,M,M,M,M,M,M,-13.62,KOOA 261055Z AUTO 32007KT 10SM CLR M17/M20 A3042 RMK AO2 T11751201,M
OOA,2026-01-26 11:15,-0.40,-5.00,80.35,310.00,8.00,0.00,30.42,M,10.00,M,CLR,M,M,M,M,M,M,M,M,M,M,M,M,M,M,-15.80,KOOA 261115Z AUTO 31008KT 10SM CLR M18/M21 A3042 RMK AO2 T11801206,M
OOA,2026-01-26 11:35,0.00,-5.00,78.85,310.00,8.00,0.00,30.42,M,10.00,M,CLR,M,M,M,M,M,M,M,M,M,M,M,M,M,M,-15.31,KOOA 261135Z AUTO 31008KT 10SM CLR M18/M20 A3042 RMK AO2 T11781205,M
OOA,2026-01-26 11:55,-1.50,-6.00,80.64,300.00,6.00,0.00,30.42,M,10.00,M,CLR,M,M,M,M,M,M,M,M,M,M,M,M,M,M,-14.82,KOOA 261155Z AUTO 30006KT 10SM CLR M19/M21 A3042 RMK AO2 T11861212 11170 21187,M
OOA,2026-01-26 12:15,-1.30,-5.40,82.23,300.00,8.00,0.00,30.42,M,10.00,M,CLR,M,M,M,M,M,M,M,M,M,M,M,M,M,M,-16.91,KOOA 261215Z AUTO 30008KT 10SM CLR M18/M21 A3042 RMK AO2 T11851208,M
OOA,2026-01-26 12:35,-0.60,-5.00,81.11,300.00,8.00,0.00,30.42,M,10.00,M,CLR,M,M,M,M,M,M,M,M,M,M,M,M,M,M,-16.04,KOOA 261235Z AUTO 30008KT 10SM CLR M18/M21 A3042 RMK AO2 T11811206,M
OOA,2026-01-26 12:55,-1.00,-5.80,79.53,310.00,10.00,0.00,30.43,M,10.00,M,CLR,M,M,M,M,M,M,M,M,M,M,M,M,M,M,-18.41,KOOA 261255Z AUTO 31010KT 10SM CLR M18/M21 A3043 RMK AO2 T11831210,M
OOA,2026-01-26 13:15,-1.00,-6.50,76.88,300.00,10.00,0.00,30.42,M,10.00,M,CLR,M,M,M,M,M,M,M,M,M,M,M,M,M,M,-18.41,KOOA 261315Z AUTO 30010KT 10SM CLR M18/M21 A3042 RMK AO2 T11831214,M
OOA,2026-01-26 13:35,-1.50,-7.20,76.09,290.00,9.00,0.00,30.43,M,10.00,M,CLR,M,M,M,M,M,M,M,M,M,M,M,M,M,M,-18.14,KOOA 261335Z AUTO 29009KT 10SM CLR M19/M22 A3043 RMK AO2 T11861218,M
OOA,2026-01-26 13:55,-1.30,-7.60,73.92,290.00,8.00,0.00,30.42,M,10.00,M,CLR,M,M,M,M,M,M,M,M,M,M,M,M,M,M,-16.91,KOOA 261355Z AUTO 29008KT 10SM CLR M18/M22 A3042 RMK AO2 T11851220,M
OOA,2026-01-26 14:15,-0.20,-7.40,70.87,300.00,9.00,0.00,30.42,M,10.00,M,CLR,M,M,M,M,M,M,M,M,M,M,M,M,M,M,-16.52,KOOA 261415Z AUTO 30009KT 10SM CLR M18/M22 A3042 RMK AO2 T11791219,M
OOA,2026-01-26 14:35,1.00,-6.70,69.32,300.00,10.00,0.00,30.42,M,10.00,M,CLR,M,M,M,M,M,M,M,M,M,M,M,M,M,M,-15.91,KOOA 261435Z AUTO 30010KT 10SM CLR M17/M21 A3042 RMK AO2 T11731215,M
OOA,2026-01-26 14:55,2.00,-5.80,69.11,290.00,9.00,0.00,30.42,M,10.00,M,CLR,M,M,M,M,M,M,M,M,M,M,M,M,M,M,-13.79,KOOA 261455Z AUTO 29009KT 10SM CLR M17/M21 A3042 RMK AO2 T11671210,M
OOA,2026-01-26 15:15,3.00,-4.70,69.56,280.00,9.00,0.00,30.42,M,10.00,M,CLR,M,M,M,M,M,M,M,M,M,M,M,M,M,M,-12.55,KOOA 261515Z AUTO 28009KT 10SM CLR M16/M20 A3042 RMK AO2 T11621204,M
OOA,2026-01-26 15:35,4.00,-3.60,70.02,280.00,11.00,0.00,30.42,M,10.00,M,CLR,M,M,M,M,M,M,M,M,M,M,M,M,M,M,-12.92,KOOA 261535Z AUTO 28011KT 10SM CLR M15/M20 A3042 RMK AO2 T11551198,M
OOA,2026-01-26 15:55,5.00,-3.50,67.20,270.00,9.00,0.00,30.41,M,10.00,M,CLR,M,M,M,M,M,M,M,M,M,M,M,M,M,M,-10.06,KOOA 261555Z AUTO 27009KT 10SM CLR M15/M20 A3041 RMK AO2 T11491197,M
OOA,2026-01-26 16:15,6.00,-3.30,64.81,260.00,11.00,0.00,30.41,M,10.00,M,CLR,M,M,M,M,M,M,M,M,M,M,M,M,M,M,-10.39,KOOA 261615Z AUTO 26011KT 10SM CLR M14/M20 A3041 RMK AO2 T11441196,M
OOA,2026-01-26 16:35,7.30,-2.70,62.86,270.00,11.00,0.00,30.40,M,10.00,M,CLR,M,M,M,M,M,M,M,M,M,M,M,M,M,M,-8.75,KOOA 261635Z AUTO 27011KT 10SM CLR M14/M19 A3040 RMK AO2 T11371193,M
OOA,2026-01-26 16:55,8.60,-3.00,58.44,260.00,11.00,0.00,30.39,M,10.00,M,CLR,M,M,M,M,M,M,M,M,M,M,M,M,M,M,-7.10,KOOA 261655Z AUTO 26011KT 10SM CLR M13/M19 A3039 RMK AO2 T11301194,M
OOA,2026-01-26 17:15,10.80,-3.00,52.95,260.00,11.00,0.00,30.39,M,10.00,M,CLR,M,M,M,M,M,M,M,M,M,M,M,M,M,M,-4.32,KOOA 261715Z AUTO 26011KT 10SM CLR M12/M19 A3039 RMK AO2 T11181194,M
OOA,2026-01-26 17:35,11.50,-2.70,52.07,270.00,8.00,0.00,30.37,M,10.00,16.00,CLR,M,M,M,M,M,M,M,M,M,M,M,M,M,M,-1.14,KOOA 261735Z AUTO 27008G16KT 10SM CLR M11/M19 A3037 RMK AO2 T11141193,M
OOA,2026-01-26 17:55,12.70,-2.60,49.61,260.00,11.00,0.00,30.35,M,10.00,15.00,CLR,M,M,M,M,M,M,M,M,M,M,M,M,M,M,-1.92,KOOA 261755Z AUTO 26011G15KT 10SM CLR M11/M19 A3035 RMK AO2 T11071192 11107 21188,M
OOA,2026-01-26 18:15,14.00,-3.00,45.97,250.00,12.00,0.00,30.34,M,10.00,16.00,CLR,M,M,M,M,M,M,M,M,M,M,M,M,M,M,-0.91,KOOA 261815Z AUTO 25012G16KT 10SM CLR M10/M19 A3034 RMK AO2 T11011195,M
OOA,2026-01-26 18:35,14.70,-2.70,45.22,240.00,11.00,0.00,30.32,M,10.00,15.00,CLR,M,M,M,M,M,M,M,M,M,M,M,M,M,M,0.60,KOOA 261835Z AUTO 24011G15KT 10SM CLR M10/M19 A3032 RMK AO2 T10961193,M
OOA,2026-01-26 18:55,16.00,-2.00,44.17,230.00,9.00,0.00,30.30,M,10.00,M,CLR,M,M,M,M,M,M,M,M,M,M,M,M,M,M,3.62,KOOA 261855Z AUTO 23009KT 190V250 10SM CLR M09/M19 A3030 RMK AO2 T10891188,M
OOA,2026-01-26 19:15,16.70,-2.00,42.85,220.00,13.00,0.00,30.28,M,10.00,18.00,CLR,M,M,M,M,M,M,M,M,M,M,M,M,M,M,1.97,KOOA 261915Z AUTO 22013G18KT 10SM CLR M08/M19 A3028 RMK AO2 T10851188,M
OOA,2026-01-26 19:35,18.00,0.00,44.52,220.00,12.00,0.00,30.26,M,10.00,19.00,CLR,M,M,M,M,M,M,M,M,M,M,M,M,M,M,4.18,KOOA 261935Z AUTO 22012G19KT 10SM CLR M08/M18 A3026 RMK AO2 T10781178,M
OOA,2026-01-26 19:55,17.80,-0.40,44.07,230.00,15.00,0.00,30.25,M,10.00,M,CLR,M,M,M,M,M,M,M,M,M,M,M,M,M,M,2.37,KOOA 261955Z AUTO 23015KT 10SM CLR M08/M18 A3025 RMK AO2 T10791180,M
OOA,2026-01-26 20:15,18.50,0.70,45.02,220.00,16.00,0.00,30.24,M,10.00,20.00,CLR,M,M,M,M,M,M,M,M,M,M,M,M,M,M,2.82,KOOA 262015Z AUTO 22016G20KT 10SM CLR M07/M17 A3024 RMK AO2 T10751174,M
OOA,2026-01-26 20:35,18.50,1.20,46.09,210.00,17.00,0.00,30.23,M,10.00,M,CLR,M,M,M,M,M,M,M,M,M,M,M,M,M,M,2.39,KOOA 262035Z AUTO 21017KT 10SM CLR M07/M17 A3023 RMK AO2 T10751171,M
OOA,2026-01-26 20:55,18.30,1.00,46.05,220.00,16.00,0.00,30.22,M,10.00,21.00,CLR,M,M,M,M,M,M,M,M,M,M,M,M,M,M,2.56,KOOA 262055Z AUTO 22016G21KT 10SM CLR M08/M17 A3022 RMK AO2 T10761173,M
OOA,2026-01-26 21:15,18.50,2.00,47.84,210.00,17.00,0.00,30.20,M,10.00,20.00,CLR,M,M,M,M,M,M,M,M,M,M,M,M,M,M,2.39,KOOA 262115Z AUTO 21017G20KT 10SM CLR M07/M17 A3020 RMK AO2 T10751167,M
OOA,2026-01-26 21:35,18.50,1.60,46.96,210.00,19.00,0.00,30.19,M,10.00,22.00,CLR,M,M,M,M,M,M,M,M,M,M,M,M,M,M,1.58,KOOA 262135Z AUTO 21019G22KT 10SM CLR M07/M17 A3019 RMK AO2 T10751169,M
OOA,2026-01-26 21:55,18.70,2.30,48.09,210.00,16.00,0.00,30.18,M,10.00,21.00,CLR,M,M,M,M,M,M,M,M,M,M,M,M,M,M,3.08,KOOA 262155Z AUTO 21016G21KT 10SM CLR M07/M16 A3018 RMK AO2 T10741165,M
OOA,2026-01-26 22:15,18.00,2.00,48.88,220.00,16.00,0.00,30.17,M,10.00,M,CLR,M,M,M,M,M,M,M,M,M,M,M,M,M,M,2.17,KOOA 262215Z AUTO 22016KT 10SM CLR M08/M17 A3017 RMK AO2 T10771167,M
OOA,2026-01-26 22:35,17.40,1.80,49.69,220.00,15.00,0.00,30.16,M,10.00,18.00,CLR,M,M,M,M,M,M,M,M,M,M,M,M,M,M,1.85,KOOA 262235Z AUTO 22015G18KT 10SM CLR M08/M17 A3016 RMK AO2 T10811168,M
OOA,2026-01-26 22:55,16.00,1.80,52.80,210.00,17.00,0.00,30.15,M,10.00,20.00,CLR,M,M,M,M,M,M,M,M,M,M,M,M,M,M,-0.89,KOOA 262255Z AUTO 21017G20KT 10SM CLR M09/M17 A3015 RMK AO2 T10891168,M
OOA,2026-01-26 23:15,15.00,1.80,55.15,220.00,16.00,0.00,30.15,M,10.00,21.00,CLR,M,M,M,M,M,M,M,M,M,M,M,M,M,M,-1.74,KOOA 262315Z AUTO 22016G21KT 10SM CLR M09/M17 A3015 RMK AO2 T10941168,M
OOA,2026-01-26 23:35,15.00,2.00,55.67,220.00,20.00,0.00,30.14,M,10.00,25.00,CLR,M,M,M,M,M,M,M,M,M,M,M,M,M,M,-3.44,KOOA 262335Z AUTO 22020G25KT 10SM CLR M09/M17 A3014 RMK AO2 T10951166,M
OOA,2026-01-26 23:55,14.40,2.30,57.95,210.00,18.00,0.00,30.12,M,10.00,M,CLR,M,M,M,M,M,M,M,M,M,M,M,M,M,M,-3.42,KOOA 262355Z AUTO 21018KT 10SM CLR M10/M16 A3012 RMK AO2 T10981165 11072 21107,M
OOA,2026-01-27 00:15,14.40,2.30,57.95,220.00,16.00,0.00,30.12,M,10.00,23.00,CLR,M,M,M,M,M,M,M,M,M,M,M,M,M,M,-2.52,KOOA 270015Z AUTO 22016G23KT 10SM CLR M10/M16 A3012 RMK AO2 T10981165,M
OOA,2026-01-27 00:35,14.00,2.30,58.98,230.00,15.00,0.00,30.13,M,10.00,M,CLR,M,M,M,M,M,M,M,M,M,M,M,M,M,M,-2.56,KOOA 270035Z AUTO 23015KT 10SM CLR M10/M16 A3013 RMK AO2 T11011165,M
OOA,2026-01-27 00:55,13.60,2.30,60.02,240.00,11.00,0.00,30.15,M,10.00,14.00,CLR,M,M,M,M,M,M,M,M,M,M,M,M,M,M,-0.79,KOOA 270055Z AUTO 24011G14KT 10SM CLR M10/M16 A3015 RMK AO2 T11021165,M
OOA,2026-01-27 01:15,13.00,2.70,62.78,230.00,14.00,0.00,30.13,M,10.00,M,CLR,M,M,M,M,M,M,M,M,M,M,M,M,M,M,-3.33,KOOA 270115Z AUTO 23014KT 10SM CLR M10/M16 A3013 RMK AO2 T11051163,M
OOA,2026-01-27 01:35,13.00,3.00,63.66,230.00,16.00,0.00,30.11,M,10.00,M,CLR,M,M,M,M,M,M,M,M,M,M,M,M,M,M,-4.35,KOOA 270135Z AUTO 23016KT 10SM CLR M10/M16 A3011 RMK AO2 T11051161,M
OOA,2026-01-27 01:55,13.00,3.20,64.25,230.00,16.00,0.00,30.11,M,10.00,M,CLR,M,M,M,M,M,M,M,M,M,M,M,M,M,M,-4.35,KOOA 270155Z AUTO 23016KT 10SM CLR M10/M16 A3011 RMK AO2 T11051160,M
OOA,2026-01-27 02:15,13.60,3.70,64.04,230.00,15.00,0.00,30.10,M,10.00,M,CLR,M,M,M,M,M,M,M,M,M,M,M,M,M,M,-3.07,KOOA 270215Z AUTO 23015KT 10SM CLR M10/M16 A3010 RMK AO2 T11021157,M
OOA,2026-01-27 02:35,14.00,4.30,64.68,230.00,19.00,0.00,30.08,M,10.00,M,CLR,M,M,M,M,M,M,M,M,M,M,M,M,M,M,-4.37,KOOA 270235Z AUTO 23019KT 10SM CLR M10/M15 A3008 RMK AO2 T11001154,M
OOA,2026-01-27 02:55,14.00,5.00,66.79,230.00,18.00,0.00,30.07,M,10.00,M,CLR,M,M,M,M,M,M,M,M,M,M,M,M,M,M,-3.95,KOOA 270255Z AUTO 23018KT 10SM CLR M10/M15 A3007 RMK AO2 T10991150,M
OOA,2026-01-27 03:15,14.70,5.70,66.89,230.00,16.00,0.00,30.07,M,10.00,M,CLR,M,M,M,M,M,M,M,M,M,M,M,M,M,M,-2.13,KOOA 270315Z AUTO 23016KT 10SM CLR M10/M15 A3007 RMK AO2 T10961146,M
OOA,2026-01-27 03:35,15.00,6.80,69.40,240.00,15.00,0.00,30.07,M,10.00,18.00,CLR,M,M,M,M,M,M,M,M,M,M,M,M,M,M,-1.26,KOOA 270335Z AUTO 24015G18KT 10SM CLR M09/M14 A3007 RMK AO2 T10951140,M
OOA,2026-01-27 03:55,16.70,8.40,69.30,240.00,14.00,0.00,30.06,M,10.00,20.00,CLR,M,M,M,M,M,M,M,M,M,M,M,M,M,M,1.44,KOOA 270355Z AUTO 24014G20KT 10SM CLR M08/M13 A3006 RMK AO2 T10851131,M
OOA,2026-01-27 04:15,18.30,9.50,67.95,240.00,19.00,0.00,30.05,M,10.00,25.00,CLR,M,M,M,M,M,M,M,M,M,M,M,M,M,M,1.32,KOOA 270415Z AUTO 24019G25KT 10SM CLR M08/M12 A3005 RMK AO2 T10761125,M
OOA,2026-01-27 04:35,18.50,10.20,69.51,240.00,21.00,0.00,30.04,M,10.00,24.00,CLR,M,M,M,M,M,M,M,M,M,M,M,M,M,M,0.85,KOOA 270435Z AUTO 24021G24KT 10SM CLR M07/M12 A3004 RMK AO2 T10751121,M
OOA,2026-01-27 04:55,19.00,11.00,70.51,250.00,16.00,0.00,30.04,M,10.00,20.00,CLR,M,M,M,M,M,M,M,M,M,M,M,M,M,M,3.47,KOOA 270455Z AUTO 25016G20KT 10SM CLR M07/M12 A3004 RMK AO2 T10731117,M
OOA,2026-01-27 05:15,19.40,11.30,70.24,250.00,18.00,0.00,30.04,M,10.00,21.00,CLR,M,M,M,M,M,M,M,M,M,M,M,M,M,M,3.16,KOOA 270515Z AUTO 25018G21KT 10SM CLR M07/M11 A3004 RMK AO2 T10701115,M
OOA,2026-01-27 05:35,19.00,11.30,71.46,250.00,17.00,0.00,30.05,M,10.00,M,CLR,M,M,M,M,M,M,M,M,M,M,M,M,M,M,3.04,KOOA 270535Z AUTO 25017KT 10SM CLR M07/M11 A3005 RMK AO2 T10721115,M
OOA,2026-01-27 05:55,18.50,11.30,73.01,260.00,16.00,0.00,30.05,M,10.00,M,CLR,M,M,M,M,M,M,M,M,M,M,M,M,M,M,2.82,KOOA 270555Z AUTO 26016KT 10SM CLR M07/M11 A3005 RMK AO2 T10751115 11070 21105 410701188,M
OOA,2026-01-27 06:15,18.30,11.70,74.96,250.00,15.00,0.00,30.06,M,10.00,M,CLR,M,M,M,M,M,M,M,M,M,M,M,M,M,M,3.02,KOOA 270615Z AUTO 25015KT 10SM CLR M08/M11 A3006 RMK AO2 T10761113,M
OOA,2026-01-27 06:35,18.30,12.00,75.96,250.00,16.00,0.00,30.04,M,10.00,19.00,CLR,M,M,M,M,M,M,M,M,M,M,M,M,M,M,2.56,KOOA 270635Z AUTO 25016G19KT 10SM CLR M08/M11 A3004 RMK AO2 T10761112,M
OOA,2026-01-27 06:55,18.30,12.20,76.63,260.00,15.00,0.00,30.04,M,10.00,M,CLR,M,M,M,M,M,M,M,M,M,M,M,M,M,M,3.02,KOOA 270655Z AUTO 26015KT 10SM CLR M08/M11 A3004 RMK AO2 T10761110,M
OOA,2026-01-27 07:15,18.30,12.20,76.63,260.00,14.00,0.00,30.04,M,10.00,M,CLR,M,M,M,M,M,M,M,M,M,M,M,M,M,M,3.50,KOOA 270715Z AUTO 26014KT 10SM CLR M08/M11 A3004 RMK AO2 T10761110,M
OOA,2026-01-27 07:35,17.80,12.20,78.30,250.00,14.00,0.00,30.04,M,10.00,M,CLR,M,M,M,M,M,M,M,M,M,M,M,M,M,M,2.86,KOOA 270735Z AUTO 25014KT 10SM CLR M08/M11 A3004 RMK AO2 T10791110,M
OOA,2026-01-27 07:55,18.00,12.60,79.02,260.00,13.00,0.00,30.05,M,10.00,M,CLR,M,M,M,M,M,M,M,M,M,M,M,M,M,M,3.63,KOOA 270755Z AUTO 26013KT 10SM CLR M08/M11 A3005 RMK AO2 T10771108,M
OOA,2026-01-27 08:15,17.60,12.60,80.39,250.00,12.00,0.00,30.06,M,10.00,M,CLR,M,M,M,M,M,M,M,M,M,M,M,M,M,M,3.67,KOOA 270815Z AUTO 25012KT 10SM CLR M08/M11 A3006 RMK AO2 T10801108,M
OOA,2026-01-27 08:35,17.00,12.20,81.05,260.00,9.00,0.00,30.07,M,10.00,M,CLR,M,M,M,M,M,M,M,M,M,M,M,M,M,M,4.86,KOOA 270835Z AUTO 26009KT 10SM CLR M08/M11 A3007 RMK AO2 T10831110,M
OOA,2026-01-27 08:55,16.50,12.20,82.83,270.00,11.00,0.00,30.08,M,10.00,M,CLR,M,M,M,M,M,M,M,M,M,M,M,M,M,M,2.88,KOOA 270855Z AUTO 27011KT 10SM CLR M09/M11 A3008 RMK AO2 T10861110,M
OOA,2026-01-27 09:15,16.70,12.60,83.58,260.00,10.00,0.00,30.08,M,10.00,M,CLR,M,M,M,M,M,M,M,M,M,M,M,M,M,M,3.78,KOOA 270915Z AUTO 26010KT 10SM CLR M08/M11 A3008 RMK AO2 T10851108,M
OOA,2026-01-27 09:35,16.50,12.40,83.57,260.00,10.00,0.00,30.08,M,10.00,M,CLR,M,M,M,M,M,M,M,M,M,M,M,M,M,M,3.53,KOOA 270935Z AUTO 26010KT 10SM CLR M09/M11 A3008 RMK AO2 T10861109,M
OOA,2026-01-27 09:55,16.00,12.20,84.65,270.00,9.00,0.00,30.08,M,10.00,M,CLR,M,M,M,M,M,M,M,M,M,M,M,M,M,M,3.62,KOOA 270955Z AUTO 27009KT 10SM CLR M09/M11 A3008 RMK AO2 T10881110,M
OOA,2026-01-27 10:15,15.80,12.00,84.63,270.00,9.00,0.00,30.08,M,10.00,M,CLR,M,M,M,M,M,M,M,M,M,M,M,M,M,M,3.37,KOOA 271015Z AUTO 27009KT 10SM CLR M09/M11 A3008 RMK AO2 T10901112,M
OOA,2026-01-27 10:35,14.70,11.00,84.94,280.00,8.00,0.00,30.10,M,10.00,M,CLR,M,M,M,M,M,M,M,M,M,M,M,M,M,M,2.80,KOOA 271035Z AUTO 28008KT 10SM CLR M10/M12 A3010 RMK AO2 T10961117,M
OOA,2026-01-27 10:55,15.00,11.30,84.96,280.00,9.00,0.00,30.11,M,10.00,M,CLR,M,M,M,M,M,M,M,M,M,M,M,M,M,M,2.38,KOOA 271055Z AUTO 28009KT 10SM CLR M09/M11 A3011 RMK AO2 T10951115,M
OOA,2026-01-27 11:15,13.50,9.50,83.72,290.00,8.00,0.00,30.12,M,10.00,M,CLR,M,M,M,M,M,M,M,M,M,M,M,M,M,M,1.32,KOOA 271115Z AUTO 29008KT 10SM CLR M10/M12 A3012 RMK AO2 T11031125,M
OOA,2026-01-27 11:35,12.20,8.40,84.39,280.00,9.00,0.00,30.14,M,10.00,M,CLR,M,M,M,M,M,M,M,M,M,M,M,M,M,M,-1.11,KOOA 271135Z AUTO 28009KT 10SM CLR M11/M13 A3014 RMK AO2 T11101131,M
OOA,2026-01-27 11:55,12.00,7.70,82.49,280.00,9.00,0.00,30.15,M,10.00,M,CLR,M,M,M,M,M,M,M,M,M,M,M,M,M,M,-1.35,KOOA 271155Z AUTO 28009KT 10SM CLR M11/M13 A3015 RMK AO2 T11121135 11073 21112,M
OOA,2026-01-27 12:15,14.00,9.00,80.09,300.00,9.00,0.00,30.17,M,10.00,M,CLR,M,M,M,M,M,M,M,M,M,M,M,M,M,M,1.13,KOOA 271215Z AUTO 30009KT 10SM CLR M10/M13 A3017 RMK AO2 T10991127,M
OOA,2026-01-27 12:35,15.30,9.30,76.69,310.00,10.00,0.00,30.18,M,10.00,M,CLR,M,M,M,M,M,M,M,M,M,M,M,M,M,M,2.03,KOOA 271235Z AUTO 31010KT 10SM CLR M09/M13 A3018 RMK AO2 T10931126,M
OOA,2026-01-27 12:55,16.70,9.30,72.16,330.00,12.00,0.00,30.19,M,10.00,M,CLR,M,M,M,M,M,M,M,M,M,M,M,M,M,M,2.53,KOOA 271255Z AUTO 33012KT 10SM CLR M08/M13 A3019 RMK AO2 T10851126,M
OOA,2026-01-27 13:15,14.40,8.20,75.91,320.00,7.00,0.00,30.20,M,10.00,M,CLR,M,M,M,M,M,M,M,M,M,M,M,M,M,M,3.33,KOOA 271315Z AUTO 32007KT 10SM CLR M10/M13 A3020 RMK AO2 T10981132,M
OOA,2026-01-27 13:35,13.60,8.40,79.34,320.00,7.00,0.00,30.21,M,10.00,M,CLR,M,M,M,M,M,M,M,M,M,M,M,M,M,M,2.35,KOOA 271335Z AUTO 32007KT 10SM CLR M10/M13 A3021 RMK AO2 T11021131,M
OOA,2026-01-27 13:55,15.80,9.50,75.71,330.00,9.00,0.00,30.23,M,10.00,M,CLR,M,M,M,M,M,M,M,M,M,M,M,M,M,M,3.37,KOOA 271355Z AUTO 33009KT 10SM CLR M09/M12 A3023 RMK AO2 T10901125,M
OOA,2026-01-27 14:15,16.00,10.20,77.44,330.00,12.00,0.00,30.25,M,10.00,15.00,CLR,M,M,M,M,M,M,M,M,M,M,M,M,M,M,1.64,KOOA 271415Z AUTO 33012G15KT 10SM CLR M09/M12 A3025 RMK AO2 T10881121,M
OOA,2026-01-27 14:35,16.50,8.40,69.90,320.00,18.00,0.00,30.26,M,10.00,21.00,CLR,M,M,M,M,M,M,M,M,M,M,M,M,M,M,-0.66,KOOA 271435Z AUTO 32018G21KT 10SM CLR M09/M13 A3026 RMK AO2 T10861131,M
OOA,2026-01-27 14:55,17.00,8.20,67.79,330.00,18.00,0.00,30.27,M,10.00,M,CLR,M,M,M,M,M,M,M,M,M,M,M,M,M,M,0.00,KOOA 271455Z AUTO 33018KT 10SM CLR M08/M13 A3027 RMK AO2 T10841132,M
OOA,2026-01-27 15:15,17.40,7.70,65.14,320.00,17.00,0.00,30.28,M,10.00,M,CLR,M,M,M,M,M,M,M,M,M,M,M,M,M,M,0.95,KOOA 271515Z AUTO 32017KT 10SM CLR M08/M13 A3028 RMK AO2 T10811135,M
OOA,2026-01-27 15:35,17.20,6.40,61.94,330.00,18.00,0.00,30.29,M,10.00,26.00,CLR,M,M,M,M,M,M,M,M,M,M,M,M,M,M,0.27,KOOA 271535Z AUTO 33018G26KT 10SM CLR M08/M14 A3029 RMK AO2 T10821142,M
OOA,2026-01-27 15:55,17.20,5.50,59.45,330.00,18.00,0.00,30.30,M,10.00,25.00,CLR,M,M,M,M,M,M,M,M,M,M,M,M,M,M,0.27,KOOA 271555Z AUTO 33018G25KT 10SM CLR M08/M15 A3030 RMK AO2 T10821147,M
OOA,2026-01-27 16:15,18.00,5.50,57.43,340.00,18.00,0.00,30.31,M,10.00,22.00,CLR,M,M,M,M,M,M,M,M,M,M,M,M,M,M,1.32,KOOA 271615Z AUTO 34018G22KT 10SM CLR M08/M15 A3031 RMK AO2 T10781147,M
OOA,2026-01-27 16:35,18.30,5.00,55.41,320.00,16.00,0.00,30.31,M,10.00,23.00,CLR,M,M,M,M,M,M,M,M,M,M,M,M,M,M,2.56,KOOA 271635Z AUTO 32016G23KT 10SM CLR M08/M15 A3031 RMK AO2 T10761151,M
OOA,2026-01-27 16:55,19.40,6.30,56.09,310.00,20.00,0.00,30.32,M,10.00,26.00,CLR,M,M,M,M,M,M,M,M,M,M,M,M,M,M,2.40,KOOA 271655Z AUTO 31020G26KT 10SM CLR M07/M14 A3032 RMK AO2 T10701143,M
OOA,2026-01-27 17:15,19.00,3.70,50.66,310.00,15.00,0.00,30.33,M,10.00,M,CLR,M,M,M,M,M,M,M,M,M,M,M,M,M,M,3.93,KOOA 271715Z AUTO 31015KT 10SM CLR M07/M16 A3033 RMK AO2 T10731157,M
OOA,2026-01-27 17:35,20.00,3.70,48.53,320.00,22.00,0.00,30.33,M,10.00,26.00,CLR,M,M,M,M,M,M,M,M,M,M,M,M,M,M,2.51,KOOA 271735Z AUTO 32022G26KT 10SM CLR M07/M16 A3033 RMK AO2 T10671157,M
OOA,2026-01-27 17:55,20.50,3.40,46.86,320.00,18.00,0.00,30.33,M,10.00,24.00,CLR,M,M,M,M,M,M,M,M,M,M,M,M,M,M,4.61,KOOA 271755Z AUTO 32018G24KT 10SM CLR M06/M16 A3033 RMK AO2 T10641159 11064 21112,M
OOA,2026-01-27 18:15,20.50,2.00,43.92,320.00,17.00,0.00,30.32,M,10.00,25.00,CLR,M,M,M,M,M,M,M,M,M,M,M,M,M,M,5.01,KOOA 271815Z AUTO 32017G25KT 10SM CLR M06/M17 A3032 RMK AO2 T10641167,M
OOA,2026-01-27 18:35,21.00,2.00,42.99,310.00,17.00,0.00,30.33,M,10.00,25.00,CLR,M,M,M,M,M,M,M,M,M,M,M,M,M,M,5.66,KOOA 271835Z AUTO 31017G25KT 10SM CLR M06/M17 A3033 RMK AO2 T10611166,M
OOA,2026-01-27 18:55,20.50,1.00,41.92,330.00,18.00,0.00,30.32,M,10.00,25.00,CLR,M,M,M,M,M,M,M,M,M,M,M,M,M,M,4.61,KOOA 271855Z AUTO 33018G25KT 10SM CLR M06/M17 A3032 RMK AO2 T10641173,M
OOA,2026-01-27 19:15,21.60,2.00,41.91,320.00,19.00,0.00,30.33,M,10.00,26.00,CLR,M,M,M,M,M,M,M,M,M,M,M,M,M,M,5.68,KOOA 271915Z AUTO 32019G26KT 10SM CLR M06/M17 A3033 RMK AO2 T10581167,M
OOA,2026-01-27 19:35,22.30,0.50,37.94,310.00,20.00,0.00,30.33,M,10.00,25.00,CLR,M,M,M,M,M,M,M,M,M,M,M,M,M,M,6.26,KOOA 271935Z AUTO 31020G25KT 10SM CLR M05/M17 A3033 RMK AO2 T10541175,M
OOA,2026-01-27 19:55,23.00,1.40,38.42,320.00,18.00,0.00,30.33,M,10.00,26.00,CLR,M,M,M,M,M,M,M,M,M,M,M,M,M,M,7.90,KOOA 271955Z AUTO 32018G26KT 10SM CLR M05/M17 A3033 RMK AO2 T10501170,M
OOA,2026-01-27 20:15,23.00,1.60,38.78,310.00,14.00,0.00,30.33,M,10.00,22.00,CLR,M,M,M,M,M,M,M,M,M,M,M,M,M,M,9.56,KOOA 272015Z AUTO 31014G22KT 10SM CLR M05/M17 A3033 RMK AO2 T10501169,M
OOA,2026-01-27 20:35,23.00,1.00,37.71,320.00,13.00,0.00,30.33,M,10.00,19.00,CLR,M,M,M,M,M,M,M,M,M,M,M,M,M,M,10.04,KOOA 272035Z AUTO 32013G19KT 10SM CLR M05/M17 A3033 RMK AO2 T10501173,M
OOA,2026-01-27 20:55,23.50,1.60,37.97,320.00,17.00,0.00,30.33,M,10.00,23.00,CLR,M,M,M,M,M,M,M,M,M,M,M,M,M,M,8.94,KOOA 272055Z AUTO 32017G23KT 10SM CLR M05/M17 A3033 RMK AO2 T10471169,M
OOA,2026-01-27 21:15,22.00,-0.20,37.18,320.00,14.00,0.00,30.35,M,10.00,21.00,CLR,M,M,M,M,M,M,M,M,M,M,M,M,M,M,8.27,KOOA 272115Z AUTO 32014G21KT 10SM CLR M05/M18 A3035 RMK AO2 T10551179,M
OOA,2026-01-27 21:35,22.00,-0.60,36.49,310.00,14.00,0.00,30.35,M,10.00,18.00,CLR,M,M,M,M,M,M,M,M,M,M,M,M,M,M,8.27,KOOA 272135Z AUTO 31014G18KT 10SM CLR M05/M18 A3035 RMK AO2 T10551181,M
OOA,2026-01-27 21:55,22.00,-0.80,36.15,330.00,15.00,0.00,30.35,M,10.00,21.00,CLR,M,M,M,M,M,M,M,M,M,M,M,M,M,M,7.82,KOOA 272155Z AUTO 33015G21KT 10SM CLR M05/M18 A3035 RMK AO2 T10551182,M
OOA,2026-01-27 22:15,21.70,-1.00,36.27,330.00,16.00,0.00,30.36,M,10.00,M,CLR,M,M,M,M,M,M,M,M,M,M,M,M,M,M,6.99,KOOA 272215Z AUTO 33016KT 10SM CLR M06/M18 A3036 RMK AO2 T10571183,M
OOA,2026-01-27 22:35,21.00,-1.00,37.36,330.00,12.00,0.00,30.36,M,10.00,18.00,CLR,M,M,M,M,M,M,M,M,M,M,M,M,M,M,8.00,KOOA 272235Z AUTO 33012G18KT 10SM CLR M06/M18 A3036 RMK AO2 T10611184,M
OOA,2026-01-27 22:55,20.30,-0.40,39.59,330.00,10.00,0.00,30.36,M,10.00,M,CLR,M,M,M,M,M,M,M,M,M,M,M,M,M,M,8.30,KOOA 272255Z AUTO 33010KT 10SM CLR M06/M18 A3036 RMK AO2 T10651180,M
OOA,2026-01-27 23:15,19.00,-0.20,42.25,320.00,8.00,0.00,30.36,M,10.00,M,CLR,M,M,M,M,M,M,M,M,M,M,M,M,M,M,8.10,KOOA 272315Z AUTO 32008KT 10SM CLR M07/M18 A3036 RMK AO2 T10721179,M
OOA,2026-01-27 23:35,18.30,-0.40,43.13,320.00,8.00,0.00,30.37,M,10.00,M,CLR,M,M,M,M,M,M,M,M,M,M,M,M,M,M,7.24,KOOA 272335Z AUTO 32008KT 10SM CLR M08/M18 A3037 RMK AO2 T10761180,M
OOA,2026-01-27 23:55,15.80,-0.60,47.60,330.00,6.00,0.00,30.38,M,10.00,M,CLR,M,M,M,M,M,M,M,M,M,M,M,M,M,M,6.02,KOOA 272355Z AUTO 33006KT 10SM CLR M09/M18 A3038 RMK AO2 T10901181 11047 21090,M
OOA,2026-01-28 00:15,14.00,-1.30,49.83,340.00,4.00,0.00,30.38,M,10.00,M,CLR,M,M,M,M,M,M,M,M,M,M,M,M,M,M,6.40,KOOA 280015Z AUTO 34004KT 10SM CLR M10/M18 A3038 RMK AO2 T10991185,M
OOA,2026-01-28 00:35,13.60,-1.50,50.23,340.00,6.00,0.00,30.38,M,10.00,M,CLR,M,M,M,M,M,M,M,M,M,M,M,M,M,M,3.37,KOOA 280035Z AUTO 34006KT 10SM CLR M10/M19 A3038 RMK AO2 T11021186,M
OOA,2026-01-28 00:55,12.00,-2.20,52.15,340.00,6.00,0.00,30.38,M,10.00,M,CLR,M,M,M,M,M,M,M,M,M,M,M,M,M,M,1.44,KOOA 280055Z AUTO 34006KT 10SM CLR M11/M19 A3038 RMK AO2 T11111190,M
OOA,2026-01-28 01:15,12.00,-1.50,53.91,330.00,3.00,0.00,30.39,M,7.00,M,CLR,M,M,M,M,M,M,M,M,M,M,M,M,M,M,5.82,KOOA 280115Z AUTO 33003KT 7SM CLR M11/M19 A3039 RMK AO2 T11121186,M
OOA,2026-01-28 01:35,11.30,-2.20,53.80,330.00,3.00,0.00,30.38,M,10.00,M,CLR,M,M,M,M,M,M,M,M,M,M,M,M,M,M,5.02,KOOA 280135Z AUTO 33003KT 10SM CLR M11/M19 A3038 RMK AO2 T11151190,M
OOA,2026-01-28 01:55,11.30,-2.20,53.80,0.00,0.00,0.00,30.39,M,10.00,M,CLR,M,M,M,M,M,M,M,M,M,M,M,M,M,M,11.30,KOOA 280155Z AUTO 00000KT 10SM CLR M11/M19 A3039 RMK AO2 T11151190,M
OOA,2026-01-28 02:15,10.60,-2.40,54.98,320.00,3.00,0.00,30.39,M,10.00,M,CLR,M,M,M,M,M,M,M,M,M,M,M,M,M,M,4.22,KOOA 280215Z AUTO 32003KT 10SM CLR M12/M19 A3039 RMK AO2 T11191191,M
OOA,2026-01-28 02:35,9.00,-2.60,58.50,320.00,3.00,0.00,30.39,M,10.00,M,CLR,M,M,M,M,M,M,M,M,M,M,M,M,M,M,2.40,KOOA 280235Z AUTO 32003KT 10SM CLR M13/M19 A3039 RMK AO2 T11271192,M
OOA,2026-01-28 02:55,9.50,-2.40,57.75,310.00,5.00,0.00,30.38,M,10.00,M,CLR,M,M,M,M,M,M,M,M,M,M,M,M,M,M,-0.33,KOOA 280255Z AUTO 31005KT 10SM CLR M12/M19 A3038 RMK AO2 T11251191,M
OOA,2026-01-28 03:15,9.00,-2.60,58.50,290.00,3.00,0.00,30.38,M,10.00,M,CLR,M,M,M,M,M,M,M,M,M,M,M,M,M,M,2.40,KOOA 280315Z AUTO 29003KT 10SM CLR M13/M19 A3038 RMK AO2 T11271192,M
OOA,2026-01-28 03:35,8.40,-2.40,60.67,300.00,5.00,0.00,30.38,M,10.00,M,CLR,M,M,M,M,M,M,M,M,M,M,M,M,M,M,-1.63,KOOA 280335Z AUTO 30005KT 10SM CLR M13/M19 A3038 RMK AO2 T11311191,M
OOA,2026-01-28 03:55,8.20,-2.20,61.81,290.00,5.00,0.00,30.38,M,10.00,M,CLR,M,M,M,M,M,M,M,M,M,M,M,M,M,M,-1.87,KOOA 280355Z AUTO 29005KT 10SM CLR M13/M19 A3038 RMK AO2 T11321190,M
OOA,2026-01-28 04:15,7.00,-3.00,62.82,290.00,5.00,0.00,30.38,M,10.00,M,CLR,M,M,M,M,M,M,M,M,M,M,M,M,M,M,-3.29,KOOA 280415Z AUTO 29005KT 10SM CLR M14/M19 A3038 RMK AO2 T11381194,M
OOA,2026-01-28 04:35,6.40,-3.00,64.56,280.00,5.00,0.00,30.36,M,10.00,M,CLR,M,M,M,M,M,M,M,M,M,M,M,M,M,M,-4.01,KOOA 280435Z AUTO 28005KT 10SM CLR M14/M19 A3036 RMK AO2 T11421194,M
OOA,2026-01-28 04:55,6.40,-3.00,64.56,260.00,5.00,0.00,30.36,M,10.00,M,CLR,M,M,M,M,M,M,M,M,M,M,M,M,M,M,-4.01,KOOA 280455Z AUTO 26005KT 10SM CLR M14/M19 A3036 RMK AO2 T11421194,M
OOA,2026-01-28 05:15,5.00,-4.00,65.61,250.00,5.00,0.00,30.36,M,10.00,M,CLR,M,M,M,M,M,M,M,M,M,M,M,M,M,M,-5.67,KOOA 280515Z AUTO 25005KT 10SM CLR M15/M20 A3036 RMK AO2 T11501199,M
OOA,2026-01-28 05:35,6.60,-2.60,65.20,250.00,5.00,0.00,30.36,M,10.00,M,CLR,M,M,M,M,M,M,M,M,M,M,M,M,M,M,-3.77,KOOA 280535Z AUTO 25005KT 10SM CLR M14/M19 A3036 RMK AO2 T11411192,M
OOA,2026-01-28 05:55,5.70,-3.00,66.65,230.00,6.00,0.00,30.35,M,10.00,M,CLR,M,M,M,M,M,M,M,M,M,M,M,M,M,M,-6.14,KOOA 280555Z AUTO 23006KT 10SM CLR M15/M19 A3035 RMK AO2 T11461195 11091 21150 410471150,M
OOA,2026-01-28 06:15,5.40,-3.00,67.57,230.00,6.00,0.00,30.34,M,10.00,M,CLR,M,M,M,M,M,M,M,M,M,M,M,M,M,M,-6.51,KOOA 280615Z AUTO 23006KT 10SM CLR M15/M19 A3034 RMK AO2 T11481194,M
OOA,2026-01-28 06:35,5.00,-2.40,70.81,250.00,5.00,0.00,30.34,M,10.00,M,CLR,M,M,M,M,M,M,M,M,M,M,M,M,M,M,-5.67,KOOA 280635Z AUTO 25005KT 10SM CLR M15/M19 A3034 RMK AO2 T11501191,M
OOA,2026-01-28 06:55,6.60,-1.70,68.05,250.00,4.00,0.00,30.34,M,10.00,M,CLR,M,M,M,M,M,M,M,M,M,M,M,M,M,M,-2.24,KOOA 280655Z AUTO 25004KT 10SM CLR M14/M19 A3034 RMK AO2 T11411187,M
OOA,2026-01-28 07:15,5.50,-2.40,69.21,260.00,5.00,0.00,30.34,M,10.00,M,CLR,M,M,M,M,M,M,M,M,M,M,M,M,M,M,-5.08,KOOA 280715Z AUTO 26005KT 10SM CLR M15/M19 A3034 RMK AO2 T11471191,M
OOA,2026-01-28 07:35,4.50,-3.00,70.42,270.00,6.00,0.00,30.34,M,10.00,M,CLR,M,M,M,M,M,M,M,M,M,M,M,M,M,M,-7.59,KOOA 280735Z AUTO 27006KT 10SM CLR M15/M19 A3034 RMK AO2 T11531195,M
OOA,2026-01-28 07:55,4.60,-3.00,70.09,280.00,6.00,0.00,30.35,M,10.00,M,CLR,M,M,M,M,M,M,M,M,M,M,M,M,M,M,-7.47,KOOA 280755Z AUTO 28006KT 10SM CLR M15/M19 A3035 RMK AO2 T11521194,M
OOA,2026-01-28 08:15,5.00,-2.40,70.81,270.00,6.00,0.00,30.34,M,10.00,M,CLR,M,M,M,M,M,M,M,M,M,M,M,M,M,M,-6.99,KOOA 280815Z AUTO 27006KT 10SM CLR M15/M19 A3034 RMK AO2 T11511191,M
OOA,2026-01-28 08:35,5.00,-2.60,70.14,280.00,8.00,0.00,30.34,M,10.00,M,CLR,M,M,M,M,M,M,M,M,M,M,M,M,M,M,-9.15,KOOA 280835Z AUTO 28008KT 10SM CLR M15/M19 A3034 RMK AO2 T11511192,M
OOA,2026-01-28 08:55,5.70,-1.70,70.89,280.00,7.00,0.00,30.34,M,10.00,M,CLR,M,M,M,M,M,M,M,M,M,M,M,M,M,M,-7.28,KOOA 280855Z AUTO 28007KT 10SM CLR M15/M19 A3034 RMK AO2 T11461187,M
OOA,2026-01-28 09:15,5.70,-1.70,70.89,280.00,6.00,0.00,30.33,M,10.00,M,CLR,M,M,M,M,M,M,M,M,M,M,M,M,M,M,-6.14,KOOA 280915Z AUTO 28006KT 10SM CLR M15/M19 A3033 RMK AO2 T11461187,M
OOA,2026-01-28 09:35,5.00,-2.00,72.17,280.00,7.00,0.00,30.32,M,10.00,M,CLR,M,M,M,M,M,M,M,M,M,M,M,M,M,M,-8.13,KOOA 280935Z AUTO 28007KT 10SM CLR M15/M19 A3032 RMK AO2 T11491188,M
OOA,2026-01-28 09:55,6.00,-1.30,71.26,280.00,8.00,0.00,30.32,M,10.00,M,CLR,M,M,M,M,M,M,M,M,M,M,M,M,M,M,-7.91,KOOA 280955Z AUTO 28008KT 10SM CLR M14/M18 A3032 RMK AO2 T11451185,M
OOA,2026-01-28 10:15,6.30,-0.80,71.98,280.00,8.00,0.00,30.32,M,10.00,M,CLR,M,M,M,M,M,M,M,M,M,M,M,M,M,M,-7.54,KOOA 281015Z AUTO 28008KT 10SM CLR M14/M18 A3032 RMK AO2 T11431182,M
OOA,2026-01-28 10:35,6.60,-0.60,71.67,280.00,6.00,0.00,30.32,M,10.00,M,CLR,M,M,M,M,M,M,M,M,M,M,M,M,M,M,-5.06,KOOA 281035Z AUTO 28006KT 10SM CLR M14/M18 A3032 RMK AO2 T11411181,M
OOA,2026-01-28 10:55,6.60,-0.20,73.03,290.00,5.00,0.00,30.32,M,10.00,M,CLR,M,M,M,M,M,M,M,M,M,M,M,M,M,M,-3.77,KOOA 281055Z AUTO 29005KT 10SM CLR M14/M18 A3032 RMK AO2 T11411179,M
OOA,2026-01-28 11:15,6.60,-0.60,71.67,270.00,6.00,0.00,30.32,M,10.00,M,CLR,M,M,M,M,M,M,M,M,M,M,M,M,M,M,-5.06,KOOA 281115Z AUTO 27006KT 10SM CLR M14/M18 A3032 RMK AO2 T11411181,M
OOA,2026-01-28 11:35,6.00,-0.80,72.97,260.00,4.00,0.00,30.31,M,10.00,M,CLR,M,M,M,M,M,M,M,M,M,M,M,M,M,M,-2.94,KOOA 281135Z AUTO 26004KT 10SM CLR M14/M18 A3031 RMK AO2 T11451182,M
OOA,2026-01-28 11:55,6.00,-0.40,74.35,260.00,5.00,0.00,30.30,M,10.00,M,CLR,M,M,M,M,M,M,M,M,M,M,M,M,M,M,-4.48,KOOA 281155Z AUTO 26005KT 10SM CLR M14/M18 A3030 RMK AO2 T11451180 11139 21155,M
OOA,2026-01-28 12:15,6.80,0.00,73.05,260.00,4.00,0.00,30.30,M,10.00,M,CLR,M,M,M,M,M,M,M,M,M,M,M,M,M,M,-2.01,KOOA 281215Z AUTO 26004KT 10SM CLR M14/M18 A3030 RMK AO2 T11401178,M
OOA,2026-01-28 12:35,6.60,-0.20,73.03,260.00,6.00,0.00,30.30,M,10.00,M,CLR,M,M,M,M,M,M,M,M,M,M,M,M,M,M,-5.06,KOOA 281235Z AUTO 26006KT 10SM CLR M14/M18 A3030 RMK AO2 T11411179,M
OOA,2026-01-28 12:55,7.70,0.50,71.80,260.00,5.00,0.00,30.30,M,10.00,M,CLR,M,M,M,M,M,M,M,M,M,M,M,M,M,M,-2.46,KOOA 281255Z AUTO 26005KT 10SM CLR M13/M17 A3030 RMK AO2 T11351175,M
OOA,2026-01-28 13:15,8.60,1.60,72.57,270.00,6.00,0.00,30.30,M,10.00,M,CLR,M,M,M,M,M,M,M,M,M,M,M,M,M,M,-2.65,KOOA 281315Z AUTO 27006KT 10SM CLR M13/M17 A3030 RMK AO2 T11301169,M
OOA,2026-01-28 13:35,11.00,3.70,71.84,270.00,6.00,0.00,30.30,M,10.00,M,CLR,M,M,M,M,M,M,M,M,M,M,M,M,M,M,0.24,KOOA 281335Z AUTO 27006KT 10SM CLR M12/M16 A3030 RMK AO2 T11171157,M
OOA,2026-01-28 13:55,12.00,4.30,70.65,280.00,5.00,0.00,30.30,M,10.00,M,CLR,M,M,M,M,M,M,M,M,M,M,M,M,M,M,2.64,KOOA 281355Z AUTO 28005KT 10SM CLR M11/M15 A3030 RMK AO2 T11121154,M
OOA,2026-01-28 14:15,13.00,5.40,71.09,280.00,5.00,0.00,30.30,M,10.00,M,CLR,M,M,M,M,M,M,M,M,M,M,M,M,M,M,3.83,KOOA 281415Z AUTO 28005KT 10SM CLR M11/M15 A3030 RMK AO2 T11061148,M
OOA,2026-01-28 14:35,17.40,6.80,62.53,310.00,6.00,0.00,30.30,M,10.00,M,CLR,M,M,M,M,M,M,M,M,M,M,M,M,M,M,7.95,KOOA 281435Z AUTO 31006KT 10SM CLR M08/M14 A3030 RMK AO2 T10811140,M
OOA,2026-01-28 14:55,18.50,6.00,57.51,310.00,7.00,0.00,30.30,M,10.00,M,CLR,M,M,M,M,M,M,M,M,M,M,M,M,M,M,8.32,KOOA 281455Z AUTO 31007KT 10SM CLR M07/M14 A3030 RMK AO2 T10751145,M
OOA,2026-01-28 15:15,19.60,4.60,51.46,310.00,9.00,0.00,30.30,M,10.00,M,CLR,M,M,M,M,M,M,M,M,M,M,M,M,M,M,8.10,KOOA 281515Z AUTO 31009KT 10SM CLR M07/M15 A3030 RMK AO2 T10691152,M
OOA,2026-01-28 15:35,21.00,4.60,48.48,320.00,9.00,0.00,30.30,M,10.00,M,CLR,M,M,M,M,M,M,M,M,M,M,M,M,M,M,9.84,KOOA 281535Z AUTO 32009KT 10SM CLR M06/M15 A3030 RMK AO2 T10611152,M
OOA,2026-01-28 15:55,22.60,5.50,47.21,310.00,8.00,0.00,30.30,M,10.00,M,CLR,M,M,M,M,M,M,M,M,M,M,M,M,M,M,12.53,KOOA 281555Z AUTO 31008KT 10SM CLR M05/M15 A3030 RMK AO2 T10521147,M
OOA,2026-01-28 16:15,23.00,4.30,43.94,310.00,12.00,0.00,30.31,M,10.00,15.00,SCT,M,M,M,8000.00,M,M,M,M,M,M,M,M,M,M,10.55,KOOA 281615Z AUTO 31012G15KT 10SM SCT080 M05/M15 A3031 RMK AO2 T10501154,M
OOA,2026-01-28 16:35,23.00,4.00,43.34,310.00,11.00,0.00,30.31,M,10.00,M,SCT,M,M,M,8000.00,M,M,M,M,M,M,M,M,M,M,11.09,KOOA 281635Z AUTO 31011KT 10SM SCT080 M05/M15 A3031 RMK AO2 T10501155,M
OOA,2026-01-28 16:55,23.00,4.60,44.55,310.00,9.00,0.00,30.31,M,10.00,M,SCT,M,M,M,7000.00,M,M,M,M,M,M,M,M,M,M,12.32,KOOA 281655Z AUTO 31009KT 10SM SCT070 M05/M15 A3031 RMK AO2 T10491152,M
OOA,2026-01-28 17:15,23.70,4.00,42.08,320.00,9.00,0.00,30.30,M,10.00,M,SCT,M,M,M,7000.00,M,M,M,M,M,M,M,M,M,M,13.19,KOOA 281715Z AUTO 32009KT 10SM SCT070 M05/M15 A3030 RMK AO2 T10461155,M
OOA,2026-01-28 17:35,24.60,4.30,41.09,300.00,11.00,0.00,30.30,M,10.00,M,SCT,M,M,M,7000.00,M,M,M,M,M,M,M,M,M,M,13.11,KOOA 281735Z AUTO 30011KT 10SM SCT070 M04/M15 A3030 RMK AO2 T10411154,M
OOA,2026-01-28 17:55,24.80,3.20,38.73,310.00,13.00,0.00,30.29,M,10.00,M,SCT,SCT,M,M,7000.00,8000.00,M,M,M,M,M,M,M,M,M,12.34,KOOA 281755Z AUTO 31013KT 10SM SCT070 SCT080 M04/M16 A3029 RMK AO2 T10401160 11040 21145,M
OOA,2026-01-28 18:15,25.70,3.70,38.18,300.00,13.00,0.00,30.28,M,10.00,16.00,SCT,SCT,M,M,7000.00,8000.00,M,M,M,M,M,M,M,M,M,13.50,KOOA 281815Z AUTO 30013G16KT 10SM SCT070 SCT080 M03/M16 A3028 RMK AO2 T10351157,M
OOA,2026-01-28 18:35,26.00,3.60,37.54,300.00,12.00,0.00,30.27,M,10.00,M,CLR,M,M,M,M,M,M,M,M,M,M,M,M,M,M,14.37,KOOA 281835Z AUTO 30012KT 10SM CLR M03/M16 A3027 RMK AO2 T10341158,M
OOA,2026-01-28 18:55,26.00,1.00,33.27,310.00,13.00,0.00,30.26,M,10.00,18.00,CLR,M,M,M,M,M,M,M,M,M,M,M,M,M,M,13.88,KOOA 281855Z AUTO 31013G18KT 10SM CLR M03/M17 A3026 RMK AO2 T10331172,M
OOA,2026-01-28 19:15,26.60,1.60,33.37,310.00,11.00,0.00,30.25,M,10.00,17.00,CLR,M,M,M,M,M,M,M,M,M,M,M,M,M,M,15.64,KOOA 281915Z AUTO 31011G17KT 10SM CLR M03/M17 A3025 RMK AO2 T10301169,M
OOA,2026-01-28 19:35,27.50,1.60,32.16,310.00,10.00,0.00,30.25,M,10.00,M,CLR,M,M,M,M,M,M,M,M,M,M,M,M,M,M,17.33,KOOA 281935Z AUTO 31010KT 10SM CLR M02/M17 A3025 RMK AO2 T10251169,M
OOA,2026-01-28 19:55,27.50,1.00,31.27,310.00,11.00,0.00,30.24,M,10.00,17.00,CLR,M,M,M,M,M,M,M,M,M,M,M,M,M,M,16.78,KOOA 281955Z AUTO 31011G17KT 10SM CLR M02/M17 A3024 RMK AO2 T10251172,M
OOA,2026-01-28 20:15,27.50,0.30,30.26,310.00,9.00,0.00,30.22,M,10.00,M,CLR,M,M,M,M,M,M,M,M,M,M,M,M,M,M,17.92,KOOA 282015Z AUTO 31009KT 10SM CLR M02/M18 A3022 RMK AO2 T10251176,M
OOA,2026-01-28 20:35,28.40,0.00,28.75,310.00,11.00,0.00,30.22,M,10.00,15.00,CLR,M,M,M,M,M,M,M,M,M,M,M,M,M,M,17.92,KOOA 282035Z AUTO 31011G15KT 10SM CLR M02/M18 A3022 RMK AO2 T10201178,M
OOA,2026-01-28 20:55,28.40,-1.00,27.43,300.00,10.00,0.00,30.22,M,10.00,17.00,CLR,M,M,M,M,M,M,M,M,M,M,M,M,M,M,18.45,KOOA 282055Z AUTO 30010G17KT 10SM CLR M02/M18 A3022 RMK AO2 T10201183,M
OOA,2026-01-28 21:15,28.40,-2.00,26.17,310.00,8.00,0.00,30.22,M,10.00,M,SCT,M,M,M,6500.00,M,M,M,M,M,M,M,M,M,M,19.68,KOOA 282115Z AUTO 31008KT 10SM SCT065 M02/M19 A3022 RMK AO2 T10201188,M
OOA,2026-01-28 21:35,28.40,-4.00,23.79,310.00,10.00,0.00,30.22,M,10.00,M,SCT,M,M,M,6500.00,M,M,M,M,M,M,M,M,M,M,18.45,KOOA 282135Z AUTO 31010KT 10SM SCT065 M02/M20 A3022 RMK AO2 T10201199,M
OOA,2026-01-28 21:55,28.20,-3.30,24.80,320.00,8.00,0.00,30.22,M,10.00,M,SCT,M,M,M,6500.00,M,M,M,M,M,M,M,M,M,M,19.43,KOOA 282155Z AUTO 32008KT 10SM SCT065 M02/M20 A3022 RMK AO2 T10211196,M
OOA,2026-01-28 22:15,28.00,-3.60,24.65,330.00,9.00,0.00,30.23,M,10.00,M,SCT,M,M,M,6500.00,M,M,M,M,M,M,M,M,M,M,18.54,KOOA 282215Z AUTO 33009KT 10SM SCT065 M02/M20 A3023 RMK AO2 T10231198,M
OOA,2026-01-28 22:35,27.00,-4.00,25.20,340.00,7.00,0.00,30.22,M,10.00,M,CLR,M,M,M,M,M,M,M,M,M,M,M,M,M,M,18.68,KOOA 282235Z AUTO 34007KT 10SM CLR M03/M20 A3022 RMK AO2 T10271200,M
OOA,2026-01-28 22:55,26.20,-4.00,26.05,350.00,7.00,0.00,30.22,M,10.00,M,CLR,M,M,M,M,M,M,M,M,M,M,M,M,M,M,17.71,KOOA 282255Z AUTO 35007KT 10SM CLR M03/M20 A3022 RMK AO2 T10321201,M
OOA,2026-01-28 23:15,24.00,-4.50,27.87,360.00,6.00,0.00,30.23,M,10.00,M,CLR,M,M,M,M,M,M,M,M,M,M,M,M,M,M,15.90,KOOA 282315Z AUTO 36006KT 10SM CLR M04/M20 A3023 RMK AO2 T10451203,M
OOA,2026-01-28 23:35,21.70,-5.00,29.98,350.00,6.00,0.00,30.23,M,10.00,M,CLR,M,M,M,M,M,M,M,M,M,M,M,M,M,M,13.13,KOOA 282335Z AUTO 35006KT 10SM CLR M06/M20 A3023 RMK AO2 T10571205,M
OOA,2026-01-28 23:55,20.30,-5.00,31.81,10.00,5.00,0.00,30.24,M,10.00,M,CLR,M,M,M,M,M,M,M,M,M,M,M,M,M,M,12.50,KOOA 282355Z AUTO 01005KT 10SM CLR M06/M20 A3024 RMK AO2 T10651205 11018 21065,M
OOA,2026-01-29 00:15,21.20,-5.00,30.62,350.00,3.00,0.00,30.25,M,10.00,M,CLR,M,M,M,M,M,M,M,M,M,M,M,M,M,M,16.34,KOOA 290015Z AUTO 35003KT 10SM CLR M06/M20 A3025 RMK AO2 T10601205,M
OOA,2026-01-29 00:35,20.00,-4.40,33.16,360.00,6.00,0.00,30.27,M,10.00,M,CLR,M,M,M,M,M,M,M,M,M,M,M,M,M,M,11.08,KOOA 290035Z AUTO 36006KT 10SM CLR M07/M20 A3027 RMK AO2 T10671202,M
OOA,2026-01-29 00:55,18.50,-3.30,37.27,20.00,5.00,0.00,30.27,M,10.00,M,CLR,M,M,M,M,M,M,M,M,M,M,M,M,M,M,10.36,KOOA 290055Z AUTO 02005KT 10SM CLR M07/M20 A3027 RMK AO2 T10751196,M
OOA,2026-01-29 01:15,17.60,-3.30,38.74,20.00,4.00,0.00,30.27,M,10.00,M,CLR,M,M,M,M,M,M,M,M,M,M,M,M,M,M,10.60,KOOA 290115Z AUTO 02004KT 10SM CLR M08/M20 A3027 RMK AO2 T10801196,M
OOA,2026-01-29 01:35,15.60,-2.40,44.10,360.00,5.00,0.00,30.27,M,10.00,M,CLR,M,M,M,M,M,M,M,M,M,M,M,M,M,M,6.92,KOOA 290135Z AUTO 36005KT 10SM CLR M09/M19 A3027 RMK AO2 T10911191,M
OOA,2026-01-29 01:55,15.80,-0.80,47.16,360.00,5.00,0.00,30.28,M,10.00,M,CLR,M,M,M,M,M,M,M,M,M,M,M,M,M,M,7.16,KOOA 290155Z AUTO 36005KT 10SM CLR M09/M18 A3028 RMK AO2 T10901182,M
OOA,2026-01-29 02:15,15.30,-0.40,49.11,360.00,4.00,0.00,30.28,M,10.00,M,CLR,M,M,M,M,M,M,M,M,M,M,M,M,M,M,7.92,KOOA 290215Z AUTO 36004KT 10SM CLR M09/M18 A3028 RMK AO2 T10931180,M
OOA,2026-01-29 02:35,15.00,0.70,52.39,350.00,4.00,0.00,30.28,M,10.00,M,CLR,M,M,M,M,M,M,M,M,M,M,M,M,M,M,7.57,KOOA 290235Z AUTO 35004KT 10SM CLR M09/M17 A3028 RMK AO2 T10951174,M
OOA,2026-01-29 02:55,15.30,2.00,54.94,360.00,4.00,0.00,30.28,M,10.00,M,CLR,M,M,M,M,M,M,M,M,M,M,M,M,M,M,7.92,KOOA 290255Z AUTO 36004KT 10SM CLR M09/M17 A3028 RMK AO2 T10931166,M
OOA,2026-01-29 03:15,15.60,2.30,54.99,360.00,3.00,0.00,30.29,M,10.00,M,CLR,M,M,M,M,M,M,M,M,M,M,M,M,M,M,9.94,KOOA 290315Z AUTO 36003KT 10SM CLR M09/M16 A3029 RMK AO2 T10911165,M
OOA,2026-01-29 03:35,15.00,2.50,56.98,360.00,3.00,0.00,30.30,M,10.00,M,CLR,M,M,M,M,M,M,M,M,M,M,M,M,M,M,9.25,KOOA 290335Z AUTO 36003KT 10SM CLR M09/M16 A3030 RMK AO2 T10941164,M
OOA,2026-01-29 03:55,14.00,2.30,58.98,10.00,5.00,0.00,30.30,M,10.00,M,CLR,M,M,M,M,M,M,M,M,M,M,M,M,M,M,5.02,KOOA 290355Z AUTO 01005KT 10SM CLR M10/M16 A3030 RMK AO2 T10991165,M
OOA,2026-01-29 04:15,12.40,1.80,61.83,40.00,5.00,0.00,30.30,M,10.00,M,CLR,M,M,M,M,M,M,M,M,M,M,M,M,M,M,3.12,KOOA 290415Z AUTO 04005KT 10SM CLR M11/M17 A3030 RMK AO2 T11091168,M
OOA,2026-01-29 04:35,14.00,3.00,60.92,20.00,3.00,0.00,30.30,M,10.00,M,CLR,M,M,M,M,M,M,M,M,M,M,M,M,M,M,8.11,KOOA 290435Z AUTO 02003KT 10SM CLR M10/M16 A3030 RMK AO2 T11011161,M
OOA,2026-01-29 04:55,14.00,3.00,60.92,30.00,5.00,0.00,30.30,M,10.00,M,CLR,M,M,M,M,M,M,M,M,M,M,M,M,M,M,5.02,KOOA 290455Z AUTO 03005KT 10SM CLR M10/M16 A3030 RMK AO2 T11011161,M
OOA,2026-01-29 05:15,14.00,4.00,63.80,0.00,0.00,0.00,30.31,M,10.00,M,CLR,M,M,M,M,M,M,M,M,M,M,M,M,M,M,14.00,KOOA 290515Z AUTO 00000KT 10SM CLR M10/M16 A3031 RMK AO2 T11011156,M
OOA,2026-01-29 05:35,14.00,4.00,63.80,0.00,0.00,0.00,30.31,M,10.00,M,CLR,M,M,M,M,M,M,M,M,M,M,M,M,M,M,14.00,KOOA 290535Z AUTO 00000KT 10SM CLR M10/M15 A3031 RMK AO2 T11001155,M
OOA,2026-01-29 05:55,13.00,3.60,65.45,0.00,0.00,0.00,30.31,M,10.00,M,CLR,M,M,M,M,M,M,M,M,M,M,M,M,M,M,13.00,KOOA 290555Z AUTO 00000KT 10SM CLR M10/M16 A3031 RMK AO2 T11051158 11060 21109 410181155,M
OOA,2026-01-29 06:15,13.60,4.60,66.74,50.00,5.00,0.00,30.30,M,10.00,M,CLR,M,M,M,M,M,M,M,M,M,M,M,M,M,M,4.54,KOOA 290615Z AUTO 05005KT 10SM CLR M10/M15 A3030 RMK AO2 T11021152,M
OOA,2026-01-29 06:35,14.00,5.50,68.34,40.00,7.00,0.00,30.29,M,10.00,M,CLR,M,M,M,M,M,M,M,M,M,M,M,M,M,M,2.84,KOOA 290635Z AUTO 04007KT 10SM CLR M10/M15 A3029 RMK AO2 T11001147,M
OOA,2026-01-29 06:55,14.00,5.00,66.79,20.00,5.00,0.00,30.30,M,10.00,M,CLR,M,M,M,M,M,M,M,M,M,M,M,M,M,M,5.02,KOOA 290655Z AUTO 02005KT 10SM CLR M10/M15 A3030 RMK AO2 T11001149,M
OOA,2026-01-29 07:15,14.00,5.00,66.79,20.00,6.00,0.00,30.30,M,10.00,M,CLR,M,M,M,M,M,M,M,M,M,M,M,M,M,M,3.85,KOOA 290715Z AUTO 02006KT 10SM CLR M10/M15 A3030 RMK AO2 T11011150,M
OOA,2026-01-29 07:35,13.60,5.00,67.98,30.00,6.00,0.00,30.30,M,10.00,M,CLR,M,M,M,M,M,M,M,M,M,M,M,M,M,M,3.37,KOOA 290735Z AUTO 03006KT 10SM CLR M10/M15 A3030 RMK AO2 T11021150,M
OOA,2026-01-29 07:55,13.60,5.50,69.55,30.00,5.00,0.00,30.30,M,10.00,M,CLR,M,M,M,M,M,M,M,M,M,M,M,M,M,M,4.54,KOOA 290755Z AUTO 03005KT 10SM CLR M10/M15 A3030 RMK AO2 T11021147,M
OOA,2026-01-29 08:15,13.50,5.40,69.54,20.00,5.00,0.00,30.31,M,10.00,M,CLR,M,M,M,M,M,M,M,M,M,M,M,M,M,M,4.42,KOOA 290815Z AUTO 02005KT 10SM CLR M10/M15 A3031 RMK AO2 T11031148,M
OOA,2026-01-29 08:35,13.50,5.40,69.54,20.00,5.00,0.00,30.31,M,10.00,M,CLR,M,M,M,M,M,M,M,M,M,M,M,M,M,M,4.42,KOOA 290835Z AUTO 02005KT 10SM CLR M10/M15 A3031 RMK AO2 T11031148,M
OOA,2026-01-29 08:55,13.50,5.40,69.54,20.00,5.00,0.00,30.31,M,10.00,M,CLR,M,M,M,M,M,M,M,M,M,M,M,M,M,M,4.42,KOOA 290855Z AUTO 02005KT 10SM CLR M10/M15 A3031 RMK AO2 T11031148,M
OOA,2026-01-29 09:15,13.00,5.00,69.80,20.00,5.00,0.00,30.31,M,10.00,M,CLR,M,M,M,M,M,M,M,M,M,M,M,M,M,M,3.83,KOOA 290915Z AUTO 02005KT 10SM CLR M10/M15 A3031 RMK AO2 T11051150,M
OOA,2026-01-29 09:35,13.00,5.00,69.80,10.00,5.00,0.00,30.32,M,10.00,M,CLR,M,M,M,M,M,M,M,M,M,M,M,M,M,M,3.83,KOOA 290935Z AUTO 01005KT 10SM CLR M10/M15 A3032 RMK AO2 T11051150,M
OOA,2026-01-29 09:55,13.00,5.00,69.80,10.00,5.00,0.00,30.31,M,10.00,M,CLR,M,M,M,M,M,M,M,M,M,M,M,M,M,M,3.83,KOOA 290955Z AUTO 01005KT 10SM CLR M10/M15 A3031 RMK AO2 T11051150,M
OOA,2026-01-29 10:15,13.00,5.00,69.80,360.00,5.00,0.00,30.32,M,10.00,M,SCT,M,M,M,12000.00,M,M,M,M,M,M,M,M,M,M,3.83,KOOA 291015Z AUTO 36005KT 10SM SCT120 M11/M15 A3032 RMK AO2 T11061150,M
OOA,2026-01-29 10:35,13.00,5.00,69.80,10.00,6.00,0.00,30.31,M,10.00,M,SCT,M,M,M,12000.00,M,M,M,M,M,M,M,M,M,M,2.65,KOOA 291035Z AUTO 01006KT 10SM SCT120 M11/M15 A3031 RMK AO2 T11061150,M
OOA,2026-01-29 10:55,13.00,5.00,69.80,20.00,5.00,0.00,30.32,M,10.00,M,SCT,M,M,M,11000.00,M,M,M,M,M,M,M,M,M,M,3.83,KOOA 291055Z AUTO 02005KT 10SM SCT110 M11/M15 A3032 RMK AO2 T11061150,M
OOA,2026-01-29 11:15,12.70,5.00,70.73,30.00,7.00,0.00,30.31,M,10.00,M,SCT,M,M,M,11000.00,M,M,M,M,M,M,M,M,M,M,1.25,KOOA 291115Z AUTO 03007KT 10SM SCT110 M11/M15 A3031 RMK AO2 T11071150,M
OOA,2026-01-29 11:35,12.70,4.60,69.44,40.00,6.00,0.00,30.31,M,10.00,M,SCT,M,M,M,11000.00,M,M,M,M,M,M,M,M,M,M,2.29,KOOA 291135Z AUTO 04006KT 10SM SCT110 M11/M15 A3031 RMK AO2 T11071152,M
OOA,2026-01-29 11:55,12.70,4.50,69.13,30.00,4.00,0.00,30.32,M,10.00,M,SCT,M,M,M,11000.00,M,M,M,M,M,M,M,M,M,M,4.88,KOOA 291155Z AUTO 03004KT 10SM SCT110 M11/M15 A3032 RMK AO2 T11071153 11100 21108,M
OOA,2026-01-29 12:15,12.60,4.30,68.80,30.00,6.00,0.00,30.32,M,10.00,M,SCT,M,M,M,11000.00,M,M,M,M,M,M,M,M,M,M,2.17,KOOA 291215Z AUTO 03006KT 10SM SCT110 M11/M15 A3032 RMK AO2 T11081154,M
OOA,2026-01-29 12:35,12.60,4.00,67.85,20.00,5.00,0.00,30.32,M,10.00,M,SCT,M,M,M,11000.00,M,M,M,M,M,M,M,M,M,M,3.36,KOOA 291235Z AUTO 02005KT 10SM SCT110 M11/M15 A3032 RMK AO2 T11081155,M
OOA,2026-01-29 12:55,12.60,4.00,67.85,10.00,4.00,0.00,30.34,M,10.00,M,BKN,M,M,M,11000.00,M,M,M,M,M,M,M,M,M,M,4.77,KOOA 291255Z AUTO 01004KT 10SM BKN110 M11/M15 A3034 RMK AO2 T11081155,M
OOA,2026-01-29 13:15,12.60,4.00,67.85,10.00,5.00,0.00,30.34,M,10.00,M,BKN,M,M,M,11000.00,M,M,M,M,M,M,M,M,M,M,3.36,KOOA 291315Z AUTO 01005KT 10SM BKN110 M11/M15 A3034 RMK AO2 T11081155,M
OOA,2026-01-29 13:35,12.60,4.00,67.85,20.00,5.00,0.00,30.35,M,10.00,M,SCT,M,M,M,11000.00,M,M,M,M,M,M,M,M,M,M,3.36,KOOA 291335Z AUTO 02005KT 10SM SCT110 M11/M15 A3035 RMK AO2 T11081155,M
OOA,2026-01-29 13:55,12.60,4.00,67.85,10.00,5.00,0.00,30.36,M,10.00,M,SCT,M,M,M,11000.00,M,M,M,M,M,M,M,M,M,M,3.36,KOOA 291355Z AUTO 01005KT 10SM SCT110 M11/M15 A3036 RMK AO2 T11081155,M
OOA,2026-01-29 14:15,12.60,4.00,67.85,30.00,5.00,0.00,30.36,M,10.00,M,CLR,M,M,M,M,M,M,M,M,M,M,M,M,M,M,3.36,KOOA 291415Z AUTO 03005KT 10SM CLR M11/M15 A3036 RMK AO2 T11081155,M
OOA,2026-01-29 14:35,12.70,4.00,67.55,20.00,5.00,0.00,30.37,M,10.00,M,CLR,M,M,M,M,M,M,M,M,M,M,M,M,M,M,3.47,KOOA 291435Z AUTO 02005KT 10SM CLR M11/M15 A3037 RMK AO2 T11071155,M
OOA,2026-01-29 14:55,13.00,4.60,68.53,40.00,4.00,0.00,30.37,M,10.00,M,CLR,M,M,M,M,M,M,M,M,M,M,M,M,M,M,5.23,KOOA 291455Z AUTO 04004KT 10SM CLR M10/M15 A3037 RMK AO2 T11051152,M
OOA,2026-01-29 15:15,13.00,4.30,67.59,10.00,4.00,0.00,30.37,M,10.00,M,CLR,M,M,M,M,M,M,M,M,M,M,M,M,M,M,5.23,KOOA 291515Z AUTO 01004KT 10SM CLR M10/M15 A3037 RMK AO2 T11051154,M
OOA,2026-01-29 15:35,14.00,4.30,64.68,20.00,4.00,0.00,30.37,M,10.00,M,CLR,M,M,M,M,M,M,M,M,M,M,M,M,M,M,6.40,KOOA 291535Z AUTO 02004KT 10SM CLR M10/M15 A3037 RMK AO2 T11011154,M
OOA,2026-01-29 15:55,14.40,4.60,64.44,30.00,5.00,0.00,30.37,M,10.00,M,CLR,M,M,M,M,M,M,M,M,M,M,M,M,M,M,5.49,KOOA 291555Z AUTO 03005KT 10SM CLR M10/M15 A3037 RMK AO2 T10981152,M
OOA,2026-01-29 16:15,15.00,4.60,62.77,40.00,6.00,0.00,30.37,M,10.00,M,CLR,M,M,M,M,M,M,M,M,M,M,M,M,M,M,5.06,KOOA 291615Z AUTO 04006KT 10SM CLR M09/M15 A3037 RMK AO2 T10951152,M
OOA,2026-01-29 16:35,15.30,4.00,60.27,360.00,5.00,0.00,30.38,M,10.00,M,CLR,M,M,M,M,M,M,M,M,M,M,M,M,M,M,6.56,KOOA 291635Z AUTO 36005KT 10SM CLR M09/M15 A3038 RMK AO2 T10931155,M
OOA,2026-01-29 16:55,15.80,3.60,57.89,30.00,4.00,0.00,30.38,M,10.00,M,CLR,M,M,M,M,M,M,M,M,M,M,M,M,M,M,8.50,KOOA 291655Z AUTO 03004KT 10SM CLR M09/M16 A3038 RMK AO2 T10901158,M
OOA,2026-01-29 17:15,17.20,4.00,55.50,50.00,6.00,0.00,30.37,M,10.00,M,CLR,M,M,M,M,M,M,M,M,M,M,M,M,M,M,7.71,KOOA 291715Z AUTO 05006KT 10SM CLR M08/M15 A3037 RMK AO2 T10821155,M
OOA,2026-01-29 17:35,17.20,4.00,55.50,360.00,6.00,0.00,30.37,M,10.00,M,CLR,M,M,M,M,M,M,M,M,M,M,M,M,M,M,7.71,KOOA 291735Z AUTO 36006KT 10SM CLR M08/M15 A3037 RMK AO2 T10821155,M
OOA,2026-01-29 17:55,17.80,3.70,53.34,10.00,5.00,0.00,30.36,M,10.00,M,CLR,M,M,M,M,M,M,M,M,M,M,M,M,M,M,9.53,KOOA 291755Z AUTO 01005KT 10SM CLR M08/M16 A3036 RMK AO2 T10791157 11079 21109,M
OOA,2026-01-29 18:15,18.00,3.70,52.88,330.00,6.00,0.00,30.35,M,10.00,M,CLR,M,M,M,M,M,M,M,M,M,M,M,M,M,M,8.67,KOOA 291815Z AUTO 33006KT 10SM CLR M08/M16 A3035 RMK AO2 T10771157,M
OOA,2026-01-29 18:35,19.40,4.00,50.49,10.00,6.00,0.00,30.34,M,10.00,M,CLR,M,M,M,M,M,M,M,M,M,M,M,M,M,M,10.36,KOOA 291835Z AUTO 01006KT 10SM CLR M07/M15 A3034 RMK AO2 T10701155,M
OOA,2026-01-29 18:55,19.40,4.00,50.49,20.00,5.00,0.00,30.34,M,10.00,M,CLR,M,M,M,M,M,M,M,M,M,M,M,M,M,M,11.43,KOOA 291855Z AUTO 02005KT 10SM CLR M07/M16 A3034 RMK AO2 T10701156,M
OOA,2026-01-29 19:15,20.30,4.00,48.59,20.00,5.00,0.00,30.33,M,10.00,M,CLR,M,M,M,M,M,M,M,M,M,M,M,M,M,M,12.50,KOOA 291915Z AUTO 02005KT 10SM CLR M06/M16 A3033 RMK AO2 T10651156,M
OOA,2026-01-29 19:35,21.20,4.00,46.76,30.00,4.00,0.00,30.32,M,10.00,M,CLR,M,M,M,M,M,M,M,M,M,M,M,M,M,M,14.81,KOOA 291935Z AUTO 03004KT 10SM CLR M06/M15 A3032 RMK AO2 T10601155,M
OOA,2026-01-29 19:55,21.20,3.60,45.91,0.00,0.00,0.00,30.32,M,10.00,M,CLR,M,M,M,M,M,M,M,M,M,M,M,M,M,M,21.20,KOOA 291955Z AUTO 00000KT 10SM CLR M06/M16 A3032 RMK AO2 T10601158,M
OOA,2026-01-29 20:15,22.00,4.00,45.20,0.00,0.00,0.00,30.32,M,10.00,M,CLR,M,M,M,M,M,M,M,M,M,M,M,M,M,M,22.00,KOOA 292015Z AUTO 00000KT 10SM CLR M05/M15 A3032 RMK AO2 T10551155,M
OOA,2026-01-29 20:35,21.70,3.70,45.15,0.00,0.00,0.00,30.32,M,10.00,M,CLR,M,M,M,M,M,M,M,M,M,M,M,M,M,M,21.70,KOOA 292035Z AUTO 00000KT 10SM CLR M06/M16 A3032 RMK AO2 T10571157,M
OOA,2026-01-29 20:55,23.00,4.00,43.34,320.00,3.00,0.00,30.31,M,10.00,M,CLR,M,M,M,M,M,M,M,M,M,M,M,M,M,M,18.40,KOOA 292055Z AUTO 32003KT 10SM CLR M05/M15 A3031 RMK AO2 T10511155,M
OOA,2026-01-29 21:15,23.00,4.00,43.34,330.00,3.00,0.00,30.31,M,10.00,M,CLR,M,M,M,M,M,M,M,M,M,M,M,M,M,M,18.40,KOOA 292115Z AUTO 33003KT 10SM CLR M05/M16 A3031 RMK AO2 T10511156,M
OOA,2026-01-29 21:35,23.00,4.00,43.34,340.00,5.00,0.00,30.31,M,10.00,M,CLR,M,M,M,M,M,M,M,M,M,M,M,M,M,M,15.71,KOOA 292135Z AUTO 34005KT 10SM CLR M05/M15 A3031 RMK AO2 T10501155,M
OOA,2026-01-29 21:55,22.00,3.70,44.58,20.00,5.00,0.00,30.32,M,10.00,M,CLR,M,M,M,M,M,M,M,M,M,M,M,M,M,M,14.52,KOOA 292155Z AUTO 02005KT 10SM CLR M06/M16 A3032 RMK AO2 T10561157,M
OOA,2026-01-29 22:15,21.70,3.60,44.95,340.00,5.00,0.00,30.32,M,10.00,M,CLR,M,M,M,M,M,M,M,M,M,M,M,M,M,M,14.16,KOOA 292215Z AUTO 34005KT 10SM CLR M06/M16 A3032 RMK AO2 T10571158,M
OOA,2026-01-29 22:35,21.70,3.20,44.12,20.00,6.00,0.00,30.32,M,10.00,M,CLR,M,M,M,M,M,M,M,M,M,M,M,M,M,M,13.13,KOOA 292235Z AUTO 02006KT 10SM CLR M06/M16 A3032 RMK AO2 T10571160,M
OOA,2026-01-29 22:55,21.20,3.20,45.07,10.00,5.00,0.00,30.32,M,10.00,M,CLR,M,M,M,M,M,M,M,M,M,M,M,M,M,M,13.57,KOOA 292255Z AUTO 01005KT 10SM CLR M06/M16 A3032 RMK AO2 T10601160,M
OOA,2026-01-29 23:15,20.00,3.20,47.43,10.00,5.00,0.00,30.32,M,10.00,M,CLR,M,M,M,M,M,M,M,M,M,M,M,M,M,M,12.14,KOOA 292315Z AUTO 01005KT 10SM CLR M07/M16 A3032 RMK AO2 T10671160,M
OOA,2026-01-29 23:35,17.60,2.30,50.42,10.00,6.00,0.00,30.32,M,10.00,M,CLR,M,M,M,M,M,M,M,M,M,M,M,M,M,M,8.19,KOOA 292335Z AUTO 01006KT 10SM CLR M08/M16 A3032 RMK AO2 T10801165,M
OOA,2026-01-29 23:55,16.50,2.50,53.38,20.00,8.00,0.00,30.33,M,10.00,M,CLR,M,M,M,M,M,M,M,M,M,M,M,M,M,M,5.02,KOOA 292355Z AUTO 02008KT 10SM CLR M09/M16 A3033 RMK AO2 T10861164 11050 21086,M
OOA,2026-01-30 00:15,14.70,2.00,56.40,30.00,7.00,0.00,30.34,M,10.00,M,CLR,M,M,M,M,M,M,M,M,M,M,M,M,M,M,3.69,KOOA 300015Z AUTO 03007KT 10SM CLR M10/M17 A3034 RMK AO2 T10961166,M
OOA,2026-01-30 00:35,13.60,1.60,58.10,30.00,7.00,0.00,30.34,M,10.00,M,CLR,M,M,M,M,M,M,M,M,M,M,M,M,M,M,2.35,KOOA 300035Z AUTO 03007KT 10SM CLR M10/M17 A3034 RMK AO2 T11021169,M
OOA,2026-01-30 00:55,12.20,1.00,60.09,30.00,5.00,0.00,30.35,M,10.00,M,CLR,M,M,M,M,M,M,M,M,M,M,M,M,M,M,2.88,KOOA 300055Z AUTO 03005KT 10SM CLR M11/M17 A3035 RMK AO2 T11101173,M
OOA,2026-01-30 01:15,11.50,0.50,60.56,40.00,6.00,0.00,30.36,M,10.00,M,CLR,M,M,M,M,M,M,M,M,M,M,M,M,M,M,0.84,KOOA 300115Z AUTO 04006KT 10SM CLR M11/M17 A3036 RMK AO2 T11141175,M
OOA,2026-01-30 01:35,10.80,0.30,61.89,40.00,7.00,0.00,30.36,M,10.00,M,CLR,M,M,M,M,M,M,M,M,M,M,M,M,M,M,-1.06,KOOA 300135Z AUTO 04007KT 10SM CLR M12/M18 A3036 RMK AO2 T11181176,M
OOA,2026-01-30 01:55,10.40,0.00,62.12,30.00,7.00,0.00,30.36,M,10.00,M,CLR,M,M,M,M,M,M,M,M,M,M,M,M,M,M,-1.55,KOOA 300155Z AUTO 03007KT 10SM CLR M12/M18 A3036 RMK AO2 T11201177,M
OOA,2026-01-30 02:15,10.40,0.50,63.60,30.00,6.00,0.00,30.36,M,10.00,M,CLR,M,M,M,M,M,M,M,M,M,M,M,M,M,M,-0.48,KOOA 300215Z AUTO 03006KT 10SM CLR M12/M17 A3036 RMK AO2 T11201175,M
OOA,2026-01-30 02:35,8.60,-0.40,66.09,30.00,6.00,0.00,30.37,M,10.00,M,CLR,M,M,M,M,M,M,M,M,M,M,M,M,M,M,-2.65,KOOA 300235Z AUTO 03006KT 10SM CLR M13/M18 A3037 RMK AO2 T11301180,M
OOA,2026-01-30 02:55,9.00,-0.40,64.91,30.00,5.00,0.00,30.38,M,10.00,M,CLR,M,M,M,M,M,M,M,M,M,M,M,M,M,M,-0.92,KOOA 300255Z AUTO 03005KT 10SM CLR M13/M18 A3038 RMK AO2 T11281180,M
OOA,2026-01-30 03:15,9.00,0.00,66.14,30.00,5.00,0.00,30.39,M,10.00,M,CLR,M,M,M,M,M,M,M,M,M,M,M,M,M,M,-0.92,KOOA 300315Z AUTO 03005KT 10SM CLR M13/M18 A3039 RMK AO2 T11271178,M
OOA,2026-01-30 03:35,8.80,-0.20,66.12,30.00,4.00,0.00,30.39,M,10.00,M,CLR,M,M,M,M,M,M,M,M,M,M,M,M,M,M,0.33,KOOA 300335Z AUTO 03004KT 10SM CLR M13/M18 A3039 RMK AO2 T11291179,M
OOA,2026-01-30 03:55,7.70,-0.60,68.18,0.00,0.00,0.00,30.39,M,10.00,M,CLR,M,M,M,M,M,M,M,M,M,M,M,M,M,M,7.70,KOOA 300355Z AUTO 00000KT 10SM CLR M13/M18 A3039 RMK AO2 T11351181,M
OOA,2026-01-30 04:15,9.00,0.50,67.71,20.00,3.00,0.00,30.38,M,10.00,M,CLR,M,M,M,M,M,M,M,M,M,M,M,M,M,M,2.40,KOOA 300415Z AUTO 02003KT 10SM CLR M13/M17 A3038 RMK AO2 T11271175,M
OOA,2026-01-30 04:35,8.40,0.30,68.92,30.00,3.00,0.00,30.38,M,10.00,M,CLR,M,M,M,M,M,M,M,M,M,M,M,M,M,M,1.71,KOOA 300435Z AUTO 03003KT 10SM CLR M13/M18 A3038 RMK AO2 T11311176,M
OOA,2026-01-30 04:55,8.60,0.50,68.94,20.00,4.00,0.00,30.38,M,10.00,M,CLR,M,M,M,M,M,M,M,M,M,M,M,M,M,M,0.09,KOOA 300455Z AUTO 02004KT 10SM CLR M13/M17 A3038 RMK AO2 T11301175,M
OOA,2026-01-30 05:15,7.00,-0.80,69.72,350.00,4.00,0.00,30.38,M,10.00,M,CLR,M,M,M,M,M,M,M,M,M,M,M,M,M,M,-1.77,KOOA 300515Z AUTO 35004KT 10SM CLR M14/M18 A3038 RMK AO2 T11381182,M
OOA,2026-01-30 05:35,5.00,-2.00,72.17,360.00,4.00,0.00,30.38,M,10.00,M,CLR,M,M,M,M,M,M,M,M,M,M,M,M,M,M,-4.11,KOOA 300535Z AUTO 36004KT 10SM CLR M15/M19 A3038 RMK AO2 T11501189,M
OOA,2026-01-30 05:55,6.00,-1.00,72.28,10.00,3.00,0.00,30.38,M,10.00,M,CLR,M,M,M,M,M,M,M,M,M,M,M,M,M,M,-1.03,KOOA 300555Z AUTO 01003KT 10SM CLR M14/M18 A3038 RMK AO2 T11441183 11086 21150 410501150,M
OOA,2026-01-30 06:15,5.70,-1.00,73.28,0.00,0.00,0.00,30.38,M,10.00,M,CLR,M,M,M,M,M,M,M,M,M,M,M,M,M,M,5.70,KOOA 300615Z AUTO 00000KT 10SM CLR M15/M18 A3038 RMK AO2 T11461183,M
OOA,2026-01-30 06:35,4.50,-2.70,71.43,0.00,0.00,0.00,30.38,M,10.00,M,CLR,M,M,M,M,M,M,M,M,M,M,M,M,M,M,4.50,KOOA 300635Z AUTO 00000KT 10SM CLR M15/M19 A3038 RMK AO2 T11531193,M
OOA,2026-01-30 06:55,3.70,-3.00,73.06,0.00,0.00,0.00,30.38,M,10.00,M,CLR,M,M,M,M,M,M,M,M,M,M,M,M,M,M,3.70,KOOA 300655Z AUTO 00000KT 10SM CLR M16/M19 A3038 RMK AO2 T11571194,M
OOA,2026-01-30 07:15,2.50,-4.00,73.62,310.00,3.00,0.00,30.39,M,10.00,M,CLR,M,M,M,M,M,M,M,M,M,M,M,M,M,M,-5.04,KOOA 300715Z AUTO 31003KT 10SM CLR M16/M20 A3039 RMK AO2 T11641199,M
OOA,2026-01-30 07:35,3.00,-3.00,75.46,290.00,4.00,0.00,30.39,M,10.00,M,CLR,M,M,M,M,M,M,M,M,M,M,M,M,M,M,-6.44,KOOA 300735Z AUTO 29004KT 10SM CLR M16/M19 A3039 RMK AO2 T11611195,M
OOA,2026-01-30 07:55,2.00,-3.60,76.81,290.00,5.00,0.00,30.39,M,10.00,M,CLR,M,M,M,M,M,M,M,M,M,M,M,M,M,M,-9.23,KOOA 300755Z AUTO 29005KT 10SM CLR M17/M20 A3039 RMK AO2 T11661198,M
OOA,2026-01-30 08:15,2.30,-3.00,77.94,290.00,5.00,0.00,30.39,M,10.00,M,CLR,M,M,M,M,M,M,M,M,M,M,M,M,M,M,-8.88,KOOA 300815Z AUTO 29005KT 10SM CLR M16/M19 A3039 RMK AO2 T11651195,M
OOA,2026-01-30 08:35,2.00,-3.30,77.91,310.00,6.00,0.00,30.39,M,10.00,M,CLR,M,M,M,M,M,M,M,M,M,M,M,M,M,M,-10.60,KOOA 300835Z AUTO 31006KT 10SM CLR M17/M20 A3039 RMK AO2 T11661196,M
OOA,2026-01-30 08:55,2.30,-3.00,77.94,310.00,5.00,0.00,30.39,M,10.00,M,CLR,M,M,M,M,M,M,M,M,M,M,M,M,M,M,-8.88,KOOA 300855Z AUTO 31005KT 10SM CLR M16/M19 A3039 RMK AO2 T11651195,M
OOA,2026-01-30 09:15,1.60,-3.50,78.62,320.00,5.00,0.00,30.38,M,10.00,M,CLR,M,M,M,M,M,M,M,M,M,M,M,M,M,M,-9.71,KOOA 300915Z AUTO 32005KT 10SM CLR M17/M20 A3038 RMK AO2 T11691197,M
OOA,2026-01-30 09:35,2.00,-3.00,79.04,320.00,8.00,0.00,30.38,M,10.00,M,CLR,M,M,M,M,M,M,M,M,M,M,M,M,M,M,-12.84,KOOA 300935Z AUTO 32008KT 10SM CLR M17/M19 A3038 RMK AO2 T11671195,M
OOA,2026-01-30 09:55,2.00,-2.70,80.17,330.00,8.00,0.00,30.38,M,10.00,M,CLR,M,M,M,M,M,M,M,M,M,M,M,M,M,M,-12.84,KOOA 300955Z AUTO 33008KT 10SM CLR M17/M19 A3038 RMK AO2 T11661193,M
OOA,2026-01-30 10:15,2.00,-3.00,79.04,330.00,7.00,0.00,30.39,M,10.00,M,CLR,M,M,M,M,M,M,M,M,M,M,M,M,M,M,-11.79,KOOA 301015Z AUTO 33007KT 10SM CLR M17/M19 A3039 RMK AO2 T11671195,M
OOA,2026-01-30 10:35,2.00,-2.40,81.32,350.00,6.00,0.00,30.40,M,10.00,M,CLR,M,M,M,M,M,M,M,M,M,M,M,M,M,M,-10.60,KOOA 301035Z AUTO 35006KT 10SM CLR M17/M19 A3040 RMK AO2 T11661191,M
OOA,2026-01-30 10:55,2.70,-2.20,79.48,340.00,7.00,0.00,30.40,M,10.00,M,CLR,M,M,M,M,M,M,M,M,M,M,M,M,M,M,-10.94,KOOA 301055Z AUTO 34007KT 10SM CLR M16/M19 A3040 RMK AO2 T11631190,M
OOA,2026-01-30 11:15,3.00,-1.70,80.26,340.00,6.00,0.00,30.41,M,10.00,M,CLR,M,M,M,M,M,M,M,M,M,M,M,M,M,M,-9.40,KOOA 301115Z AUTO 34006KT 10SM CLR M16/M19 A3041 RMK AO2 T11611187,M
OOA,2026-01-30 11:35,2.50,-2.00,80.98,340.00,6.00,0.00,30.41,M,10.00,M,CLR,M,M,M,M,M,M,M,M,M,M,M,M,M,M,-10.00,KOOA 301135Z AUTO 34006KT 10SM CLR M16/M19 A3041 RMK AO2 T11641189,M
OOA,2026-01-30 11:55,2.00,-2.40,81.32,350.00,5.00,0.00,30.41,M,10.00,M,CLR,M,M,M,M,M,M,M,M,M,M,M,M,M,M,-9.23,KOOA 301155Z AUTO 35005KT 10SM CLR M17/M19 A3041 RMK AO2 T11671191 11142 21170,M
OOA,2026-01-30 12:15,2.00,-2.20,82.10,360.00,6.00,0.00,30.42,M,10.00,M,CLR,M,M,M,M,M,M,M,M,M,M,M,M,M,M,-10.60,KOOA 301215Z AUTO 36006KT 10SM CLR M17/M19 A3042 RMK AO2 T11661190,M
OOA,2026-01-30 12:35,1.80,-2.60,81.31,360.00,6.00,0.00,30.42,M,10.00,M,CLR,M,M,M,M,M,M,M,M,M,M,M,M,M,M,-10.84,KOOA 301235Z AUTO 36006KT 10SM CLR M17/M19 A3042 RMK AO2 T11681192,M
OOA,2026-01-30 12:55,1.40,-2.60,82.84,360.00,6.00,0.00,30.42,M,10.00,M,CLR,M,M,M,M,M,M,M,M,M,M,M,M,M,M,-11.32,KOOA 301255Z AUTO 36006KT 10SM CLR M17/M19 A3042 RMK AO2 T11701192,M
OOA,2026-01-30 13:15,1.20,-3.00,82.04,350.00,5.00,0.00,30.42,M,10.00,M,CLR,M,M,M,M,M,M,M,M,M,M,M,M,M,M,-10.18,KOOA 301315Z AUTO 35005KT 10SM CLR M17/M19 A3042 RMK AO2 T11711195,M
OOA,2026-01-30 13:35,1.80,-2.20,82.87,350.00,7.00,0.00,30.43,M,10.00,M,CLR,M,M,M,M,M,M,M,M,M,M,M,M,M,M,-12.03,KOOA 301335Z AUTO 35007KT 10SM CLR M17/M19 A3043 RMK AO2 T11681190,M
OOA,2026-01-30 13:55,3.00,-1.50,81.02,350.00,7.00,0.00,30.44,M,10.00,M,CLR,M,M,M,M,M,M,M,M,M,M,M,M,M,M,-10.57,KOOA 301355Z AUTO 35007KT 10SM CLR M16/M19 A3044 RMK AO2 T11621186,M
OOA,2026-01-30 14:15,5.00,0.30,80.43,350.00,8.00,0.00,30.45,M,10.00,M,CLR,M,M,M,M,M,M,M,M,M,M,M,M,M,M,-9.15,KOOA 301415Z AUTO 35008KT 10SM CLR M15/M18 A3045 RMK AO2 T11501176,M
OOA,2026-01-30 14:35,6.00,1.20,80.14,360.00,9.00,0.00,30.46,M,10.00,M,CLR,M,M,M,M,M,M,M,M,M,M,M,M,M,M,-8.82,KOOA 301435Z AUTO 36009KT 10SM CLR M14/M17 A3046 RMK AO2 T11441171,M
OOA,2026-01-30 14:55,6.80,1.60,78.73,350.00,8.00,0.00,30.47,M,10.00,M,CLR,M,M,M,M,M,M,M,M,M,M,M,M,M,M,-6.93,KOOA 301455Z AUTO 35008KT 10SM CLR M14/M17 A3047 RMK AO2 T11401169,M
OOA,2026-01-30 15:15,9.00,3.20,76.77,360.00,10.00,0.00,30.47,M,10.00,M,CLR,M,M,M,M,M,M,M,M,M,M,M,M,M,M,-5.87,KOOA 301515Z AUTO 36010KT 10SM CLR M13/M16 A3047 RMK AO2 T11271160,M
OOA,2026-01-30 15:35,10.00,3.70,75.12,360.00,8.00,0.00,30.48,M,10.00,M,CLR,M,M,M,M,M,M,M,M,M,M,M,M,M,M,-2.99,KOOA 301535Z AUTO 36008KT 10SM CLR M12/M16 A3048 RMK AO2 T11231157,M
OOA,2026-01-30 15:55,10.80,4.00,73.49,10.00,12.00,0.00,30.48,M,10.00,M,CLR,M,M,M,M,M,M,M,M,M,M,M,M,M,M,-4.98,KOOA 301555Z AUTO 01012KT 10SM CLR M12/M15 A3048 RMK AO2 T11181155,M
OOA,2026-01-30 16:15,12.00,4.30,70.65,20.00,11.00,0.00,30.48,M,10.00,M,CLR,M,M,M,M,M,M,M,M,M,M,M,M,M,M,-2.81,KOOA 301615Z AUTO 02011KT 10SM CLR M11/M15 A3048 RMK AO2 T11111154,M
OOA,2026-01-30 16:35,12.40,5.00,71.67,20.00,10.00,0.00,30.49,M,5.00,M,CLR,M,M,M,M,M,M,M,M,M,M,M,M,M,M,-1.61,KOOA 301635Z AUTO 02010KT 5SM CLR M11/M15 A3049 RMK AO2 T11091150,M
OOA,2026-01-30 16:55,13.50,5.70,70.50,20.00,12.00,0.00,30.50,M,7.00,M,CLR,M,M,M,M,M,M,M,M,M,M,M,M,M,M,-1.54,KOOA 301655Z AUTO 02012KT 7SM CLR M10/M15 A3050 RMK AO2 T11031146,M
OOA,2026-01-30 17:15,14.00,6.30,70.88,20.00,12.00,0.00,30.50,M,4.00,M,CLR,M,M,M,M,M,M,M,M,M,M,M,M,M,M,-0.91,KOOA 301715Z AUTO 02012KT 4SM CLR M10/M14 A3050 RMK AO2 T11001143,M
OOA,2026-01-30 17:35,14.00,6.60,71.85,10.00,11.00,0.00,30.50,M,2.50,M,M,M,M,M,M,M,M,M,M,M,M,M,M,M,M,-0.28,KOOA 301735Z AUTO 01011KT 2 1/2SM M10/M14 A3050 RMK AO2 SKY OBSCURED VIS 1 1/2V5 T10991141,M
OOA,2026-01-30 17:55,14.50,6.00,68.40,360.00,11.00,0.00,30.49,M,7.00,M,CLR,M,M,M,M,M,M,M,M,M,M,M,M,M,M,0.35,KOOA 301755Z AUTO 36011KT 7SM CLR M10/M14 A3049 RMK AO2 T10971144 11095 21171,M
OOA,2026-01-30 18:15,15.00,6.00,66.92,10.00,13.00,0.00,30.48,M,10.00,M,CLR,M,M,M,M,M,M,M,M,M,M,M,M,M,M,-0.21,KOOA 301815Z AUTO 01013KT 10SM CLR M09/M14 A3048 RMK AO2 T10941144,M
OOA,2026-01-30 18:35,15.00,5.70,66.01,360.00,13.00,0.00,30.48,M,10.00,M,CLR,M,M,M,M,M,M,M,M,M,M,M,M,M,M,-0.21,KOOA 301835Z AUTO 36013KT 10SM CLR M09/M15 A3048 RMK AO2 T10951146,M
OOA,2026-01-30 18:55,15.30,5.50,64.56,360.00,11.00,0.00,30.48,M,7.00,M,CLR,M,M,M,M,M,M,M,M,M,M,M,M,M,M,1.36,KOOA 301855Z AUTO 36011KT 7SM CLR M09/M15 A3048 RMK AO2 T10931147,M
OOA,2026-01-30 19:15,16.00,5.00,61.21,350.00,15.00,0.00,30.47,M,10.00,M,CLR,M,M,M,M,M,M,M,M,M,M,M,M,M,M,0.04,KOOA 301915Z AUTO 35015KT 10SM CLR M09/M15 A3047 RMK AO2 T10891151,M
OOA,2026-01-30 19:35,17.00,4.50,57.28,10.00,13.00,0.00,30.47,M,10.00,18.00,CLR,M,M,M,M,M,M,M,M,M,M,M,M,M,M,2.35,KOOA 301935Z AUTO 01013G18KT 10SM CLR M08/M15 A3047 RMK AO2 T10841153,M
OOA,2026-01-30 19:55,17.00,5.00,58.61,360.00,14.00,0.00,30.47,M,7.00,19.00,CLR,M,M,M,M,M,M,M,M,M,M,M,M,M,M,1.83,KOOA 301955Z AUTO 36014G19KT 7SM CLR M08/M15 A3047 RMK AO2 T10841151,M
OOA,2026-01-30 20:15,16.70,4.50,58.03,360.00,12.00,0.00,30.47,M,10.00,M,CLR,M,M,M,M,M,M,M,M,M,M,M,M,M,M,2.53,KOOA 302015Z AUTO 36012KT 10SM CLR M08/M15 A3047 RMK AO2 T10851153,M
OOA,2026-01-30 20:35,17.40,4.50,56.30,10.00,12.00,0.00,30.47,M,10.00,16.00,CLR,M,M,M,M,M,M,M,M,M,M,M,M,M,M,3.42,KOOA 302035Z AUTO 01012G16KT 10SM CLR M08/M15 A3047 RMK AO2 T10811153,M
OOA,2026-01-30 20:55,17.20,3.20,53.49,10.00,13.00,0.00,30.48,M,10.00,M,CLR,M,M,M,M,M,M,M,M,M,M,M,M,M,M,2.61,KOOA 302055Z AUTO 01013KT 10SM CLR M08/M16 A3048 RMK AO2 T10821160,M
OOA,2026-01-30 21:15,16.70,6.00,62.15,30.00,13.00,0.00,30.49,M,4.00,19.00,CLR,M,M,M,M,M,M,M,M,M,M,M,M,M,M,1.97,KOOA 302115Z AUTO 03013G19KT 4SM CLR M08/M14 A3049 RMK AO2 T10851144,M
OOA,2026-01-30 21:35,17.40,4.30,55.78,20.00,13.00,0.00,30.49,M,7.00,21.00,CLR,M,M,M,M,M,M,M,M,M,M,M,M,M,M,2.86,KOOA 302135Z AUTO 02013G21KT 7SM CLR M08/M15 A3049 RMK AO2 T10811154,M
OOA,2026-01-30 21:55,17.20,3.20,53.49,360.00,16.00,0.00,30.50,M,10.00,21.00,CLR,M,M,M,M,M,M,M,M,M,M,M,M,M,M,1.13,KOOA 302155Z AUTO 36016G21KT 10SM CLR M08/M16 A3050 RMK AO2 T10821160,M
OOA,2026-01-30 22:15,16.30,4.60,59.32,360.00,17.00,0.00,30.51,M,10.00,23.00,CLR,M,M,M,M,M,M,M,M,M,M,M,M,M,M,-0.49,KOOA 302215Z AUTO 36017G23KT 10SM CLR M09/M15 A3051 RMK AO2 T10871152,M
OOA,2026-01-30 22:35,15.30,3.40,58.63,10.00,16.00,0.00,30.52,M,10.00,M,CLR,M,M,M,M,M,M,M,M,M,M,M,M,M,M,-1.35,KOOA 302235Z AUTO 01016KT 10SM CLR M09/M16 A3052 RMK AO2 T10931159,M
OOA,2026-01-30 22:55,15.30,2.70,56.76,10.00,13.00,0.00,30.52,M,10.00,M,CLR,M,M,M,M,M,M,M,M,M,M,M,M,M,M,0.17,KOOA 302255Z AUTO 01013KT 10SM CLR M09/M16 A3052 RMK AO2 T10931163,M
OOA,2026-01-30 23:15,15.00,3.00,58.31,10.00,11.00,0.00,30.53,M,10.00,M,CLR,M,M,M,M,M,M,M,M,M,M,M,M,M,M,0.98,KOOA 302315Z AUTO 01011KT 10SM CLR M09/M16 A3053 RMK AO2 T10951162,M
OOA,2026-01-30 23:35,14.00,3.20,61.49,10.00,11.00,0.00,30.55,M,10.00,M,CLR,M,M,M,M,M,M,M,M,M,M,M,M,M,M,-0.28,KOOA 302335Z AUTO 01011KT 10SM CLR M10/M16 A3055 RMK AO2 T10991160,M
OOA,2026-01-30 23:55,14.00,4.60,65.58,10.00,14.00,0.00,30.55,M,7.00,19.00,CLR,M,M,M,M,M,M,M,M,M,M,M,M,M,M,-2.04,KOOA 302355Z AUTO 01014G19KT 7SM CLR M10/M15 A3055 RMK AO2 T11011152 11076 21102,M
OOA,2026-01-31 00:15,13.30,4.00,65.79,360.00,11.00,0.00,30.56,M,10.00,M,CLR,M,M,M,M,M,M,M,M,M,M,M,M,M,M,-1.17,KOOA 310015Z AUTO 36011KT 10SM CLR M10/M16 A3056 RMK AO2 T11041156,M
OOA,2026-01-31 00:35,12.70,3.20,65.11,360.00,10.00,0.00,30.57,M,10.00,M,CLR,M,M,M,M,M,M,M,M,M,M,M,M,M,M,-1.23,KOOA 310035Z AUTO 36010KT 10SM CLR M11/M16 A3057 RMK AO2 T11071160,M
OOA,2026-01-31 00:55,12.00,2.00,63.52,10.00,9.00,0.00,30.58,M,10.00,M,CLR,M,M,M,M,M,M,M,M,M,M,M,M,M,M,-1.35,KOOA 310055Z AUTO 01009KT 10SM CLR M11/M17 A3058 RMK AO2 T11111166,M
OOA,2026-01-31 01:15,12.00,2.00,63.52,360.00,12.00,0.00,30.58,M,10.00,M,CLR,M,M,M,M,M,M,M,M,M,M,M,M,M,M,-3.45,KOOA 310115Z AUTO 36012KT 10SM CLR M11/M17 A3058 RMK AO2 T11121167,M
OOA,2026-01-31 01:35,11.30,1.60,64.32,360.00,10.00,0.00,30.59,M,10.00,M,CLR,M,M,M,M,M,M,M,M,M,M,M,M,M,M,-2.99,KOOA 310135Z AUTO 36010KT 10SM CLR M11/M17 A3059 RMK AO2 T11151169,M
OOA,2026-01-31 01:55,11.00,1.40,64.58,360.00,11.00,0.00,30.59,M,10.00,M,CLR,M,M,M,M,M,M,M,M,M,M,M,M,M,M,-4.07,KOOA 310155Z AUTO 36011KT 10SM CLR M12/M17 A3059 RMK AO2 T11171170,M
OOA,2026-01-31 02:15,10.40,1.00,65.10,350.00,10.00,0.00,30.59,M,10.00,M,CLR,M,M,M,M,M,M,M,M,M,M,M,M,M,M,-4.12,KOOA 310215Z AUTO 35010KT 10SM CLR M12/M17 A3059 RMK AO2 T11201172,M
OOA,2026-01-31 02:35,9.70,1.00,67.17,350.00,9.00,0.00,30.60,M,10.00,M,CLR,M,M,M,M,M,M,M,M,M,M,M,M,M,M,-4.21,KOOA 310235Z AUTO 35009KT 10SM CLR M12/M17 A3060 RMK AO2 T11241173,M
OOA,2026-01-31 02:55,9.30,0.50,66.81,350.00,9.00,0.00,30.60,M,10.00,M,CLR,M,M,M,M,M,M,M,M,M,M,M,M,M,M,-4.71,KOOA 310255Z AUTO 35009KT 10SM CLR M13/M17 A3060 RMK AO2 T11261175,M
OOA,2026-01-31 03:15,9.00,0.50,67.71,350.00,9.00,0.00,30.60,M,10.00,M,CLR,M,M,M,M,M,M,M,M,M,M,M,M,M,M,-5.09,KOOA 310315Z AUTO 35009KT 10SM CLR M13/M17 A3060 RMK AO2 T11271175,M
OOA,2026-01-31 03:35,8.60,0.70,69.59,350.00,9.00,0.00,30.61,M,10.00,M,CLR,M,M,M,M,M,M,M,M,M,M,M,M,M,M,-5.58,KOOA 310335Z AUTO 35009KT 10SM CLR M13/M17 A3061 RMK AO2 T11301174,M
OOA,2026-01-31 03:55,8.60,1.00,70.57,350.00,8.00,0.00,30.61,M,10.00,M,CLR,M,M,M,M,M,M,M,M,M,M,M,M,M,M,-4.71,KOOA 310355Z AUTO 35008KT 10SM CLR M13/M17 A3061 RMK AO2 T11301172,M
OOA,2026-01-31 04:15,8.40,1.00,71.21,350.00,7.00,0.00,30.62,M,10.00,M,CLR,M,M,M,M,M,M,M,M,M,M,M,M,M,M,-3.99,KOOA 310415Z AUTO 35007KT 10SM CLR M13/M17 A3062 RMK AO2 T11311172,M
OOA,2026-01-31 04:35,8.20,0.70,70.86,340.00,9.00,0.00,30.62,M,10.00,M,CLR,M,M,M,M,M,M,M,M,M,M,M,M,M,M,-6.08,KOOA 310435Z AUTO 34009KT 10SM CLR M13/M17 A3062 RMK AO2 T11321174,M
OOA,2026-01-31 04:55,7.50,0.50,72.45,350.00,10.00,0.00,30.62,M,10.00,M,CLR,M,M,M,M,M,M,M,M,M,M,M,M,M,M,-7.76,KOOA 310455Z AUTO 35010KT 10SM CLR M14/M17 A3062 RMK AO2 T11361175,M
OOA,2026-01-31 05:15,7.50,0.50,72.45,350.00,10.00,0.00,30.62,M,10.00,M,CLR,M,M,M,M,M,M,M,M,M,M,M,M,M,M,-7.76,KOOA 310515Z AUTO 35010KT 10SM CLR M14/M17 A3062 RMK AO2 T11361175,M
OOA,2026-01-31 05:35,7.50,0.50,72.45,350.00,10.00,0.00,30.62,M,10.00,M,CLR,M,M,M,M,M,M,M,M,M,M,M,M,M,M,-7.76,KOOA 310535Z AUTO 35010KT 10SM CLR M14/M17 A3062 RMK AO2 T11361175,M
OOA,2026-01-31 05:55,7.00,0.30,73.42,340.00,9.00,0.00,30.62,M,10.00,M,CLR,M,M,M,M,M,M,M,M,M,M,M,M,M,M,-7.57,KOOA 310555Z AUTO 34009KT 10SM CLR M14/M18 A3062 RMK AO2 T11381176 11101 21138 410761171,M
OOA,2026-01-31 06:15,6.60,0.00,73.72,330.00,10.00,0.00,30.63,M,10.00,M,CLR,M,M,M,M,M,M,M,M,M,M,M,M,M,M,-8.88,KOOA 310615Z AUTO 33010KT 10SM CLR M14/M18 A3063 RMK AO2 T11411177,M
OOA,2026-01-31 06:35,7.00,0.00,72.39,350.00,9.00,0.00,30.62,M,10.00,M,CLR,M,M,M,M,M,M,M,M,M,M,M,M,M,M,-7.57,KOOA 310635Z AUTO 35009KT 10SM CLR M14/M18 A3062 RMK AO2 T11391177,M
OOA,2026-01-31 06:55,6.30,-0.40,73.34,320.00,7.00,0.00,30.62,M,10.00,M,CLR,M,M,M,M,M,M,M,M,M,M,M,M,M,M,-6.55,KOOA 310655Z AUTO 32007KT 10SM CLR M14/M18 A3062 RMK AO2 T11431180,M
OOA,2026-01-31 07:15,4.60,-1.00,77.06,320.00,7.00,0.00,30.62,M,10.00,M,CLR,M,M,M,M,M,M,M,M,M,M,M,M,M,M,-8.62,KOOA 310715Z AUTO 32007KT 10SM CLR M15/M18 A3062 RMK AO2 T11521183,M
OOA,2026-01-31 07:35,4.50,-1.30,76.33,310.00,7.00,0.00,30.62,M,10.00,M,CLR,M,M,M,M,M,M,M,M,M,M,M,M,M,M,-8.74,KOOA 310735Z AUTO 31007KT 10SM CLR M15/M18 A3062 RMK AO2 T11531185,M
OOA,2026-01-31 07:55,4.00,-1.30,78.10,320.00,6.00,0.00,30.62,M,10.00,M,CLR,M,M,M,M,M,M,M,M,M,M,M,M,M,M,-8.19,KOOA 310755Z AUTO 32006KT 10SM CLR M15/M18 A3062 RMK AO2 T11551185,M
OOA,2026-01-31 08:15,4.00,-1.70,76.64,320.00,7.00,0.00,30.62,M,10.00,M,CLR,M,M,M,M,M,M,M,M,M,M,M,M,M,M,-9.35,KOOA 310815Z AUTO 32007KT 10SM CLR M16/M19 A3062 RMK AO2 T11561187,M
OOA,2026-01-31 08:35,4.00,-2.00,75.56,310.00,6.00,0.00,30.62,M,10.00,M,CLR,M,M,M,M,M,M,M,M,M,M,M,M,M,M,-8.19,KOOA 310835Z AUTO 31006KT 10SM CLR M16/M19 A3062 RMK AO2 T11561188,M
OOA,2026-01-31 08:55,3.20,-2.20,77.66,320.00,6.00,0.00,30.61,M,10.00,M,CLR,M,M,M,M,M,M,M,M,M,M,M,M,M,M,-9.16,KOOA 310855Z AUTO 32006KT 10SM CLR M16/M19 A3061 RMK AO2 T11601190,M
OOA,2026-01-31 09:15,3.60,-2.20,76.24,310.00,7.00,0.00,30.61,M,10.00,M,CLR,M,M,M,M,M,M,M,M,M,M,M,M,M,M,-9.84,KOOA 310915Z AUTO 31007KT 10SM CLR M16/M19 A3061 RMK AO2 T11581190,M
OOA,2026-01-31 09:35,3.60,-2.40,75.52,320.00,7.00,0.00,30.61,M,10.00,M,CLR,M,M,M,M,M,M,M,M,M,M,M,M,M,M,-9.84,KOOA 310935Z AUTO 32007KT 10SM CLR M16/M19 A3061 RMK AO2 T11581191,M
OOA,2026-01-31 09:55,3.20,-2.40,76.93,320.00,8.00,0.00,30.61,M,10.00,M,CLR,M,M,M,M,M,M,M,M,M,M,M,M,M,M,-11.36,KOOA 310955Z AUTO 32008KT 10SM CLR M16/M19 A3061 RMK AO2 T11601191,M
OOA,2026-01-31 10:15,3.20,-2.60,76.20,320.00,7.00,0.00,30.61,M,10.00,M,CLR,M,M,M,M,M,M,M,M,M,M,M,M,M,M,-10.33,KOOA 311015Z AUTO 32007KT 10SM CLR M16/M19 A3061 RMK AO2 T11601192,M
OOA,2026-01-31 10:35,3.20,-2.60,76.20,320.00,7.00,0.00,30.60,M,10.00,M,CLR,M,M,M,M,M,M,M,M,M,M,M,M,M,M,-10.33,KOOA 311035Z AUTO 32007KT 10SM CLR M16/M19 A3060 RMK AO2 T11601192,M
OOA,2026-01-31 10:55,3.40,-2.60,75.50,310.00,9.00,0.00,30.60,M,10.00,M,CLR,M,M,M,M,M,M,M,M,M,M,M,M,M,M,-12.05,KOOA 311055Z AUTO 31009KT 10SM CLR M16/M19 A3060 RMK AO2 T11591192,M
OOA,2026-01-31 11:15,3.20,-2.60,76.20,320.00,8.00,0.00,30.60,M,10.00,M,CLR,M,M,M,M,M,M,M,M,M,M,M,M,M,M,-11.36,KOOA 311115Z AUTO 32008KT 10SM CLR M16/M19 A3060 RMK AO2 T11601192,M
OOA,2026-01-31 11:35,3.60,-2.60,74.80,310.00,9.00,0.00,30.60,M,10.00,M,CLR,M,M,M,M,M,M,M,M,M,M,M,M,M,M,-11.80,KOOA 311135Z AUTO 31009KT 10SM CLR M16/M19 A3060 RMK AO2 T11581192,M
OOA,2026-01-31 11:55,3.20,-2.60,76.20,310.00,9.00,0.00,30.60,M,10.00,M,CLR,M,M,M,M,M,M,M,M,M,M,M,M,M,M,-12.30,KOOA 311155Z AUTO 31009KT 10SM CLR M16/M19 A3060 RMK AO2 T11601192 11138 21161,M
OOA,2026-01-31 12:15,3.00,-2.70,76.54,330.00,7.00,0.00,30.60,M,10.00,M,CLR,M,M,M,M,M,M,M,M,M,M,M,M,M,M,-10.57,KOOA 311215Z AUTO 33007KT 10SM CLR M16/M19 A3060 RMK AO2 T11611193,M
OOA,2026-01-31 12:35,3.20,-2.60,76.20,320.00,9.00,0.00,30.59,M,10.00,M,CLR,M,M,M,M,M,M,M,M,M,M,M,M,M,M,-12.30,KOOA 311235Z AUTO 32009KT 10SM CLR M16/M19 A3059 RMK AO2 T11601192,M
OOA,2026-01-31 12:55,3.20,-2.60,76.20,330.00,8.00,0.00,30.59,M,10.00,M,CLR,M,M,M,M,M,M,M,M,M,M,M,M,M,M,-11.36,KOOA 311255Z AUTO 33008KT 10SM CLR M16/M19 A3059 RMK AO2 T11601192,M
OOA,2026-01-31 13:15,3.00,-2.70,76.54,330.00,7.00,0.00,30.59,M,10.00,M,CLR,M,M,M,M,M,M,M,M,M,M,M,M,M,M,-10.57,KOOA 311315Z AUTO 33007KT 10SM CLR M16/M19 A3059 RMK AO2 T11611193,M
OOA,2026-01-31 13:35,2.70,-3.00,76.51,330.00,6.00,0.00,30.59,M,10.00,M,CLR,M,M,M,M,M,M,M,M,M,M,M,M,M,M,-9.76,KOOA 311335Z AUTO 33006KT 10SM CLR M16/M19 A3059 RMK AO2 T11631195,M
OOA,2026-01-31 13:55,3.60,-2.20,76.24,310.00,6.00,0.00,30.59,M,10.00,M,CLR,M,M,M,M,M,M,M,M,M,M,M,M,M,M,-8.67,KOOA 311355Z AUTO 31006KT 10SM CLR M16/M19 A3059 RMK AO2 T11581190,M
OOA,2026-01-31 14:15,5.00,-1.30,74.60,310.00,7.00,0.00,30.59,M,10.00,M,CLR,M,M,M,M,M,M,M,M,M,M,M,M,M,M,-8.13,KOOA 311415Z AUTO 31007KT 10SM CLR M15/M18 A3059 RMK AO2 T11501185,M
OOA,2026-01-31 14:35,6.80,-0.40,71.69,320.00,9.00,0.00,30.59,M,10.00,M,CLR,M,M,M,M,M,M,M,M,M,M,M,M,M,M,-7.82,KOOA 311435Z AUTO 32009KT 10SM CLR M14/M18 A3059 RMK AO2 T11401180,M
OOA,2026-01-31 14:55,9.00,0.30,67.08,350.00,10.00,0.00,30.59,M,10.00,M,CLR,M,M,M,M,M,M,M,M,M,M,M,M,M,M,-5.87,KOOA 311455Z AUTO 35010KT 10SM CLR M13/M18 A3059 RMK AO2 T11281176,M
OOA,2026-01-31 15:15,10.00,0.70,65.35,330.00,8.00,0.00,30.59,M,10.00,M,CLR,M,M,M,M,M,M,M,M,M,M,M,M,M,M,-2.99,KOOA 311515Z AUTO 33008KT 10SM CLR M12/M17 A3059 RMK AO2 T11221174,M
OOA,2026-01-31 15:35,11.50,1.60,63.75,330.00,9.00,0.00,30.60,M,10.00,M,CLR,M,M,M,M,M,M,M,M,M,M,M,M,M,M,-1.98,KOOA 311535Z AUTO 33009KT 10SM CLR M11/M17 A3060 RMK AO2 T11141169,M
OOA,2026-01-31 15:55,13.00,2.00,60.77,360.00,8.00,0.00,30.60,M,10.00,M,CLR,M,M,M,M,M,M,M,M,M,M,M,M,M,M,0.71,KOOA 311555Z AUTO 36008KT 10SM CLR M10/M17 A3060 RMK AO2 T11051166,M
OOA,2026-01-31 16:15,14.00,2.70,60.08,340.00,7.00,0.00,30.60,M,10.00,M,CLR,M,M,M,M,M,M,M,M,M,M,M,M,M,M,2.84,KOOA 311615Z AUTO 34007KT 10SM CLR M10/M16 A3060 RMK AO2 T11001163,M
OOA,2026-01-31 16:35,15.00,3.40,59.40,330.00,8.00,0.00,30.60,M,10.00,M,CLR,M,M,M,M,M,M,M,M,M,M,M,M,M,M,3.17,KOOA 311635Z AUTO 33008KT 10SM CLR M09/M16 A3060 RMK AO2 T10941159,M
OOA,2026-01-31 16:55,16.00,4.00,58.46,320.00,8.00,0.00,30.60,M,10.00,M,CLR,M,M,M,M,M,M,M,M,M,M,M,M,M,M,4.40,KOOA 311655Z AUTO 32008KT 10SM CLR M09/M15 A3060 RMK AO2 T10881155,M
OOA,2026-01-31 17:15,17.80,5.00,56.62,320.00,7.00,0.00,30.59,M,10.00,M,CLR,M,M,M,M,M,M,M,M,M,M,M,M,M,M,7.47,KOOA 311715Z AUTO 32007KT 10SM CLR M08/M15 A3059 RMK AO2 T10791149,M
OOA,2026-01-31 17:35,19.20,5.50,54.55,310.00,7.00,0.00,30.58,M,10.00,M,CLR,M,M,M,M,M,M,M,M,M,M,M,M,M,M,9.18,KOOA 311735Z AUTO 31007KT 10SM CLR M07/M15 A3058 RMK AO2 T10711147,M
OOA,2026-01-31 17:55,20.70,6.40,53.31,310.00,8.00,0.00,30.57,M,10.00,M,CLR,M,M,M,M,M,M,M,M,M,M,M,M,M,M,10.19,KOOA 311755Z AUTO 31008KT 10SM CLR M06/M14 A3057 RMK AO2 T10631142 11063 21163,M
OOA,2026-01-31 18:15,22.00,6.80,51.38,320.00,8.00,0.00,30.55,M,10.00,M,CLR,M,M,M,M,M,M,M,M,M,M,M,M,M,M,11.79,KOOA 311815Z AUTO 32008KT 10SM CLR M06/M14 A3055 RMK AO2 T10561140,M
OOA,2026-01-31 18:35,23.00,7.00,49.71,340.00,8.00,0.00,30.54,M,10.00,15.00,CLR,M,M,M,M,M,M,M,M,M,M,M,M,M,M,13.03,KOOA 311835Z AUTO 34008G15KT 10SM CLR M05/M14 A3054 RMK AO2 T10511138,M
OOA,2026-01-31 18:55,23.50,7.00,48.67,0.00,0.00,0.00,30.52,M,10.00,M,CLR,M,M,M,M,M,M,M,M,M,M,M,M,M,M,23.50,KOOA 311855Z AUTO 00000KT 10SM CLR M05/M14 A3052 RMK AO2 T10471139,M
OOA,2026-01-31 19:15,25.00,7.70,47.19,330.00,4.00,0.00,30.51,M,10.00,M,CLR,M,M,M,M,M,M,M,M,M,M,M,M,M,M,19.25,KOOA 311915Z AUTO 33004KT 10SM CLR M04/M13 A3051 RMK AO2 T10391135,M
OOA,2026-01-31 19:35,25.70,8.00,46.46,360.00,5.00,0.00,30.50,M,10.00,M,CLR,M,M,M,M,M,M,M,M,M,M,M,M,M,M,18.91,KOOA 311935Z AUTO 36005KT 10SM CLR M03/M13 A3050 RMK AO2 T10351134,M
OOA,2026-01-31 19:55,26.40,8.00,45.13,300.00,6.00,0.00,30.50,M,10.00,M,CLR,M,M,M,M,M,M,M,M,M,M,M,M,M,M,18.79,KOOA 311955Z AUTO 30006KT 10SM CLR M03/M13 A3050 RMK AO2 T10311133,M
OOA,2026-01-31 20:15,26.60,8.00,44.76,290.00,5.00,0.00,30.49,M,10.00,M,CLR,M,M,M,M,M,M,M,M,M,M,M,M,M,M,19.98,KOOA 312015Z AUTO 29005KT 10SM CLR M03/M13 A3049 RMK AO2 T10301133,M
OOA,2026-01-31 20:35,27.70,8.20,43.16,310.00,6.00,0.00,30.49,M,10.00,M,CLR,M,M,M,M,M,M,M,M,M,M,M,M,M,M,20.35,KOOA 312035Z AUTO 31006KT 10SM CLR M02/M13 A3049 RMK AO2 T10241132,M
OOA,2026-01-31 20:55,28.00,8.00,42.25,300.00,7.00,0.00,30.49,M,10.00,M,CLR,M,M,M,M,M,M,M,M,M,M,M,M,M,M,19.90,KOOA 312055Z AUTO 30007KT 10SM CLR M02/M13 A3049 RMK AO2 T10221134,M
OOA,2026-01-31 21:15,28.20,8.00,41.90,300.00,7.00,0.00,30.48,M,10.00,M,CLR,M,M,M,M,M,M,M,M,M,M,M,M,M,M,20.15,KOOA 312115Z AUTO 30007KT 10SM CLR M02/M13 A3048 RMK AO2 T10211134,M
OOA,2026-01-31 21:35,28.20,7.70,41.34,290.00,7.00,0.00,30.48,M,10.00,M,CLR,M,M,M,M,M,M,M,M,M,M,M,M,M,M,20.15,KOOA 312135Z AUTO 29007KT 10SM CLR M02/M13 A3048 RMK AO2 T10211135,M
OOA,2026-01-31 21:55,28.00,7.70,41.68,300.00,7.00,0.00,30.48,M,10.00,M,CLR,M,M,M,M,M,M,M,M,M,M,M,M,M,M,19.90,KOOA 312155Z AUTO 30007KT 10SM CLR M02/M13 A3048 RMK AO2 T10221135,M
OOA,2026-01-31 22:15,28.00,7.70,41.68,310.00,6.00,0.00,30.48,M,10.00,M,CLR,M,M,M,M,M,M,M,M,M,M,M,M,M,M,20.71,KOOA 312215Z AUTO 31006KT 10SM CLR M02/M13 A3048 RMK AO2 T10221135,M
OOA,2026-01-31 22:35,27.30,7.30,42.13,280.00,4.00,0.00,30.47,M,10.00,M,CLR,M,M,M,M,M,M,M,M,M,M,M,M,M,M,21.93,KOOA 312235Z AUTO 28004KT 10SM CLR M03/M14 A3047 RMK AO2 T10261137,M
OOA,2026-01-31 22:55,26.60,7.00,42.78,280.00,5.00,0.00,30.47,M,10.00,M,CLR,M,M,M,M,M,M,M,M,M,M,M,M,M,M,19.98,KOOA 312255Z AUTO 28005KT 10SM CLR M03/M14 A3047 RMK AO2 T10301139,M
OOA,2026-01-31 23:15,24.30,6.00,44.98,270.00,4.00,0.00,30.47,M,10.00,M,CLR,M,M,M,M,M,M,M,M,M,M,M,M,M,M,18.43,KOOA 312315Z AUTO 27004KT 10SM CLR M04/M14 A3047 RMK AO2 T10431144,M
OOA,2026-01-31 23:35,22.00,5.00,47.33,270.00,6.00,0.00,30.47,M,10.00,M,CLR,M,M,M,M,M,M,M,M,M,M,M,M,M,M,13.49,KOOA 312335Z AUTO 27006KT 10SM CLR M06/M15 A3047 RMK AO2 T10561151,M
OOA,2026-01-31 23:55,20.00,4.50,50.35,290.00,7.00,0.00,30.47,M,10.00,M,CLR,M,M,M,M,M,M,M,M,M,M,M,M,M,M,10.15,KOOA 312355Z AUTO 29007KT 10SM CLR M07/M15 A3047 RMK AO2 T10671153 11020 21067,M
OOA,2026-02-01 00:15,19.40,4.30,51.19,300.00,5.00,0.00,30.46,M,10.00,M,CLR,M,M,M,M,M,M,M,M,M,M,M,M,M,M,11.43,KOOA 010015Z AUTO 30005KT 10SM CLR M07/M15 A3046 RMK AO2 T10701154,M
OOA,2026-02-01 00:35,20.50,5.40,51.37,300.00,5.00,0.00,30.47,M,10.00,M,CLR,M,M,M,M,M,M,M,M,M,M,M,M,M,M,12.74,KOOA 010035Z AUTO 30005KT 10SM CLR M06/M15 A3047 RMK AO2 T10641148,M
OOA,2026-02-01 00:55,20.00,5.40,52.47,0.00,0.00,0.00,30.45,M,10.00,M,CLR,M,M,M,M,M,M,M,M,M,M,M,M,M,M,20.00,KOOA 010055Z AUTO 00000KT 10SM CLR M07/M15 A3045 RMK AO2 T10661148,M
OOA,2026-02-01 01:15,21.20,6.00,51.25,0.00,0.00,0.00,30.44,M,10.00,M,CLR,M,M,M,M,M,M,M,M,M,M,M,M,M,M,21.20,KOOA 010115Z AUTO 00000KT 10SM CLR M06/M14 A3044 RMK AO2 T10601144,M
OOA,2026-02-01 01:35,20.30,6.00,53.25,0.00,0.00,0.00,30.45,M,10.00,M,CLR,M,M,M,M,M,M,M,M,M,M,M,M,M,M,20.30,KOOA 010135Z AUTO 00000KT 10SM CLR M06/M14 A3045 RMK AO2 T10651145,M
OOA,2026-02-01 01:55,15.30,3.00,57.55,230.00,3.00,0.00,30.45,M,10.00,M,CLR,M,M,M,M,M,M,M,M,M,M,M,M,M,M,9.60,KOOA 010155Z AUTO 23003KT 10SM CLR M09/M16 A3045 RMK AO2 T10931162,M
OOA,2026-02-01 02:15,15.00,3.40,59.40,0.00,0.00,0.00,30.44,M,10.00,M,CLR,M,M,M,M,M,M,M,M,M,M,M,M,M,M,15.00,KOOA 010215Z AUTO 00000KT 10SM CLR M09/M16 A3044 RMK AO2 T10951159,M
OOA,2026-02-01 02:35,15.40,3.40,58.37,200.00,3.00,0.00,30.44,M,10.00,M,CLR,M,M,M,M,M,M,M,M,M,M,M,M,M,M,9.71,KOOA 010235Z AUTO 20003KT 10SM CLR M09/M16 A3044 RMK AO2 T10921159,M
OOA,2026-02-01 02:55,14.50,3.40,60.71,220.00,4.00,0.00,30.44,M,10.00,M,CLR,M,M,M,M,M,M,M,M,M,M,M,M,M,M,6.98,KOOA 010255Z AUTO 22004KT 10SM CLR M10/M16 A3044 RMK AO2 T10971159,M
OOA,2026-02-01 03:15,13.30,3.00,62.82,210.00,4.00,0.00,30.43,M,10.00,M,CLR,M,M,M,M,M,M,M,M,M,M,M,M,M,M,5.58,KOOA 010315Z AUTO 21004KT 10SM CLR M10/M16 A3043 RMK AO2 T11041161,M
OOA,2026-02-01 03:35,13.00,3.00,63.66,220.00,6.00,0.00,30.43,M,10.00,M,CLR,M,M,M,M,M,M,M,M,M,M,M,M,M,M,2.65,KOOA 010335Z AUTO 22006KT 10SM CLR M10/M16 A3043 RMK AO2 T11051161,M
OOA,2026-02-01 03:55,11.70,2.50,65.88,230.00,6.00,0.00,30.43,M,10.00,M,CLR,M,M,M,M,M,M,M,M,M,M,M,M,M,M,1.08,KOOA 010355Z AUTO 23006KT 10SM CLR M11/M16 A3043 RMK AO2 T11131164,M
OOA,2026-02-01 04:15,14.00,4.00,63.80,240.00,5.00,0.00,30.43,M,10.00,M,CLR,M,M,M,M,M,M,M,M,M,M,M,M,M,M,5.02,KOOA 010415Z AUTO 24005KT 10SM CLR M10/M15 A3043 RMK AO2 T11011155,M
OOA,2026-02-01 04:35,15.00,5.00,63.93,210.00,4.00,0.00,30.42,M,10.00,M,CLR,M,M,M,M,M,M,M,M,M,M,M,M,M,M,7.57,KOOA 010435Z AUTO 21004KT 10SM CLR M09/M15 A3042 RMK AO2 T10951150,M
OOA,2026-02-01 04:55,13.00,4.30,67.59,230.00,6.00,0.00,30.42,M,10.00,M,CLR,M,M,M,M,M,M,M,M,M,M,M,M,M,M,2.65,KOOA 010455Z AUTO 23006KT 10SM CLR M10/M15 A3042 RMK AO2 T11051154,M
OOA,2026-02-01 05:15,12.00,4.00,69.68,230.00,6.00,0.00,30.42,M,10.00,M,CLR,M,M,M,M,M,M,M,M,M,M,M,M,M,M,1.44,KOOA 010515Z AUTO 23006KT 10SM CLR M11/M16 A3042 RMK AO2 T11111156,M
OOA,2026-02-01 05:35,12.20,4.30,70.02,230.00,7.00,0.00,30.42,M,10.00,M,CLR,M,M,M,M,M,M,M,M,M,M,M,M,M,M,0.64,KOOA 010535Z AUTO 23007KT 10SM CLR M11/M15 A3042 RMK AO2 T11101154,M
OOA,2026-02-01 05:55,10.60,3.20,71.47,240.00,7.00,0.00,30.41,M,10.00,M,CLR,M,M,M,M,M,M,M,M,M,M,M,M,M,M,-1.31,KOOA 010555Z AUTO 24007KT 10SM CLR M12/M16 A3041 RMK AO2 T11191160 11058 21119 410201163,M
OOA,2026-02-01 06:15,10.20,3.60,74.11,230.00,7.00,0.00,30.40,M,10.00,M,CLR,M,M,M,M,M,M,M,M,M,M,M,M,M,M,-1.79,KOOA 010615Z AUTO 23007KT 10SM CLR M12/M16 A3040 RMK AO2 T11211158,M
OOA,2026-02-01 06:35,9.50,3.20,75.07,230.00,8.00,0.00,30.40,M,10.00,M,CLR,M,M,M,M,M,M,M,M,M,M,M,M,M,M,-3.60,KOOA 010635Z AUTO 23008KT 10SM CLR M12/M16 A3040 RMK AO2 T11251160,M
OOA,2026-02-01 06:55,10.20,3.60,74.11,210.00,6.00,0.00,30.38,M,10.00,M,CLR,M,M,M,M,M,M,M,M,M,M,M,M,M,M,-0.72,KOOA 010655Z AUTO 21006KT 10SM CLR M12/M16 A3038 RMK AO2 T11211158,M
OOA,2026-02-01 07:15,10.20,3.40,73.43,210.00,6.00,0.00,30.37,M,10.00,M,CLR,M,M,M,M,M,M,M,M,M,M,M,M,M,M,-0.72,KOOA 010715Z AUTO 21006KT 10SM CLR M12/M16 A3037 RMK AO2 T11211159,M
OOA,2026-02-01 07:35,9.50,3.00,74.38,200.00,6.00,0.00,30.36,M,10.00,M,CLR,M,M,M,M,M,M,M,M,M,M,M,M,M,M,-1.57,KOOA 010735Z AUTO 20006KT 10SM CLR M12/M16 A3036 RMK AO2 T11251161,M
OOA,2026-02-01 07:55,8.20,2.30,76.34,190.00,7.00,0.00,30.35,M,10.00,M,CLR,M,M,M,M,M,M,M,M,M,M,M,M,M,M,-4.23,KOOA 010755Z AUTO 19007KT 10SM CLR M13/M16 A3035 RMK AO2 T11321165,M
OOA,2026-02-01 08:15,9.00,3.40,77.49,190.00,8.00,0.00,30.34,M,10.00,M,CLR,M,M,M,M,M,M,M,M,M,M,M,M,M,M,-4.22,KOOA 010815Z AUTO 19008KT 10SM CLR M13/M16 A3034 RMK AO2 T11271159,M
OOA,2026-02-01 08:35,8.60,3.00,77.45,180.00,9.00,0.00,30.33,M,10.00,M,CLR,M,M,M,M,M,M,M,M,M,M,M,M,M,M,-5.58,KOOA 010835Z AUTO 18009KT 10SM CLR M13/M16 A3033 RMK AO2 T11301161,M
OOA,2026-02-01 08:55,10.00,3.70,75.12,170.00,9.00,0.00,30.32,M,10.00,M,CLR,M,M,M,M,M,M,M,M,M,M,M,M,M,M,-3.84,KOOA 010855Z AUTO 17009KT 10SM CLR M12/M16 A3032 RMK AO2 T11231157,M
OOA,2026-02-01 09:15,9.50,3.60,76.47,170.00,9.00,0.00,30.31,M,10.00,M,CLR,M,M,M,M,M,M,M,M,M,M,M,M,M,M,-4.46,KOOA 010915Z AUTO 17009KT 10SM CLR M12/M16 A3031 RMK AO2 T11251158,M
OOA,2026-02-01 09:35,9.30,3.20,75.75,190.00,8.00,0.00,30.31,M,10.00,M,CLR,M,M,M,M,M,M,M,M,M,M,M,M,M,M,-3.85,KOOA 010935Z AUTO 19008KT 10SM CLR M13/M16 A3031 RMK AO2 T11261160,M
OOA,2026-02-01 09:55,9.50,3.70,76.82,190.00,5.00,0.00,30.31,M,10.00,M,CLR,M,M,M,M,M,M,M,M,M,M,M,M,M,M,-0.33,KOOA 010955Z AUTO 19005KT 10SM CLR M12/M16 A3031 RMK AO2 T11251157,M
OOA,2026-02-01 10:15,10.20,4.60,77.60,160.00,7.00,0.00,30.29,M,10.00,M,CLR,M,M,M,M,M,M,M,M,M,M,M,M,M,M,-1.79,KOOA 011015Z AUTO 16007KT 10SM CLR M12/M15 A3029 RMK AO2 T11211152,M
OOA,2026-02-01 10:35,12.40,6.00,75.02,180.00,7.00,0.00,30.28,M,10.00,M,CLR,M,M,M,M,M,M,M,M,M,M,M,M,M,M,0.89,KOOA 011035Z AUTO 18007KT 10SM CLR M11/M14 A3028 RMK AO2 T11091145,M
OOA,2026-02-01 10:55,13.30,6.40,73.43,200.00,9.00,0.00,30.28,M,10.00,M,CLR,M,M,M,M,M,M,M,M,M,M,M,M,M,M,0.26,KOOA 011055Z AUTO 20009KT 10SM CLR M10/M14 A3028 RMK AO2 T11041142,M
OOA,2026-02-01 11:15,15.00,6.80,69.40,200.00,10.00,0.00,30.27,M,10.00,M,CLR,M,M,M,M,M,M,M,M,M,M,M,M,M,M,1.65,KOOA 011115Z AUTO 20010KT 10SM CLR M09/M14 A3027 RMK AO2 T10951140,M
OOA,2026-02-01 11:35,15.00,6.80,69.40,190.00,10.00,0.00,30.26,M,10.00,M,CLR,M,M,M,M,M,M,M,M,M,M,M,M,M,M,1.65,KOOA 011135Z AUTO 19010KT 10SM CLR M09/M14 A3026 RMK AO2 T10941140,M
OOA,2026-02-01 11:55,15.60,6.80,67.61,190.00,9.00,0.00,30.25,M,10.00,M,SCT,M,M,M,8000.00,M,M,M,M,M,M,M,M,M,M,3.12,KOOA 011155Z AUTO 19009KT 10SM SCT080 M09/M14 A3025 RMK AO2 T10911140 11091 21133,M
OOA,2026-02-01 12:15,16.50,7.00,65.61,160.00,9.00,0.00,30.22,M,10.00,M,CLR,M,M,M,M,M,M,M,M,M,M,M,M,M,M,4.24,KOOA 011215Z AUTO 16009KT 10SM CLR M09/M14 A3022 RMK AO2 T10861138,M
OOA,2026-02-01 12:35,17.60,6.80,62.00,180.00,8.00,0.00,30.23,M,10.00,M,SCT,M,M,M,9000.00,M,M,M,M,M,M,M,M,M,M,6.37,KOOA 011235Z AUTO 18008KT 10SM SCT090 M08/M14 A3023 RMK AO2 T10801140,M
OOA,2026-02-01 12:55,18.50,6.00,57.51,190.00,10.00,0.00,30.21,M,10.00,M,SCT,SCT,M,M,8000.00,9000.00,M,M,M,M,M,M,M,M,M,6.04,KOOA 011255Z AUTO 19010KT 10SM SCT080 SCT090 M07/M14 A3021 RMK AO2 T10751144,M
OOA,2026-02-01 13:15,19.00,5.50,55.02,200.00,12.00,0.00,30.20,M,10.00,M,SCT,M,M,M,7000.00,M,M,M,M,M,M,M,M,M,M,5.46,KOOA 011315Z AUTO 20012KT 10SM SCT070 M07/M15 A3020 RMK AO2 T10721147,M
OOA,2026-02-01 13:35,19.40,5.00,52.86,200.00,11.00,0.00,30.20,M,10.00,M,SCT,M,M,M,7000.00,M,M,M,M,M,M,M,M,M,M,6.54,KOOA 011335Z AUTO 20011KT 10SM SCT070 M07/M15 A3020 RMK AO2 T10701149,M
OOA,2026-02-01 13:55,20.00,5.70,53.20,190.00,11.00,0.00,30.20,M,10.00,M,CLR,M,M,M,M,M,M,M,M,M,M,M,M,M,M,7.30,KOOA 011355Z AUTO 19011KT 10SM CLR M07/M15 A3020 RMK AO2 T10671146,M
OOA,2026-02-01 14:15,20.30,6.00,53.25,180.00,11.00,0.00,30.19,M,10.00,M,SCT,M,M,M,5500.00,M,M,M,M,M,M,M,M,M,M,7.68,KOOA 011415Z AUTO 18011KT 10SM SCT055 M06/M14 A3019 RMK AO2 T10651144,M
OOA,2026-02-01 14:35,20.50,6.80,54.75,190.00,12.00,0.00,30.18,M,10.00,M,SCT,M,M,M,5000.00,M,M,M,M,M,M,M,M,M,M,7.37,KOOA 011435Z AUTO 19012KT 10SM SCT050 M06/M14 A3018 RMK AO2 T10641140,M
OOA,2026-02-01 14:55,21.00,7.00,54.09,200.00,11.00,0.00,30.19,M,10.00,M,CLR,M,M,M,M,M,M,M,M,M,M,M,M,M,M,8.57,KOOA 011455Z AUTO 20011KT 10SM CLR M06/M14 A3019 RMK AO2 T10621139,M
OOA,2026-02-01 15:15,21.00,7.70,55.83,200.00,11.00,0.00,30.19,M,10.00,M,CLR,M,M,M,M,M,M,M,M,M,M,M,M,M,M,8.57,KOOA 011515Z AUTO 20011KT 10SM CLR M06/M13 A3019 RMK AO2 T10611135,M
OOA,2026-02-01 15:35,21.00,11.50,66.20,220.00,10.00,0.00,30.19,M,1.50,M,VV ,M,M,M,700.00,M,M,M,M,M,M,M,M,M,M,9.17,KOOA 011535Z AUTO 22010KT 1 1/2SM VV007 M06/M11 A3019 RMK AO2 T10621114,M
OOA,2026-02-01 15:55,20.00,16.00,84.18,200.00,10.00,0.00,30.19,M,1.00,M,VV ,M,M,M,700.00,M,M,M,M,M,M,M,M,M,M,7.92,KOOA 011555Z AUTO 20010KT 1SM VV007 M07/M09 A3019 RMK AO2 T10671089,M
OOA,2026-02-01 16:15,20.30,16.50,84.93,180.00,12.00,0.00,30.17,M,3.00,M,M,M,M,M,M,M,M,M,M,M,M,M,M,M,M,7.11,KOOA 011615Z AUTO 18012KT 3SM M06/M09 A3017 RMK AO2 SKY OBSCURED T10651086,M
OOA,2026-02-01 16:35,21.40,16.00,79.31,180.00,14.00,0.00,30.17,M,10.00,M,CLR,M,M,M,M,M,M,M,M,M,M,M,M,M,M,7.50,KOOA 011635Z AUTO 18014KT 10SM CLR M06/M09 A3017 RMK AO2 T10591089,M
OOA,2026-02-01 16:55,21.70,16.00,78.31,180.00,10.00,0.00,30.16,M,2.50,M,M,M,M,M,M,M,M,M,M,M,M,M,M,M,M,10.05,KOOA 011655Z AUTO 18010KT 2 1/2SM M06/M09 A3016 RMK AO2 SKY OBSCURED VIS 1 1/2V4 T10571089,M
OOA,2026-02-01 17:15,22.00,17.00,80.75,200.00,10.00,0.00,30.15,M,4.00,M,CLR,M,M,M,M,M,M,M,M,M,M,M,M,M,M,10.43,KOOA 011715Z AUTO 20010KT 4SM CLR M06/M08 A3015 RMK AO2 T10561084,M
OOA,2026-02-01 17:35,22.00,16.30,78.34,200.00,11.00,0.00,30.14,M,7.00,M,CLR,M,M,M,M,M,M,M,M,M,M,M,M,M,M,9.83,KOOA 011735Z AUTO 20011KT 7SM CLR M05/M09 A3014 RMK AO2 T10551087,M
OOA,2026-02-01 17:55,23.50,17.20,76.47,200.00,11.00,0.00,30.13,M,10.00,M,CLR,M,M,M,M,M,M,M,M,M,M,M,M,M,M,11.72,KOOA 011755Z AUTO 20011KT 10SM CLR M05/M08 A3013 RMK AO2 T10471082 11047 21091,M
OOA,2026-02-01 18:15,24.80,16.70,70.87,210.00,12.00,0.00,30.12,M,10.00,M,CLR,M,M,M,M,M,M,M,M,M,M,M,M,M,M,12.84,KOOA 011815Z AUTO 21012KT 10SM CLR M04/M08 A3012 RMK AO2 T10401085,M
OOA,2026-02-01 18:35,25.50,17.40,70.95,200.00,10.00,0.00,30.11,M,10.00,M,CLR,M,M,M,M,M,M,M,M,M,M,M,M,M,M,14.82,KOOA 011835Z AUTO 20010KT 10SM CLR M04/M08 A3011 RMK AO2 T10361081,M
OOA,2026-02-01 18:55,26.00,17.00,68.30,210.00,12.00,0.00,30.10,M,10.00,M,CLR,M,M,M,M,M,M,M,M,M,M,M,M,M,M,14.37,KOOA 011855Z AUTO 21012KT 10SM CLR M03/M08 A3010 RMK AO2 T10341083,M
OOA,2026-02-01 19:15,26.80,17.00,66.07,230.00,11.00,0.00,30.09,M,10.00,M,CLR,M,M,M,M,M,M,M,M,M,M,M,M,M,M,15.90,KOOA 011915Z AUTO 23011KT 10SM CLR M03/M08 A3009 RMK AO2 T10291083,M
OOA,2026-02-01 19:35,27.00,17.40,66.67,230.00,12.00,0.00,30.09,M,10.00,M,CLR,M,M,M,M,M,M,M,M,M,M,M,M,M,M,15.64,KOOA 011935Z AUTO 23012KT 10SM CLR M03/M08 A3009 RMK AO2 T10281081,M
OOA,2026-02-01 19:55,26.80,19.00,72.02,220.00,11.00,0.00,30.08,M,4.00,M,CLR,M,M,M,M,M,M,M,M,M,M,M,M,M,M,15.90,KOOA 011955Z AUTO 22011KT 4SM CLR M03/M07 A3008 RMK AO2 T10291072,M
OOA,2026-02-01 20:15,25.70,19.00,75.37,210.00,7.00,0.00,30.08,M,3.00,M,M,M,M,M,M,M,M,M,M,M,M,M,M,M,M,17.10,KOOA 012015Z AUTO 21007KT 3SM M03/M07 A3008 RMK AO2 SKY OBSCURED T10351072,M
OOA,2026-02-01 20:35,26.60,19.40,73.87,200.00,8.00,0.00,30.07,M,10.00,M,CLR,M,M,M,M,M,M,M,M,M,M,M,M,M,M,17.46,KOOA 012035Z AUTO 20008KT 10SM CLR M03/M07 A3007 RMK AO2 T10301070,M
OOA,2026-02-01 20:55,27.00,19.80,73.91,180.00,7.00,0.00,30.07,M,10.00,M,CLR,M,M,M,M,M,M,M,M,M,M,M,M,M,M,18.68,KOOA 012055Z AUTO 18007KT 10SM CLR M03/M07 A3007 RMK AO2 T10271068,M
OOA,2026-02-01 21:15,26.80,19.60,73.89,180.00,7.00,0.00,30.08,M,10.00,M,CLR,M,M,M,M,M,M,M,M,M,M,M,M,M,M,18.44,KOOA 012115Z AUTO 18007KT 10SM CLR M03/M07 A3008 RMK AO2 T10291069,M
OOA,2026-02-01 21:35,27.50,20.30,73.96,170.00,8.00,0.00,30.08,M,10.00,M,CLR,M,M,M,M,M,M,M,M,M,M,M,M,M,M,18.57,KOOA 012135Z AUTO 17008KT 10SM CLR M02/M06 A3008 RMK AO2 T10251065,M
OOA,2026-02-01 21:55,27.30,20.50,75.21,180.00,6.00,0.00,30.07,M,10.00,M,CLR,M,M,M,M,M,M,M,M,M,M,M,M,M,M,19.87,KOOA 012155Z AUTO 18006KT 10SM CLR M03/M06 A3007 RMK AO2 T10261064,M
OOA,2026-02-01 22:15,27.50,20.30,73.96,170.00,6.00,0.00,30.09,M,10.00,M,CLR,M,M,M,M,M,M,M,M,M,M,M,M,M,M,20.11,KOOA 012215Z AUTO 17006KT 10SM CLR M02/M06 A3009 RMK AO2 T10251065,M
OOA,2026-02-01 22:35,27.50,20.70,75.23,170.00,7.00,0.00,30.08,M,10.00,M,CLR,M,M,M,M,M,M,M,M,M,M,M,M,M,M,19.29,KOOA 012235Z AUTO 17007KT 10SM CLR M02/M06 A3008 RMK AO2 T10251063,M
OOA,2026-02-01 22:55,27.50,21.00,76.20,160.00,6.00,0.00,30.08,M,10.00,M,CLR,M,M,M,M,M,M,M,M,M,M,M,M,M,M,20.11,KOOA 012255Z AUTO 16006KT 10SM CLR M02/M06 A3008 RMK AO2 T10251061,M
OOA,2026-02-01 23:15,27.50,21.00,76.20,170.00,6.00,0.00,30.08,M,10.00,M,CLR,M,M,M,M,M,M,M,M,M,M,M,M,M,M,20.11,KOOA 012315Z AUTO 17006KT 10SM CLR M02/M06 A3008 RMK AO2 T10251062,M
OOA,2026-02-01 23:35,27.50,21.00,76.20,170.00,6.00,0.00,30.09,M,10.00,M,CLR,M,M,M,M,M,M,M,M,M,M,M,M,M,M,20.11,KOOA 012335Z AUTO 17006KT 10SM CLR M02/M06 A3009 RMK AO2 T10251062,M
OOA,2026-02-01 23:55,27.50,21.20,76.85,170.00,5.00,0.00,30.09,M,10.00,M,SCT,SCT,M,M,8000.00,8500.00,M,M,M,M,M,M,M,M,M,21.05,KOOA 012355Z AUTO 17005KT 10SM SCT080 SCT085 M02/M06 A3009 RMK AO2 T10251060 11025 21046,M
OOA,2026-02-02 00:15,27.50,21.60,78.16,170.00,5.00,0.00,30.10,M,10.00,M,CLR,M,M,M,M,M,M,M,M,M,M,M,M,M,M,21.05,KOOA 020015Z AUTO 17005KT 10SM CLR M02/M06 A3010 RMK AO2 T10251058,M
OOA,2026-02-02 00:35,27.70,22.00,78.84,190.00,4.00,0.00,30.10,M,10.00,M,CLR,M,M,M,M,M,M,M,M,M,M,M,M,M,M,22.40,KOOA 020035Z AUTO 19004KT 10SM CLR M02/M06 A3010 RMK AO2 T10241056,M
OOA,2026-02-02 00:55,28.00,22.00,77.88,170.00,6.00,0.00,30.10,M,10.00,M,CLR,M,M,M,M,M,M,M,M,M,M,M,M,M,M,20.71,KOOA 020055Z AUTO 17006KT 10SM CLR M02/M06 A3010 RMK AO2 T10221056,M
OOA,2026-02-02 01:15,28.00,22.00,77.88,180.00,6.00,0.00,30.09,M,10.00,M,SCT,SCT,M,M,7500.00,9000.00,M,M,M,M,M,M,M,M,M,20.71,KOOA 020115Z AUTO 18006KT 10SM SCT075 SCT090 M02/M06 A3009 RMK AO2 T10221056,M
OOA,2026-02-02 01:35,28.40,22.00,76.61,180.00,5.00,0.00,30.09,M,10.00,M,SCT,BKN,M,M,7500.00,9000.00,M,M,M,M,M,M,M,M,M,22.12,KOOA 020135Z AUTO 18005KT 10SM SCT075 BKN090 M02/M05 A3009 RMK AO2 T10201055,M
OOA,2026-02-02 01:55,28.40,22.60,78.57,170.00,5.00,0.00,30.08,M,10.00,M,SCT,M,M,M,7500.00,M,M,M,M,M,M,M,M,M,M,22.12,KOOA 020155Z AUTO 17005KT 10SM SCT075 M02/M05 A3008 RMK AO2 T10201052,M
OOA,2026-02-02 02:15,28.80,23.00,78.61,170.00,3.00,0.00,30.09,M,10.00,M,CLR,M,M,M,M,M,M,M,M,M,M,M,M,M,M,25.03,KOOA 020215Z AUTO 17003KT 10SM CLR M02/M05 A3009 RMK AO2 T10181050,M
OOA,2026-02-02 02:35,28.80,24.00,81.98,180.00,3.00,0.00,30.09,M,10.00,M,CLR,M,M,M,M,M,M,M,M,M,M,M,M,M,M,25.03,KOOA 020235Z AUTO 18003KT 10SM CLR M02/M04 A3009 RMK AO2 T10181045,M
OOA,2026-02-02 02:55,29.00,24.00,81.31,180.00,4.00,0.00,30.09,M,10.00,M,CLR,M,M,M,M,M,M,M,M,M,M,M,M,M,M,23.92,KOOA 020255Z AUTO 18004KT 10SM CLR M02/M04 A3009 RMK AO2 T10171044,M
OOA,2026-02-02 03:15,29.00,24.40,82.68,180.00,5.00,0.00,30.08,M,10.00,M,SCT,SCT,M,M,7000.00,8500.00,M,M,M,M,M,M,M,M,M,22.83,KOOA 020315Z AUTO 18005KT 10SM SCT070 SCT085 M02/M04 A3008 RMK AO2 T10161042,M
OOA,2026-02-02 03:35,29.30,24.80,83.05,180.00,5.00,0.00,30.08,M,10.00,M,SCT,SCT,M,M,7000.00,8500.00,M,M,M,M,M,M,M,M,M,23.19,KOOA 020335Z AUTO 18005KT 10SM SCT070 SCT085 M01/M04 A3008 RMK AO2 T10151040,M
OOA,2026-02-02 03:55,30.00,25.30,82.41,220.00,4.00,0.00,30.09,M,10.00,M,CLR,M,M,M,M,M,M,M,M,M,M,M,M,M,M,25.08,KOOA 020355Z AUTO 22004KT 10SM CLR M01/M04 A3009 RMK AO2 T10111037,M
OOA,2026-02-02 04:15,31.60,26.00,79.51,290.00,8.00,0.00,30.10,M,10.00,M,CLR,M,M,M,M,M,M,M,M,M,M,M,M,M,M,23.62,KOOA 020415Z AUTO 29008KT 10SM CLR 00/M03 A3010 RMK AO2 T10021033,M
OOA,2026-02-02 04:35,32.00,27.00,81.54,310.00,8.00,0.00,30.10,M,10.00,M,SCT,M,M,M,8000.00,M,M,M,M,M,M,M,M,M,M,24.11,KOOA 020435Z AUTO 31008KT 10SM SCT080 00/M03 A3010 RMK AO2 T00011027,M
OOA,2026-02-02 04:55,32.50,28.40,84.65,330.00,7.00,0.00,30.10,M,10.00,M,SCT,SCT,M,M,8000.00,8500.00,M,M,M,M,M,M,M,M,M,25.39,KOOA 020455Z AUTO 33007KT 10SM SCT080 SCT085 00/M02 A3010 RMK AO2 T00031020,M
OOA,2026-02-02 05:15,32.00,28.20,85.67,330.00,9.00,0.00,30.11,M,10.00,M,SCT,M,M,M,8500.00,M,M,M,M,M,M,M,M,M,M,23.51,KOOA 020515Z AUTO 33009KT 10SM SCT085 00/M02 A3011 RMK AO2 T00001021,M
OOA,2026-02-02 05:35,32.00,27.50,83.24,340.00,9.00,0.00,30.10,M,10.00,M,SCT,M,M,M,8000.00,M,M,M,M,M,M,M,M,M,M,23.51,KOOA 020535Z AUTO 34009KT 10SM SCT080 00/M02 A3010 RMK AO2 T00001025,M
OOA,2026-02-02 05:55,32.00,27.00,81.54,330.00,11.00,0.00,30.11,M,10.00,M,SCT,SCT,M,M,8000.00,9500.00,M,M,M,M,M,M,M,M,M,22.47,KOOA 020555Z AUTO 33011KT 10SM SCT080 SCT095 00/M03 A3011 RMK AO2 T00001027 10005 21025 400051133,M
OOA,2026-02-02 06:15,32.00,27.00,81.54,340.00,10.00,0.00,30.12,M,10.00,M,SCT,BKN,M,M,8000.00,9500.00,M,M,M,M,M,M,M,M,M,22.97,KOOA 020615Z AUTO 34010KT 10SM SCT080 BKN095 00/M03 A3012 RMK AO2 T00001028,M
OOA,2026-02-02 06:35,31.50,25.30,77.54,340.00,13.00,0.00,30.12,M,10.00,M,SCT,M,M,M,8000.00,M,M,M,M,M,M,M,M,M,M,20.93,KOOA 020635Z AUTO 34013KT 10SM SCT080 00/M04 A3012 RMK AO2 T10031037,M
OOA,2026-02-02 06:55,31.00,24.80,77.50,350.00,9.00,0.00,30.12,M,10.00,M,SCT,SCT,M,M,8000.00,9500.00,M,M,M,M,M,M,M,M,M,22.27,KOOA 020655Z AUTO 35009KT 10SM SCT080 SCT095 M01/M04 A3012 RMK AO2 T10061040,M
OOA,2026-02-02 07:15,30.40,24.80,79.41,350.00,9.00,0.00,30.12,M,10.00,M,SCT,SCT,M,M,7000.00,8500.00,M,M,M,M,M,M,M,M,M,21.52,KOOA 020715Z AUTO 35009KT 10SM SCT070 SCT085 M01/M04 A3012 RMK AO2 T10091040,M
OOA,2026-02-02 07:35,30.20,24.60,79.39,350.00,9.00,0.00,30.13,M,10.00,M,SCT,BKN,M,M,7500.00,9500.00,M,M,M,M,M,M,M,M,M,21.28,KOOA 020735Z AUTO 35009KT 10SM SCT075 BKN095 M01/M04 A3013 RMK AO2 T10101041,M
OOA,2026-02-02 07:55,30.00,24.30,79.04,360.00,8.00,0.00,30.12,M,10.00,M,SCT,OVC,M,M,7500.00,9500.00,M,M,M,M,M,M,M,M,M,21.65,KOOA 020755Z AUTO 36008KT 10SM SCT075 OVC095 M01/M04 A3012 RMK AO2 T10111043,M
OOA,2026-02-02 08:15,30.00,24.30,79.04,350.00,6.00,0.00,30.13,M,10.00,M,SCT,OVC,M,M,7500.00,8500.00,M,M,M,M,M,M,M,M,M,23.12,KOOA 020815Z AUTO 35006KT 10SM SCT075 OVC085 M01/M04 A3013 RMK AO2 T10121043,M
OOA,2026-02-02 08:35,29.70,24.40,80.35,320.00,5.00,0.00,30.14,M,10.00,M,SCT,SCT,M,M,7500.00,9500.00,M,M,M,M,M,M,M,M,M,23.66,KOOA 020835Z AUTO 32005KT 10SM SCT075 SCT095 M01/M04 A3014 RMK AO2 T10131042,M
OOA,2026-02-02 08:55,29.50,24.60,81.69,310.00,4.00,0.00,30.13,M,10.00,M,SCT,SCT,M,M,7500.00,9000.00,M,M,M,M,M,M,M,M,M,24.50,KOOA 020855Z AUTO 31004KT 10SM SCT075 SCT090 M01/M04 A3013 RMK AO2 T10141041,M
OOA,2026-02-02 09:15,29.00,24.80,84.07,0.00,0.00,0.00,30.13,M,10.00,M,SCT,SCT,M,M,9000.00,12000.00,M,M,M,M,M,M,M,M,M,29.00,KOOA 020915Z AUTO 00000KT 10SM SCT090 SCT120 M02/M04 A3013 RMK AO2 T10161040,M
OOA,2026-02-02 09:35,29.00,25.00,84.78,300.00,3.00,0.00,30.14,M,10.00,M,SCT,SCT,M,M,9000.00,12000.00,M,M,M,M,M,M,M,M,M,25.26,KOOA 020935Z AUTO 30003KT 10SM SCT090 SCT120 M02/M04 A3014 RMK AO2 T10171039,M
OOA,2026-02-02 09:55,29.00,25.00,84.78,300.00,4.00,0.00,30.14,M,10.00,M,SCT,M,M,M,9000.00,M,M,M,M,M,M,M,M,M,M,23.92,KOOA 020955Z AUTO 30004KT 10SM SCT090 M02/M04 A3014 RMK AO2 T10171038,M
OOA,2026-02-02 10:15,29.30,24.80,83.05,320.00,6.00,0.00,30.14,M,10.00,M,SCT,SCT,M,M,7000.00,9000.00,M,M,M,M,M,M,M,M,M,22.28,KOOA 021015Z AUTO 32006KT 10SM SCT070 SCT090 M01/M04 A3014 RMK AO2 T10151040,M
OOA,2026-02-02 10:35,29.30,24.60,82.36,320.00,5.00,0.00,30.14,M,10.00,M,SCT,SCT,M,M,7000.00,9000.00,M,M,M,M,M,M,M,M,M,23.19,KOOA 021035Z AUTO 32005KT 10SM SCT070 SCT090 M01/M04 A3014 RMK AO2 T10151041,M
OOA,2026-02-02 10:55,29.30,24.40,81.67,320.00,5.00,0.00,30.15,M,10.00,M,CLR,M,M,M,M,M,M,M,M,M,M,M,M,M,M,23.19,KOOA 021055Z AUTO 32005KT 10SM CLR M01/M04 A3015 RMK AO2 T10151042,M
OOA,2026-02-02 11:15,29.30,24.40,81.67,330.00,7.00,0.00,30.14,M,10.00,M,CLR,M,M,M,M,M,M,M,M,M,M,M,M,M,M,21.49,KOOA 021115Z AUTO 33007KT 10SM CLR M01/M04 A3014 RMK AO2 T10151042,M
OOA,2026-02-02 11:35,29.50,23.70,78.67,340.00,7.00,0.00,30.14,M,10.00,M,CLR,M,M,M,M,M,M,M,M,M,M,M,M,M,M,21.73,KOOA 021135Z AUTO 34007KT 10SM CLR M01/M05 A3014 RMK AO2 T10141046,M
OOA,2026-02-02 11:55,29.30,24.00,80.32,330.00,5.00,0.00,30.14,M,10.00,M,CLR,M,M,M,M,M,M,M,M,M,M,M,M,M,M,23.19,KOOA 021155Z AUTO 33005KT 10SM CLR M01/M04 A3014 RMK AO2 T10151045 10000 21018,M
OOA,2026-02-02 12:15,29.00,24.40,82.68,0.00,0.00,0.00,30.14,M,10.00,M,CLR,M,M,M,M,M,M,M,M,M,M,M,M,M,M,29.00,KOOA 021215Z AUTO 00000KT 10SM CLR M02/M04 A3014 RMK AO2 T10171042,M
OOA,2026-02-02 12:35,29.00,24.30,82.33,320.00,4.00,0.00,30.15,M,10.00,M,CLR,M,M,M,M,M,M,M,M,M,M,M,M,M,M,23.92,KOOA 021235Z AUTO 32004KT 10SM CLR M02/M04 A3015 RMK AO2 T10171043,M
OOA,2026-02-02 12:55,28.40,24.00,83.33,330.00,5.00,0.00,30.15,M,10.00,M,SCT,M,M,M,7500.00,M,M,M,M,M,M,M,M,M,M,22.12,KOOA 021255Z AUTO 33005KT 10SM SCT075 M02/M04 A3015 RMK AO2 T10201045,M
OOA,2026-02-02 13:15,28.40,23.50,81.60,340.00,6.00,0.00,30.16,M,10.00,M,SCT,SCT,M,M,7500.00,8500.00,M,M,M,M,M,M,M,M,M,21.19,KOOA 021315Z AUTO 34006KT 10SM SCT075 SCT085 M02/M05 A3016 RMK AO2 T10201047,M
OOA,2026-02-02 13:35,28.40,23.00,79.91,330.00,6.00,0.00,30.17,M,10.00,M,CLR,M,M,M,M,M,M,M,M,M,M,M,M,M,M,21.19,KOOA 021335Z AUTO 33006KT 10SM CLR M02/M05 A3017 RMK AO2 T10201049,M
OOA,2026-02-02 13:55,28.40,23.50,81.60,340.00,4.00,0.00,30.17,M,10.00,M,CLR,M,M,M,M,M,M,M,M,M,M,M,M,M,M,23.22,KOOA 021355Z AUTO 34004KT 10SM CLR M02/M05 A3017 RMK AO2 T10201047,M
OOA,2026-02-02 14:15,28.40,24.00,83.33,330.00,3.00,0.00,30.17,M,10.00,M,CLR,M,M,M,M,M,M,M,M,M,M,M,M,M,M,24.57,KOOA 021415Z AUTO 33003KT 10SM CLR M02/M04 A3017 RMK AO2 T10201045,M
OOA,2026-02-02 14:35,29.00,24.00,81.31,340.00,4.00,0.00,30.17,M,10.00,M,CLR,M,M,M,M,M,M,M,M,M,M,M,M,M,M,23.92,KOOA 021435Z AUTO 34004KT 10SM CLR M02/M04 A3017 RMK AO2 T10171045,M
OOA,2026-02-02 14:55,29.00,23.50,79.62,0.00,0.00,0.00,30.17,M,10.00,M,CLR,M,M,M,M,M,M,M,M,M,M,M,M,M,M,29.00,KOOA 021455Z AUTO 00000KT 10SM CLR M02/M05 A3017 RMK AO2 T10171047,M
OOA,2026-02-02 15:15,29.00,23.70,80.29,0.00,0.00,0.00,30.17,M,10.00,M,CLR,M,M,M,M,M,M,M,M,M,M,M,M,M,M,29.00,KOOA 021515Z AUTO 00000KT 10SM CLR M02/M05 A3017 RMK AO2 T10171046,M
OOA,2026-02-02 15:35,29.30,24.00,80.32,0.00,0.00,0.00,30.18,M,10.00,M,CLR,M,M,M,M,M,M,M,M,M,M,M,M,M,M,29.30,KOOA 021535Z AUTO 00000KT 10SM CLR M01/M04 A3018 RMK AO2 T10151044,M
OOA,2026-02-02 15:55,29.30,24.30,81.33,0.00,0.00,0.00,30.18,M,10.00,M,CLR,M,M,M,M,M,M,M,M,M,M,M,M,M,M,29.30,KOOA 021555Z AUTO 00000KT 10SM CLR M01/M04 A3018 RMK AO2 T10151043,M
OOA,2026-02-02 16:15,29.30,24.40,81.67,340.00,4.00,0.00,30.18,M,10.00,M,CLR,M,M,M,M,M,M,M,M,M,M,M,M,M,M,24.27,KOOA 021615Z AUTO 34004KT 10SM CLR M01/M04 A3018 RMK AO2 T10151042,M
OOA,2026-02-02 16:35,29.50,24.40,81.01,0.00,0.00,0.00,30.19,M,10.00,M,CLR,M,M,M,M,M,M,M,M,M,M,M,M,M,M,29.50,KOOA 021635Z AUTO 00000KT 10SM CLR M01/M04 A3019 RMK AO2 T10141042,M
OOA,2026-02-02 16:55,30.20,25.00,80.73,340.00,5.00,0.00,30.20,M,10.00,M,CLR,M,M,M,M,M,M,M,M,M,M,M,M,M,M,24.26,KOOA 021655Z AUTO 34005KT 10SM CLR M01/M04 A3020 RMK AO2 T10101039,M
OOA,2026-02-02 17:15,30.20,25.00,80.73,340.00,6.00,0.00,30.20,M,10.00,M,CLR,M,M,M,M,M,M,M,M,M,M,M,M,M,M,23.36,KOOA 021715Z AUTO 34006KT 10SM CLR M01/M04 A3020 RMK AO2 T10101038,M
OOA,2026-02-02 17:35,30.60,25.50,81.09,350.00,6.00,0.00,30.19,M,10.00,M,CLR,M,M,M,M,M,M,M,M,M,M,M,M,M,M,23.84,KOOA 021735Z AUTO 35006KT 10SM CLR M01/M04 A3019 RMK AO2 T10081036,M
OOA,2026-02-02 17:55,31.00,25.70,80.45,350.00,7.00,0.00,30.18,M,10.00,M,CLR,M,M,M,M,M,M,M,M,M,M,M,M,M,M,23.56,KOOA 021755Z AUTO 35007KT 10SM CLR M01/M03 A3018 RMK AO2 T10061035 11006 21021,M
OOA,2026-02-02 18:15,31.50,26.00,79.83,10.00,5.00,0.00,30.17,M,10.00,M,CLR,M,M,M,M,M,M,M,M,M,M,M,M,M,M,25.80,KOOA 021815Z AUTO 01005KT 10SM CLR 00/M03 A3017 RMK AO2 T10031033,M
OOA,2026-02-02 18:35,31.00,26.00,81.46,40.00,5.00,0.00,30.17,M,10.00,M,CLR,M,M,M,M,M,M,M,M,M,M,M,M,M,M,25.21,KOOA 021835Z AUTO 04005KT 10SM CLR 00/M03 A3017 RMK AO2 T10051034,M
OOA,2026-02-02 18:55,30.70,25.50,80.77,0.00,0.00,0.00,30.15,M,10.00,M,CLR,M,M,M,M,M,M,M,M,M,M,M,M,M,M,30.70,KOOA 021855Z AUTO 00000KT 10SM CLR M01/M04 A3015 RMK AO2 T10071036,M
OOA,2026-02-02 19:15,30.70,25.70,81.44,0.00,0.00,0.00,30.16,M,10.00,M,CLR,M,M,M,M,M,M,M,M,M,M,M,M,M,M,30.70,KOOA 021915Z AUTO 00000KT 10SM CLR M01/M03 A3016 RMK AO2 T10071035,M
OOA,2026-02-02 19:35,31.00,25.70,80.45,0.00,0.00,0.00,30.15,M,7.00,M,CLR,M,M,M,M,M,M,M,M,M,M,M,M,M,M,31.00,KOOA 021935Z AUTO 00000KT 7SM CLR 00/M03 A3015 RMK AO2 T10051035,M
OOA,2026-02-02 19:55,31.60,26.00,79.51,350.00,3.00,0.00,30.14,M,10.00,M,CLR,M,M,M,M,M,M,M,M,M,M,M,M,M,M,28.23,KOOA 021955Z AUTO 35003KT 10SM CLR 00/M03 A3014 RMK AO2 T10021033,M
OOA,2026-02-02 20:15,32.00,25.50,76.63,10.00,6.00,0.00,30.13,M,10.00,M,CLR,M,M,M,M,M,M,M,M,M,M,M,M,M,M,25.53,KOOA 022015Z AUTO 01006KT 10SM CLR 00/M04 A3013 RMK AO2 T10011036,M
OOA,2026-02-02 20:35,31.30,25.00,77.20,360.00,5.00,0.00,30.13,M,10.00,M,CLR,M,M,M,M,M,M,M,M,M,M,M,M,M,M,25.56,KOOA 022035Z AUTO 36005KT 10SM CLR 00/M04 A3013 RMK AO2 T10041039,M
OOA,2026-02-02 20:55,32.00,25.30,75.99,20.00,4.00,0.00,30.14,M,10.00,M,CLR,M,M,M,M,M,M,M,M,M,M,M,M,M,M,27.42,KOOA 022055Z AUTO 02004KT 10SM CLR 00/M04 A3014 RMK AO2 T10011037,M
OOA,2026-02-02 21:15,31.30,25.00,77.20,340.00,4.00,0.00,30.15,M,10.00,M,CLR,M,M,M,M,M,M,M,M,M,M,M,M,M,M,26.60,KOOA 022115Z AUTO 34004KT 10SM CLR 00/M04 A3015 RMK AO2 T10041039,M
OOA,2026-02-02 21:35,32.00,25.30,75.99,360.00,5.00,0.00,30.14,M,10.00,M,CLR,M,M,M,M,M,M,M,M,M,M,M,M,M,M,26.40,KOOA 022135Z AUTO 36005KT 10SM CLR 00/M04 A3014 RMK AO2 T00001037,M
OOA,2026-02-02 21:55,31.50,25.00,76.58,360.00,5.00,0.00,30.15,M,10.00,M,CLR,M,M,M,M,M,M,M,M,M,M,M,M,M,M,25.80,KOOA 022155Z AUTO 36005KT 10SM CLR 00/M04 A3015 RMK AO2 T10031039,M
OOA,2026-02-02 22:15,31.00,24.60,76.85,20.00,6.00,0.00,30.13,M,10.00,M,CLR,M,M,M,M,M,M,M,M,M,M,M,M,M,M,24.33,KOOA 022215Z AUTO 02006KT 10SM CLR 00/M04 A3013 RMK AO2 T10051041,M
OOA,2026-02-02 22:35,31.00,24.40,76.21,360.00,4.00,0.00,30.13,M,10.00,M,CLR,M,M,M,M,M,M,M,M,M,M,M,M,M,M,26.25,KOOA 022235Z AUTO 36004KT 10SM CLR M01/M04 A3013 RMK AO2 T10061042,M
OOA,2026-02-02 22:55,30.40,24.00,76.80,10.00,4.00,0.00,30.15,M,10.00,M,CLR,M,M,M,M,M,M,M,M,M,M,M,M,M,M,25.55,KOOA 022255Z AUTO 01004KT 10SM CLR M01/M04 A3015 RMK AO2 T10091045,M
OOA,2026-02-02 23:15,30.00,23.70,77.08,10.00,6.00,0.00,30.15,M,10.00,M,CLR,M,M,M,M,M,M,M,M,M,M,M,M,M,M,23.12,KOOA 022315Z AUTO 01006KT 10SM CLR M01/M05 A3015 RMK AO2 T10111046,M
OOA,2026-02-02 23:35,29.00,23.50,79.62,30.00,4.00,0.00,30.15,M,10.00,M,CLR,M,M,M,M,M,M,M,M,M,M,M,M,M,M,23.92,KOOA 022335Z AUTO 03004KT 10SM CLR M02/M05 A3015 RMK AO2 T10161047,M
OOA,2026-02-02 23:55,28.00,23.00,81.23,40.00,4.00,0.00,30.15,M,10.00,M,CLR,M,M,M,M,M,M,M,M,M,M,M,M,M,M,22.75,KOOA 022355Z AUTO 04004KT 10SM CLR M02/M05 A3015 RMK AO2 T10221050 10000 21022,M